<?xml version="1.0" encoding="UTF-8"?>
<kml xmlns="http://www.opengis.net/kml/2.2" xmlns:gx="http://www.google.com/kml/ext/2.2" xmlns:kml="http://www.opengis.net/kml/2.2" xmlns:atom="http://www.w3.org/2005/Atom">
<Document>
	<name>Kabale_Maziba.kml</name>
	<StyleMap id="msn_ylw-pushpin">
		<Pair>
			<key>normal</key>
			<styleUrl>#sn_ylw-pushpin</styleUrl>
		</Pair>
		<Pair>
			<key>highlight</key>
			<styleUrl>#sh_ylw-pushpin</styleUrl>
		</Pair>
	</StyleMap>
	<Style id="sh_ylw-pushpin">
		<IconStyle>
			<scale>1.3</scale>
			<Icon>
				<href>http://maps.google.com/mapfiles/kml/pushpin/ylw-pushpin.png</href>
			</Icon>
			<hotSpot x="20" y="2" xunits="pixels" yunits="pixels"/>
		</IconStyle>
		<BalloonStyle>
		</BalloonStyle>
		<LineStyle>
			<width>0.6</width>
		</LineStyle>
		<PolyStyle>
			<color>ffffae6f</color>
		</PolyStyle>
	</Style>
	<Style id="sn_ylw-pushpin">
		<IconStyle>
			<scale>1.1</scale>
			<Icon>
				<href>http://maps.google.com/mapfiles/kml/pushpin/ylw-pushpin.png</href>
			</Icon>
			<hotSpot x="20" y="2" xunits="pixels" yunits="pixels"/>
		</IconStyle>
		<BalloonStyle>
		</BalloonStyle>
		<LineStyle>
			<width>0.6</width>
		</LineStyle>
		<PolyStyle>
			<color>ffffae6f</color>
		</PolyStyle>
	</Style>
	<Placemark>
		<name>Kabale_Maziba</name>
		<styleUrl>#msn_ylw-pushpin</styleUrl>
		<Polygon>
			<tessellate>1</tessellate>
			<outerBoundaryIs>
				<LinearRing>
					<coordinates>
						30.0918223930364,-1.315219297274571,0 30.09204873944518,-1.315261268832102,0 30.09227076271974,-1.315336355770885,0 30.09254730251966,-1.315396548296897,0 30.0927339361128,-1.315329288379748,0 30.09288496645745,-1.315336869406821,0 30.09308022613098,-1.315391543510168,0 30.09324648332282,-1.315342812275492,0 30.09339223635931,-1.31534718857264,0 30.09354306343864,-1.315357056478838,0 30.09369322706609,-1.315366883265749,0 30.09380924255389,-1.315302957704312,0 30.09391148349349,-1.315262015628922,0 30.09411393730142,-1.315292892154226,0 30.09425639209309,-1.315297121243849,0 30.09442576287345,-1.315292413851262,0 30.09453644254596,-1.315261556833504,0 30.09461585125682,-1.315157650947241,0 30.09471142355052,-1.315032587745313,0 30.09480524110045,-1.314904951444254,0 30.09488607995614,-1.31476244749815,0 30.09493676782818,-1.314663309771976,0 30.09501315505378,-1.314513926625307,0 30.09505150445604,-1.314438922210846,0 30.09512852167028,-1.314288288612233,0 30.0951953919255,-1.314204715162571,0 30.09531738719462,-1.314103527273071,0 30.09541910780344,-1.314019161157096,0 30.09549163657966,-1.313941285089371,0 30.09556175280241,-1.313860343240162,0 30.09564956329607,-1.313758972035503,0 30.09573756168986,-1.313657383207984,0 30.09579044947395,-1.313596328002742,0 30.0958651701695,-1.313519734727205,0 30.09596443030242,-1.313430953162858,0 30.09605415642259,-1.313286556508397,0 30.09617361713114,-1.313179672681192,0 30.09626386424973,-1.313034575748198,0 30.09632376045139,-1.312980970140555,0 30.09639941816852,-1.312859651390373,0 30.09651672758265,-1.312792576999769,0 30.09663389594476,-1.312725588858053,0 30.09675092672962,-1.312658675288431,0 30.09683132826965,-1.312497968330132,0 30.0969184755232,-1.312390684081548,0 30.09699930160902,-1.312229234104874,0 30.09704254823536,-1.312152030032575,0 30.09712338814002,-1.311989408505072,0 30.09720565353731,-1.311873731627043,0 30.09726407029862,-1.311678485526831,0 30.09734672006493,-1.311562167973803,0 30.09747546023845,-1.311463701032668,0 30.09758709680734,-1.311388045941432,0 30.09767397676295,-1.311370650449656,0 30.09779984521387,-1.311314835534723,0 30.09791891958044,-1.311295761340301,0 30.09804326889362,-1.311237933476801,0 30.09816847157377,-1.311369976376736,0 30.0982937691492,-1.311502594843567,0 30.09842633575114,-1.311553325558995,0 30.0986249869302,-1.311703121312813,0 30.09872121203259,-1.311797043363138,0 30.09888396590677,-1.311941746622223,0 30.0990071095326,-1.312122822070326,0 30.09908900834985,-1.312290349623532,0 30.09910683685217,-1.312456219576914,0 30.09915649539035,-1.312668370806684,0 30.09915495774344,-1.312849697237482,0 30.09917125037176,-1.313010151938573,0 30.09912187165077,-1.313165164348705,0 30.09920449308689,-1.31332936178384,0 30.09925970444905,-1.313497918380993,0 30.09930566006236,-1.3136519878756,0 30.09935169319873,-1.31384948827803,0 30.09939449304144,-1.314041176683038,0 30.09939386158627,-1.314170764679442,0 30.09933352058695,-1.314346094249261,0 30.09927383027991,-1.314435371681681,0 30.09923352007996,-1.314551175590372,0 30.09917402545073,-1.314640122545124,0 30.09909541414595,-1.314745102547181,0 30.09899919924872,-1.314868143835265,0 30.09894179714797,-1.314959106166668,0 30.09889384117365,-1.315062721590134,0 30.09886108728565,-1.31514434541572,0 30.09877873417326,-1.31532555573579,0 30.09880979871112,-1.315491329239292,0 30.09888414734645,-1.315672704856137,0 30.09895310844141,-1.315886828670772,0 30.09907406465213,-1.316046925424948,0 30.0991942996692,-1.316206104532644,0 30.09931489661305,-1.316366070439121,0 30.09946283083912,-1.316442047454662,0 30.09958999624974,-1.316611210111369,0 30.09965291998146,-1.31673479147033,0 30.09966510092837,-1.316870122023108,0 30.09964193326507,-1.316997498383651,0 30.09963304723765,-1.317143046606631,0 30.0996081974791,-1.317305801041609,0 30.09959703657027,-1.317407799333508,0 30.09956852247316,-1.31760279824282,0 30.09949918657606,-1.317705467447714,0 30.09946290618309,-1.317812185177956,0 30.09942457178723,-1.317916051304336,0 30.09940342369165,-1.318003516265794,0 30.09934669875257,-1.318121170351961,0 30.09931286521096,-1.318229207207111,0 30.09924175038293,-1.318327417265443,0 30.09913784492723,-1.318421160210356,0 30.09906903006654,-1.318484041460889,0 30.09902596305601,-1.318615149030539,0 30.09897835751344,-1.318703459956724,0 30.09889607411644,-1.31882212064079,0 30.09879937032575,-1.318814295139936,0 30.0986458673706,-1.318737327925227,0 30.09855902366861,-1.318667073877769,0 30.098437545762,-1.318665086894883,0 30.09834794726468,-1.318666117118574,0 30.09825746322855,-1.318666345172193,0 30.09803903314176,-1.318695725098386,0 30.09796349355133,-1.318715129863002,0 30.09788667493131,-1.318806662202724,0 30.09786704524357,-1.31885652069008,0 30.09780882722425,-1.318969929133304,0 30.09785783879942,-1.319167855718885,0 30.09788238728509,-1.319333111216785,0 30.09802306095612,-1.319490201911013,0 30.09813305082166,-1.31954547993048,0 30.09826884186604,-1.319562450484434,0 30.09838995084597,-1.319529406989707,0 30.09848667130861,-1.319536773325428,0 30.09865266482858,-1.31952085592804,0 30.09869252508637,-1.319532413443288,0 30.09886750755361,-1.319493948326248,0 30.09897461300474,-1.319480534764648,0 30.0990815077861,-1.319467146546609,0 30.0992110976745,-1.319445128375831,0 30.09928453775548,-1.319426929106806,0 30.09938854295725,-1.319375076611252,0 30.09950140638833,-1.319369249768142,0 30.09959422288996,-1.319268945909954,0 30.09965622671633,-1.319201940828445,0 30.09974942422794,-1.319101226224631,0 30.09981301360978,-1.319035490238109,0 30.09992969893156,-1.318926320225799,0 30.09998906597706,-1.318817999685778,0 30.10010627758294,-1.318708449876389,0 30.1001901259896,-1.318630086209125,0 30.10030768797976,-1.318520208825154,0 30.10039178740163,-1.318441608356066,0 30.10045914046808,-1.318378657982121,0 30.10054160510449,-1.318297584410473,0 30.10064010153491,-1.318199254308467,0 30.10076833535409,-1.318178257977861,0 30.10083410502056,-1.318112669743452,0 30.10094555634377,-1.318108186569561,0 30.10105051589258,-1.318056807036194,0 30.10116146428504,-1.318052413049354,0 30.1012679891589,-1.318003597989615,0 30.10140878144583,-1.318079949676535,0 30.10153778370626,-1.318140684892261,0 30.10164489476828,-1.318171815442707,0 30.10174927588895,-1.318160804564622,0 30.10183905667723,-1.318207614182898,0 30.1018456923763,-1.318333029008959,0 30.10178183558413,-1.31843755284709,0 30.10175340463999,-1.31855177678786,0 30.10172454336694,-1.31866476905559,0 30.10169390483647,-1.318736881898614,0 30.10168508944059,-1.318913482959883,0 30.10175868585647,-1.319050208723444,0 30.10187493835542,-1.319020089440952,0 30.10199992318978,-1.319039900687744,0 30.10208453817168,-1.319005023820859,0 30.10218902963733,-1.318997664385362,0 30.10231302700694,-1.319017732763053,0 30.10242038205667,-1.319053204131532,0 30.10253999317576,-1.319030380246895,0 30.10261092456656,-1.319091657318017,0 30.10273033481249,-1.31914521568747,0 30.1028490947857,-1.319198480024159,0 30.10296720996374,-1.319251455107547,0 30.10306713020496,-1.319279141055375,0 30.10317377242042,-1.31939301714769,0 30.10329444227449,-1.31945181926173,0 30.10341691796144,-1.319514191876992,0 30.10351291333959,-1.319575906243315,0 30.10362230470845,-1.31965691945828,0 30.10366901591595,-1.319723676380586,0 30.10376409195428,-1.319785034082461,0 30.10385761131609,-1.319881901780495,0 30.10393405676536,-1.319991504827337,0 30.10401250761874,-1.320104361531851,0 30.10401302990921,-1.320216283045465,0 30.10402760054457,-1.320347479641826,0 30.10398057115544,-1.320426985331725,0 30.10393270750448,-1.320541215140734,0 30.10391554798148,-1.320625605212344,0 30.10388321329373,-1.320724392433141,0 30.10385187653216,-1.320788282160283,0 30.10383579758797,-1.320837427710017,0 30.1037725870089,-1.320998883232269,0 30.10369306553201,-1.321136523572524,0 30.10365463875783,-1.321224111425558,0 30.10370376518782,-1.321325733480776,0 30.10374258109298,-1.321448078278197,0 30.10378116921516,-1.321569716894128,0 30.1038034907839,-1.321703370466843,0 30.10381100390864,-1.321816460946422,0 30.10383680722151,-1.321885385418001,0 30.10393637804299,-1.322019516554968,0 30.1040281792635,-1.321938953780368,0 30.10412009694185,-1.321858289894003,0 30.10422734701285,-1.32183299932905,0 30.10431935504017,-1.321786953545182,0 30.10441219578995,-1.321742217748981,0 30.10450497685103,-1.321697508671034,0 30.10456643769434,-1.321678853198402,0 30.10467201598379,-1.321652221663638,0 30.1047473593476,-1.321618186910757,0 30.10483776427425,-1.321605771977627,0 30.10497389008001,-1.321588469954834,0 30.10506364886724,-1.321611364533131,0 30.10515307424952,-1.321634173142256,0 30.10524216817058,-1.321656894277281,0 30.10531516953381,-1.321727653860744,0 30.10538662726007,-1.321831615297384,0 30.10550496357634,-1.321934079406274,0 30.10562146907654,-1.321963510362794,0 30.10570876799919,-1.322021493334266,0 30.10577868276703,-1.322124465851801,0 30.10580524598997,-1.322233815235222,0 30.10579004876999,-1.322316537283851,0 30.10574658778448,-1.322427123380634,0 30.10575671831971,-1.322545075554492,0 30.10576511437346,-1.322659631204286,0 30.10577345012499,-1.322773532101361,0 30.10576883800266,-1.322868374573621,0 30.10577686647317,-1.322980632252895,0 30.10585661950779,-1.323026818739276,0 30.10596663650066,-1.323015833716401,0 30.10602247566304,-1.322994839926871,0 30.10613215505053,-1.322983904594597,0 30.10621474864509,-1.322967974355645,0 30.1062992791846,-1.322921054267949,0 30.10638382195363,-1.322874128364145,0 30.10643947339602,-1.322853203020486,0 30.10652401394029,-1.322806278836212,0 30.10662533045075,-1.322715144453638,0 30.1066858207956,-1.322667560855548,0 30.10673899876617,-1.322574893389477,0 30.10678951516871,-1.322512757474069,0 30.10685326835912,-1.322471025857504,0 30.10687478658496,-1.322398856130308,0 30.10694439995281,-1.322295489165576,0 30.10696608466871,-1.322222926643963,0 30.10701991168801,-1.322129487724049,0 30.10701232552935,-1.322045554816559,0 30.10696189877896,-1.321928926140646,0 30.10693514243372,-1.321886169001256,0 30.10682669519507,-1.321750232961354,0 30.1067595948886,-1.321681091390921,0 30.10672629206026,-1.321593530220183,0 30.10671400895873,-1.321466825919524,0 30.1067142930247,-1.321359258311246,0 30.10666367003446,-1.32127984197645,0 30.10659067830647,-1.32116704815371,0 30.10653749795865,-1.321082670104185,0 30.10645721138012,-1.320993834893309,0 30.10640625825892,-1.320914416370885,0 30.10635932899349,-1.320804654379278,0 30.10635832553073,-1.320692486523116,0 30.10636803726561,-1.32059563411455,0 30.10633169182032,-1.320461437916915,0 30.10629507610606,-1.32032624743221,0 30.10627265867051,-1.320213622846353,0 30.10625011113529,-1.320100342205363,0 30.10622738608039,-1.31998632834302,0 30.10626702198044,-1.31989592467462,0 30.10634135915839,-1.319784402094787,0 30.10639494610231,-1.319716115561029,0 30.10646151257794,-1.319668596997633,0 30.10652806775961,-1.319621090203476,0 30.10666095019918,-1.319525692777036,0 30.1067830955418,-1.319405053503772,0 30.10687405016444,-1.319354751569678,0 30.10696303405553,-1.319385129249774,0 30.10708396500566,-1.319389652561904,0 30.10717335390445,-1.319422855626187,0 30.10726233663879,-1.319455905899147,0 30.10736675152276,-1.319475440296887,0 30.10742329321405,-1.319534896587713,0 30.10753606066969,-1.319610734341358,0 30.10760145021926,-1.319683560816979,0 30.10762619552457,-1.319726525566724,0 30.10773611920934,-1.319797644482682,0 30.10784546574347,-1.319868709855394,0 30.10795320522331,-1.319936870134542,0 30.10801742424331,-1.320010067622076,0 30.10812590817309,-1.320127125924982,0 30.10822476312735,-1.320187090328464,0 30.10831484212537,-1.320267207520974,0 30.10841873547577,-1.320331352707148,0 30.10849514112588,-1.320387097302284,0 30.10856839642291,-1.320479031822259,0 30.10862996350025,-1.320550379303562,0 30.10867893551027,-1.320598078327639,0 30.1087672014572,-1.320679247032237,0 30.10881774115395,-1.320733040277468,0 30.10884818605441,-1.320829247025174,0 30.10895144957772,-1.320900649289668,0 30.10900351702588,-1.320991019658969,0 30.10909115741818,-1.321029851290884,0 30.10913234894475,-1.321101579067031,0 30.10920244210958,-1.321191683404199,0 30.1092502915473,-1.321240768467498,0 30.10935684888349,-1.321314417838927,0 30.10941295088088,-1.321376340255775,0 30.10949705992289,-1.32145579533577,0 30.10954418201,-1.321505243674418,0 30.10962163703262,-1.321610082026348,0 30.10966038058704,-1.321677356476186,0 30.10969360070914,-1.321771736192227,0 30.10973018693634,-1.321878557695629,0 30.1097715853217,-1.321956461823024,0 30.10985588106667,-1.32199674286166,0 30.10991391836955,-1.322025009906229,0 30.11000445317342,-1.322071701770347,0 30.11005660302814,-1.322126385764856,0 30.11016410072259,-1.322173989345214,0 30.11024798678734,-1.322219428238801,0 30.11030686569093,-1.322255716936127,0 30.11042003100683,-1.322310818131341,0 30.11048521496608,-1.322353492175977,0 30.11057366709196,-1.322401623033889,0 30.11065288587068,-1.32243398913471,0 30.11073758314526,-1.322440769066827,0 30.11079602407819,-1.322402145260714,0 30.11085496400818,-1.322366338189502,0 30.11089912461516,-1.322339511070281,0 30.1110226285457,-1.322242774423914,0 30.11109586121896,-1.322197453710522,0 30.11116043676653,-1.32213666135992,0 30.11120785800389,-1.322044623562096,0 30.11124917587823,-1.321976537185005,0 30.11126463136674,-1.321859318517518,0 30.11122765007673,-1.321753789335687,0 30.11119956123162,-1.32166670105423,0 30.11117375325135,-1.321619367348641,0 30.11109216343688,-1.321541287500029,0 30.11103000368528,-1.321534835583194,0 30.11098245138344,-1.321518661435478,0 30.11087193819416,-1.321494563111143,0 30.11078203244445,-1.321436976600879,0 30.11072475295578,-1.321403549347565,0 30.1106581824492,-1.321353240749447,0 30.11057604726088,-1.321311011331656,0 30.11045156107976,-1.321258166464184,0 30.11037634703787,-1.321226172720379,0 30.11029104188782,-1.321175346448078,0 30.11024039164738,-1.32115377741297,0 30.11011897249969,-1.321073308318278,0 30.11003345379573,-1.321027468227091,0 30.10994791847468,-1.320983245096681,0 30.10984630381454,-1.320947802167602,0 30.10975983576911,-1.3209031417779,0 30.10965249037802,-1.320820370105095,0 30.10951592050932,-1.320718540459957,0 30.10947892784875,-1.320688004127406,0 30.10941554195356,-1.320569597638413,0 30.10936405738397,-1.320476534505186,0 30.10929432162186,-1.320385249434286,0 30.10923612917652,-1.320317745432934,0 30.10917765406678,-1.32024991307685,0 30.10910819752119,-1.320162288302514,0 30.10903131687956,-1.320019561866583,0 30.10897394849877,-1.319909765187082,0 30.10892775055568,-1.319821344497527,0 30.1088575683208,-1.319686427464104,0 30.10878629759979,-1.319548793743976,0 30.10872662521244,-1.319433872324985,0 30.10865112216159,-1.319332141087152,0 30.10860361259041,-1.319242166870138,0 30.10854269430288,-1.319125213278697,0 30.10855529796615,-1.31902149743571,0 30.10859278789279,-1.318966100002888,0 30.10865549421943,-1.318830659144224,0 30.10875906232925,-1.318731064995333,0 30.10884522326214,-1.318638861989114,0 30.10892707243834,-1.318581920012842,0 30.10896422600358,-1.318523782597637,0 30.10909518264833,-1.318432686054318,0 30.10914427019882,-1.318398542036095,0 30.10920984287049,-1.318353691869459,0 30.10932069766749,-1.318314210886896,0 30.10947944565319,-1.31832423890463,0 30.10959384159834,-1.318334393392049,0 30.10973483887948,-1.318355509999793,0 30.10978948324557,-1.318380196503997,0 30.10987554193372,-1.31837907693169,0 30.11001550506624,-1.318403081714831,0 30.11011322432999,-1.318433632651943,0 30.11022439763051,-1.318441827053393,0 30.11031983876764,-1.318464906168341,0 30.11039960007169,-1.318502755340861,0 30.11052057192099,-1.318538123213284,0 30.11060361462884,-1.318533528186379,0 30.11071433174013,-1.318552706292378,0 30.11076754676017,-1.31858509110826,0 30.11087548495619,-1.31859207113426,0 30.11098286311695,-1.318597642487596,0 30.11102353843586,-1.318594004597742,0 30.1111602534625,-1.318566661005797,0 30.11125619186107,-1.318542985822374,0 30.11133752581326,-1.318540101433783,0 30.11143383372701,-1.318523016846937,0 30.11153989677349,-1.318533159913228,0 30.11164987230777,-1.318491318166084,0 30.1116945946254,-1.318438326324277,0 30.11181958187441,-1.31837877641201,0 30.11193020921406,-1.318345274955401,0 30.11198571166769,-1.318332144213781,0 30.11208102895867,-1.31831704546169,0 30.11212086753645,-1.318315062631941,0 30.11220733618539,-1.318285510441722,0 30.11233341033903,-1.318257070470427,0 30.1124125854884,-1.31825613953098,0 30.11249838398203,-1.318226393891353,0 30.11256860524262,-1.318206366020883,0 30.11266255919645,-1.318195350371798,0 30.11274931527689,-1.318212575670717,0 30.11281901790944,-1.318192646522421,0 30.11288859479048,-1.318172752000495,0 30.11289418077793,-1.318097775482731,0 30.11286771921025,-1.317994558739731,0 30.1128340713504,-1.317915313328589,0 30.11277944644532,-1.317924645141888,0 30.11270078793505,-1.317923851225819,0 30.11264426263375,-1.317883594459848,0 30.11257189739009,-1.317849598913954,0 30.11245931178933,-1.317811888699664,0 30.11238609480773,-1.317775475483675,0 30.1123214441303,-1.317760581805759,0 30.1123014927143,-1.317664200038095,0 30.11235536777663,-1.317604477059137,0 30.1124337839609,-1.317557117793691,0 30.11251897495762,-1.317478498080074,0 30.11259722910134,-1.317431255209989,0 30.1126597594534,-1.317393505616158,0 30.11273783567956,-1.317346371136198,0 30.11283139453029,-1.317289890912793,0 30.11289369133438,-1.317252221508141,0 30.11297855088975,-1.317173389492386,0 30.11304654542115,-1.317051128812582,0 30.11313984967104,-1.316994021750487,0 30.11319364307869,-1.31693419910314,0 30.11326297822897,-1.316864867709151,0 30.11327639699145,-1.316748735000717,0 30.11325032565938,-1.316628212745993,0 30.11321687984056,-1.316540240250348,0 30.11320734786607,-1.316465678900039,0 30.11317243651864,-1.316326999439537,0 30.11313731883252,-1.316187475568865,0 30.1130814075953,-1.316194531229147,0 30.11299509916436,-1.31627390697661,0 30.11294904120219,-1.316355717462365,0 30.11291167010354,-1.316458992291772,0 30.11287290402565,-1.316509395367426,0 30.11278673421153,-1.316588661433966,0 30.11269345967082,-1.31669902725908,0 30.1126863944791,-1.316730180885124,0 30.11260025992959,-1.316809799866823,0 30.11251410316073,-1.316889441499979,0 30.11245072625081,-1.316928180781897,0 30.11241901501605,-1.3169475653116,0 30.11229202495518,-1.317025201574125,0 30.11216480247457,-1.317102967196716,0 30.1120693328925,-1.31716303588389,0 30.1119896996743,-1.317213359192816,0 30.11187570169208,-1.317233274234444,0 30.11179595352165,-1.317285638743184,0 30.11169097244198,-1.317329226190579,0 30.11163379054561,-1.31734139285397,0 30.11154450477197,-1.317374590265855,0 30.11146189904433,-1.317379411052405,0 30.11137244446793,-1.317414183521895,0 30.11130556023704,-1.317408342605121,0 30.111206374514,-1.31742408938775,0 30.11118082760897,-1.317415766864819,0 30.11106520128219,-1.31744237352047,0 30.11095588040145,-1.317439278657382,0 30.1108978173702,-1.317452829162678,0 30.11079766268428,-1.317469092278126,0 30.11071298704534,-1.317471261251851,0 30.11060508843957,-1.317512278656605,0 30.11052972248051,-1.317533148205261,0 30.11041143736987,-1.317554718408868,0 30.11031282381257,-1.317615583432739,0 30.11020400332089,-1.317656943438591,0 30.11009572937616,-1.317702679208592,0 30.11007948652458,-1.317714298068441,0 30.10998193323639,-1.317783555595746,0 30.10987423800841,-1.317833942091817,0 30.10977695823134,-1.317905160753086,0 30.10970151226131,-1.317931949468268,0 30.10960974150304,-1.317970652355263,0 30.10952856002825,-1.318030083506039,0 30.10945287238092,-1.318056978654569,0 30.10933748326414,-1.318133219787041,0 30.10925968832389,-1.318152189587935,0 30.10917620737036,-1.31820319314105,0 30.10909810479477,-1.318222271299876,0 30.10894139060613,-1.318260555926931,0 30.10884596136063,-1.318290020588988,0 30.10876181949939,-1.318341359372758,0 30.10869997558955,-1.318351347791461,0 30.10859938107487,-1.318415412479574,0 30.1085324713347,-1.318458894539403,0 30.10844877068769,-1.318513287453908,0 30.10839851666877,-1.31854594384009,0 30.10833147273278,-1.318589513376023,0 30.10824760792663,-1.318644012812006,0 30.10814687876753,-1.3187094734268,0 30.10813007879564,-1.318720390037494,0 30.10802930203326,-1.318786029077817,0 30.1079133885355,-1.318868078636375,0 30.10783056060331,-1.318926710156416,0 30.1077397797429,-1.318930271305054,0 30.10770658900756,-1.318953760730097,0 30.10756986455998,-1.318959171668902,0 30.10744924216764,-1.318952809454133,0 30.10736154130419,-1.31892278305659,0 30.10726940710128,-1.318926367755599,0 30.10718104190878,-1.318896188208475,0 30.10707551607717,-1.318877766895732,0 30.10697854960569,-1.318915205016735,0 30.10688142811003,-1.318952703266791,0 30.10676349853365,-1.319036035444733,0 30.10669851209524,-1.319089492719276,0 30.10661873337832,-1.319117044754994,0 30.10652054679768,-1.319153383059168,0 30.10642977167679,-1.319122862385844,0 30.10637187979055,-1.319066783691319,0 30.10622361534131,-1.318983123670507,0 30.1061187752986,-1.318931781924736,0 30.10604854252922,-1.318857995195973,0 30.10597823416416,-1.31878444601285,0 30.10590890823464,-1.3187134330869,0 30.10584177212507,-1.318486714183873,0 30.10587004936907,-1.318371538330446,0 30.10586519072952,-1.318283672591876,0 30.10587721429958,-1.318182219559917,0 30.10590614503669,-1.318066997230025,0 30.1058885121251,-1.317957701243596,0 30.10585387131036,-1.317861462648021,0 30.10583455611656,-1.317747899865484,0 30.10584457978707,-1.317639831847891,0 30.10587251862973,-1.31751968566908,0 30.10590055883982,-1.317399096903138,0 30.1058977043451,-1.317268412846574,0 30.10592591066382,-1.317146843666722,0 30.10596793432767,-1.317047897215105,0 30.10602776737874,-1.316981578966234,0 30.10602597968174,-1.316851175736783,0 30.10596693143472,-1.31670202524902,0 30.10591038574769,-1.316605073758857,0 30.10585680688714,-1.316469594600287,0 30.10574377209513,-1.31645048311781,0 30.10567674235292,-1.316466792395404,0 30.10563539159558,-1.316570169718071,0 30.10559415808723,-1.316673260314398,0 30.10558492289282,-1.316786734857343,0 30.10560751356655,-1.316910316241112,0 30.10559804462936,-1.317022228020435,0 30.1055881195094,-1.317132547546403,0 30.10557823185756,-1.317242450382878,0 30.10556838144132,-1.317351935696649,0 30.10552364005714,-1.317486825827259,0 30.10549619977149,-1.317607659078733,0 30.10545223446769,-1.317742542254671,0 30.10544322662383,-1.317851407051443,0 30.10542015369136,-1.317937110553883,0 30.10539714325043,-1.318022586754347,0 30.10538828107168,-1.318130410961127,0 30.10534546811592,-1.31826438611527,0 30.10531835502123,-1.318381643348038,0 30.10523200004627,-1.318444777482481,0 30.10515806340531,-1.318526656887829,0 30.1050702171127,-1.318586798516921,0 30.10496521935398,-1.318659901776538,0 30.10489537011343,-1.318708992430072,0 30.10479469245875,-1.318750270092806,0 30.10472476559222,-1.318799412503028,0 30.1046454655821,-1.318796082122113,0 30.10459690732037,-1.318800424213523,0 30.10441225663694,-1.318792158313977,0 30.10427761946993,-1.318783177156513,0 30.10419366651402,-1.318773500020968,0 30.10405659958929,-1.318762011049356,0 30.1039411121518,-1.31870632349336,0 30.10384228171129,-1.318676351200212,0 30.10376212777032,-1.318635854854876,0 30.1036283440755,-1.318554605939204,0 30.10348371277486,-1.318456431645727,0 30.10334429808553,-1.318289026422315,0 30.103308299473,-1.318275115491315,0 30.10313908452994,-1.31818471084393,0 30.10305442196404,-1.318139980124877,0 30.10293454877655,-1.318083730552507,0 30.10281456964456,-1.317988466112515,0 30.10264938118642,-1.317906336948893,0 30.10254278235682,-1.317791744626682,0 30.10242168477678,-1.317736776761562,0 30.10230784431832,-1.317611882899309,0 30.10221660475871,-1.317520495887021,0 30.1021444981641,-1.317416917153051,0 30.1020339443111,-1.317257920044355,0 30.10205511968304,-1.317208061709181,0 30.10213591192362,-1.317123454404591,0 30.10221672991969,-1.317038821188803,0 30.10227728842456,-1.316965016495426,0 30.10233747974941,-1.316849474677138,0 30.10239706514776,-1.316773696509564,0 30.1025147316854,-1.316702113937194,0 30.10257408388775,-1.316584122010378,0 30.10263186934603,-1.316504794290524,0 30.10265174560547,-1.316451441600947,0 30.10276664131192,-1.316332825573791,0 30.10280665402156,-1.316225684158157,0 30.10288378735786,-1.31613284194269,0 30.10297748755726,-1.316150512127891,0 30.10307492277491,-1.316132760449343,0 30.10315300389318,-1.316084873108248,0 30.10321152418036,-1.31604898429719,0 30.10330950372775,-1.315946959779524,0 30.10338805138669,-1.315856819571474,0 30.10350857579505,-1.315792181368305,0 30.1034944421708,-1.315683110221602,0 30.1034011340804,-1.315575889102389,0 30.10327557582209,-1.315632515803994,0 30.10318072566093,-1.315611611256803,0 30.10305547313789,-1.315588650251307,0 30.10288884768788,-1.315630795189033,0 30.10277694521762,-1.315672395579451,0 30.10264793270779,-1.315688281576165,0 30.10259074390713,-1.31572878512329,0 30.10251354367537,-1.315781170599178,0 30.10243434184465,-1.31583011908337,0 30.10231542685981,-1.315903611452706,0 30.10221622751212,-1.315964920969716,0 30.1021135551885,-1.316020647942244,0 30.10203109288571,-1.31606494297094,0 30.10195123802283,-1.316071776433433,0 30.10179359921394,-1.316047855022868,0 30.10167670551616,-1.316001495474569,0 30.10151739623009,-1.315977235551969,0 30.10139459867303,-1.315923216197517,0 30.10122720586454,-1.315888723045964,0 30.10110582130337,-1.315838900727485,0 30.10096638132825,-1.315764256736592,0 30.10083959361366,-1.315707764041481,0 30.10069130752495,-1.315663353545501,0 30.10052474324736,-1.315552275338665,0 30.10042316963572,-1.315450459760979,0 30.10040667743684,-1.315300644483767,0 30.10038842179903,-1.31523248803054,0 30.10035150802753,-1.315009889097053,0 30.10035160427966,-1.314881627660427,0 30.10035780472663,-1.314762191507697,0 30.10036402383396,-1.31464236000086,0 30.10037026401769,-1.314522131990276,0 30.10035710013425,-1.314373426828171,0 30.10031545620948,-1.314225496657011,0 30.10028195626526,-1.314089946042634,0 30.10020241945175,-1.313974381152637,0 30.10021146073174,-1.31385632967744,0 30.10028340718317,-1.313786005777592,0 30.10028923343501,-1.313617518775413,0 30.10026731502171,-1.313450781088767,0 30.10022030572583,-1.313290439037244,0 30.10019676544071,-1.313164825591686,0 30.10021681718282,-1.313013478450302,0 30.10026249006651,-1.312900420587987,0 30.1002773216604,-1.312738581975568,0 30.10029077789095,-1.312573476916476,0 30.100227622993,-1.312381217063772,0 30.10029711872381,-1.312302135215247,0 30.10036662797043,-1.31222303042173,0 30.10037846276258,-1.31205180393566,0 30.10041403485807,-1.31186942648699,0 30.10042540562238,-1.311694974106949,0 30.10035895158906,-1.311490372538157,0 30.1002873055448,-1.311227307564689,0 30.10021983107399,-1.311018671353937,0 30.10023659523607,-1.310848791483644,0 30.10028501764717,-1.31077973914094,0 30.10038657380258,-1.310699191329642,0 30.10043790536424,-1.310635423393706,0 30.10054533205706,-1.310566414665198,0 30.10060313595537,-1.310465526463303,0 30.10058126744772,-1.310280772693151,0 30.10053096010004,-1.310097024880253,0 30.10053570059901,-1.309955264562502,0 30.10059310840714,-1.30985143041508,0 30.10065055943273,-1.309747513090364,0 30.10070805722148,-1.309643518099496,0 30.10079228262813,-1.309534324816116,0 30.10084934068274,-1.309429138669587,0 30.10082896121386,-1.309232870296921,0 30.10083432605943,-1.309028055944873,0 30.10089866704275,-1.308875277563958,0 30.10097268359947,-1.308794360296166,0 30.10100517014037,-1.308634025398806,0 30.10107822436734,-1.30860346729412,0 30.10116377622929,-1.308484191899452,0 30.10124402280963,-1.308352721573135,0 30.10129080532827,-1.308156399850879,0 30.10134860405566,-1.308037272718654,0 30.10138368386222,-1.307931467225504,0 30.10142717644155,-1.307723324190035,0 30.10142480542305,-1.30754097430293,0 30.1014058383268,-1.307262870942384,0 30.10147410267727,-1.30709405070093,0 30.10157948695867,-1.306999336099039,0 30.10170030552011,-1.306998348474157,0 30.1019471116333,-1.307069401951054,0 30.10212807154255,-1.307066295537981,0 30.10222467351581,-1.306951909559186,0 30.10234090192501,-1.306814292946225,0 30.10230850759114,-1.306555517218649,0 30.10228079249376,-1.306306977416617,0 30.10219244015078,-1.306003988633873,0 30.10207803157454,-1.305842664577115,0 30.10195138006722,-1.305725493316119,0 30.10180219339047,-1.305686358245427,0 30.10168933512741,-1.305770549733121,0 30.10155528627164,-1.305816099066919,0 30.1014423409069,-1.305900354529828,0 30.10135321146457,-1.305912309211372,0 30.10121869053757,-1.30595803975383,0 30.10113232772747,-1.30597735752054,0 30.10095460745747,-1.306062910592229,0 30.10088798580857,-1.306116663475837,0 30.1007562435681,-1.306170347965031,0 30.10068961899022,-1.306224111053764,0 30.10053551221054,-1.306295795386489,0 30.1003793803088,-1.306419639909566,0 30.10028989319248,-1.30648979233109,0 30.10015569165058,-1.306595000229449,0 30.10006624436013,-1.306665122011732,0 30.09999688234452,-1.306768187571314,0 30.09990529500338,-1.306888605021614,0 30.09979368362067,-1.306976092429379,0 30.09974961153197,-1.30706681030728,0 30.0996637783297,-1.307197794187609,0 30.099618063247,-1.307338449666559,0 30.09957120658759,-1.30747609676575,0 30.09950294677817,-1.307632033413987,0 30.09948270308599,-1.307759747502897,0 30.09939996610174,-1.307893244077597,0 30.09936175385737,-1.308044820783876,0 30.09936088386795,-1.308148276672711,0 30.099316000963,-1.308233557971253,0 30.09926969108299,-1.308420065648374,0 30.09924551434126,-1.308588679805901,0 30.09923213334627,-1.308724709208911,0 30.09918769660856,-1.308911779083308,0 30.09914169681662,-1.309094716987375,0 30.09909663733178,-1.309227542677922,0 30.09903499463925,-1.309335447400853,0 30.09897422807453,-1.309444333826529,0 30.09892008357812,-1.309564505817294,0 30.09882322885598,-1.309669032894049,0 30.09878804471,-1.309766610365438,0 30.09871254838103,-1.309902220665267,0 30.09863728547737,-1.310037410165396,0 30.09856015713827,-1.310119842254759,0 30.09843933977893,-1.310234429521307,0 30.09833993532273,-1.310331651501242,0 30.09826073744893,-1.310409747427905,0 30.0981618605932,-1.310507248251902,0 30.09802329527019,-1.310547249056287,0 30.09790620625646,-1.310570662213614,0 30.09777016690568,-1.310614977669581,0 30.09765091706306,-1.310635435128887,0 30.09757012420821,-1.310663027252237,0 30.09748929391466,-1.310690631346787,0 30.09734716615693,-1.310773485081599,0 30.09722264242009,-1.31083368158242,0 30.0971343638667,-1.310897427743149,0 30.09697844916899,-1.310960200308429,0 30.0968380846249,-1.310998076128223,0 30.09669364620012,-1.31107724227641,0 30.09654897355312,-1.311156537697475,0 30.09640407215602,-1.311235957464648,0 30.0963425734432,-1.311336663409094,0 30.09623285384709,-1.311418051148607,0 30.09617118156429,-1.311518582087565,0 30.09607222924143,-1.311614814740999,0 30.09599766914074,-1.311697962904336,0 30.09589870788765,-1.311794204891293,0 30.09577530320169,-1.31190358471228,0 30.09567630310336,-1.311999864435571,0 30.0955838387966,-1.312104501338554,0 30.09544955918609,-1.312199280320776,0 30.09538775393494,-1.31225341927167,0 30.09530539179151,-1.312325572434763,0 30.09520250635492,-1.312415700877911,0 30.09512025605557,-1.312487752479769,0 30.09504364976262,-1.312610911527602,0 30.09492840804571,-1.312728109889094,0 30.0948743371175,-1.312790757612397,0 30.09480204035072,-1.312873815216765,0 30.09470849550178,-1.3129735191768,0 30.09457779893854,-1.313112820684535,0 30.09449972001154,-1.313144752983219,0 30.09433224641487,-1.313323333024556,0 30.09423268866093,-1.313414797027054,0 30.09415379527612,-1.31357455448176,0 30.09406571475639,-1.3136808938635,0 30.09398100588803,-1.313790644093465,0 30.09387437216254,-1.313916055490234,0 30.09374585157632,-1.314057100111288,0 30.09368722990171,-1.314196714627684,0 30.09360693372548,-1.314267760888395,0 30.09335952909786,-1.314187197513302,0 30.09323696746084,-1.314127511489006,0 30.09309733925088,-1.314131462727704,0 30.09300622441451,-1.314150389635123,0 30.0928703521395,-1.314158781898332,0 30.09273793538527,-1.31421310467413,0 30.09260391528048,-1.314223992351771,0 30.0925586798198,-1.314213113054818,0 30.09240252643928,-1.314240599843694,0 30.0922532368307,-1.314275098566211,0 30.09207927738415,-1.314323616074155,0 30.09199512101682,-1.314350724706939,0 30.09184645037964,-1.31438654278292,0 30.09172256043691,-1.314450600581773,0 30.09159864786889,-1.314514668476184,0 30.09145910075102,-1.314522749249701,0 30.091341903224,-1.314556671188184,0 30.09120226908847,-1.314606894498886,0 30.09104818341025,-1.31463918628257,0 30.09091731389784,-1.314656327891127,0 30.09077602867115,-1.314705906559344,0 30.09065208585917,-1.314735108830486,0 30.09047937440825,-1.314835120974513,0 30.0903548915181,-1.314864513359772,0 30.09018462485575,-1.314884797854769,0 30.09013352168717,-1.314912198623731,0 30.08995034020549,-1.314998807166286,0 30.08988675233328,-1.315051089920575,0 30.08977173324175,-1.315089551485343,0 30.08968694163222,-1.31515927824893,0 30.08960218166231,-1.315228977283029,0 30.08947324747109,-1.315331983365481,0 30.0893796833969,-1.315394498805267,0 30.08926267552892,-1.315472679620961,0 30.08916902869653,-1.315535248301751,0 30.08907534338741,-1.315597846673271,0 30.08893664780858,-1.315577949835083,0 30.08875613430114,-1.31559387164616,0 30.08860722308606,-1.315641547670734,0 30.08847314564913,-1.315626405971005,0 30.08834948031608,-1.315660255752252,0 30.08820299391431,-1.315710754330026,0 30.08808747985655,-1.315676889539817,0 30.08788558160104,-1.315713125445187,0 30.08771093737525,-1.315736596734461,0 30.08748826535367,-1.315792082572427,0 30.08728061608016,-1.315825903665855,0 30.08712967642646,-1.315916198512817,0 30.086984851859,-1.315929799578403,0 30.08686404113721,-1.316008968200345,0 30.08674288700933,-1.316087994960618,0 30.08663744077994,-1.316145374867074,0 30.08650568177373,-1.31625781787861,0 30.08635639871184,-1.316350404836674,0 30.08623909805103,-1.316432484091402,0 30.08616870209119,-1.316481743904276,0 30.0860511626688,-1.316563721425524,0 30.08588301668778,-1.316676233786328,0 30.08581091975142,-1.316724476558351,0 30.08561856085613,-1.316853190174354,0 30.0854405550347,-1.316919804859631,0 30.0852416280045,-1.317004934923876,0 30.08509796201409,-1.317062503655646,0 30.0849541166621,-1.317120143880794,0 30.08478993248657,-1.317125568679556,0 30.08459500162635,-1.317214530512832,0 30.08443411157221,-1.317262670316256,0 30.08427856138682,-1.31731433397008,0 30.08412428791578,-1.317367041343927,0 30.08399242766209,-1.317402584875696,0 30.08383759243265,-1.317455475034765,0 30.08365544062126,-1.317452962144646,0 30.08345175656505,-1.317398496770422,0 30.08326483048933,-1.317464699389981,0 30.08310740299456,-1.317477629435008,0 30.08292901298223,-1.317479008029755,0 30.08273554727862,-1.317502715155109,0 30.08258530946605,-1.317520595595206,0 30.08254029311804,-1.317556143881149,0 30.08226133538023,-1.31757427881284,0 30.08217115151587,-1.317645515378652,0 30.08208896780851,-1.317761053670822,0 30.08202940916541,-1.317858651549392,0 30.0820004458597,-1.317982448829219,0 30.0819875842034,-1.318193711205645,0 30.08213971603715,-1.318314051490735,0 30.08235668229275,-1.318438721735879,0 30.08259649017474,-1.318507028890996,0 30.08277696691152,-1.318563671033885,0 30.0831036325194,-1.318591894255994,0 30.08336312767059,-1.318633769066776,0 30.08349531101153,-1.318627462461247,0 30.08386224308819,-1.318709649745877,0 30.08413195710337,-1.318731081701426,0 30.08446981868888,-1.318771779671325,0 30.08477522615789,-1.318824891199601,0 30.08481419505568,-1.318731726148855,0 30.08492354873417,-1.3186869065758,0 30.08503283238578,-1.318642116801571,0 30.08507229249154,-1.318548531118531,0 30.08511189102733,-1.318454619284717,0 30.08517765864553,-1.318316704703286,0 30.08527145595025,-1.318135051371356,0 30.08533188547757,-1.317991974487817,0 30.08553683115782,-1.318080925427979,0 30.08577587395521,-1.318169683290126,0 30.08597425181965,-1.318293785265737,0 30.0861550562721,-1.318436765590739,0 30.08628710835317,-1.318541659165665,0 30.08651763712532,-1.318759988098539,0 30.08669635191143,-1.318909195670561,0 30.08695522795355,-1.319113857508204,0 30.087119498402,-1.319085035495754,0 30.08718999191872,-1.319012151338629,0 30.08727328020677,-1.318946831958568,0 30.08741189577711,-1.318894547417926,0 30.08762220816535,-1.318849030966404,0 30.08778634622216,-1.318767750583554,0 30.08796927889073,-1.318736257243015,0 30.08814954665827,-1.31870396062569,0 30.08823288359944,-1.318631959324276,0 30.08820849897504,-1.318579098828575,0 30.08830349273537,-1.318447694319788,0 30.08830708249976,-1.318315826773558,0 30.08837651516664,-1.318204584688576,0 30.08844609085379,-1.318093111983029,0 30.08847183059306,-1.317982117255634,0 30.08841029036827,-1.317773562391689,0 30.0885408582778,-1.317678813919257,0 30.08842224682176,-1.317489806403111,0 30.08854636980946,-1.317389398831512,0 30.08864984644179,-1.317305688872588,0 30.08873265489019,-1.317238698058292,0 30.08876699566733,-1.317066582787517,0 30.08885011844545,-1.316999311103611,0 30.0888724856976,-1.316848741920214,0 30.08891087840915,-1.316812565083397,0 30.08902615517324,-1.316703947421962,0 30.08912232954313,-1.316613326022205,0 30.08921860621707,-1.316522609276286,0 30.089276420936,-1.316468134145959,0 30.08935356451512,-1.316395445156773,0 30.08947065441702,-1.316287279964469,0 30.08954599000876,-1.316212949186918,0 30.08980254500727,-1.316193391833612,0 30.08985582054433,-1.316135252965851,0 30.09001386173243,-1.316099610382442,0 30.0902006165225,-1.316160806490178,0 30.0904461925435,-1.316102773621652,0 30.09057755017337,-1.316081155516429,0 30.0907962787002,-1.316104061268476,0 30.09102758772048,-1.316104914122249,0 30.09118555418193,-1.316039742465478,0 30.09131304329246,-1.315983116874706,0 30.09140464898643,-1.31596434031397,0 30.09152496099992,-1.315833108690313,0 30.0915539735001,-1.315720011538018,0 30.09165595273238,-1.315675519002947,0 30.0917089639274,-1.315547547726243,0 30.09178742282915,-1.315406100530929,0 30.09191150694811,-1.315345512735659,0 30.0918223930364,-1.315219297274571,0 
					</coordinates>
				</LinearRing>
			</outerBoundaryIs>
		</Polygon>
		<atom:link rel="app" href="https://www.google.com/earth/about/versions/#earth-pro" title="Google Earth Pro 7.3.6.10201"></atom:link>
	</Placemark>
</Document>
</kml>
