<?xml version="1.0" encoding="UTF-8"?>
<kml xmlns="http://www.opengis.net/kml/2.2" xmlns:gx="http://www.google.com/kml/ext/2.2" xmlns:kml="http://www.opengis.net/kml/2.2" xmlns:atom="http://www.w3.org/2005/Atom">
<Document>
	<name>Kabale_Kaharo.kml</name>
	<StyleMap id="msn_ylw-pushpin">
		<Pair>
			<key>normal</key>
			<styleUrl>#sn_ylw-pushpin</styleUrl>
		</Pair>
		<Pair>
			<key>highlight</key>
			<styleUrl>#sh_ylw-pushpin</styleUrl>
		</Pair>
	</StyleMap>
	<Style id="sh_ylw-pushpin">
		<IconStyle>
			<scale>1.3</scale>
			<Icon>
				<href>http://maps.google.com/mapfiles/kml/pushpin/ylw-pushpin.png</href>
			</Icon>
			<hotSpot x="20" y="2" xunits="pixels" yunits="pixels"/>
		</IconStyle>
		<BalloonStyle>
		</BalloonStyle>
		<LineStyle>
			<width>0.6</width>
		</LineStyle>
		<PolyStyle>
			<color>ffffae6f</color>
		</PolyStyle>
	</Style>
	<Style id="sn_ylw-pushpin">
		<IconStyle>
			<scale>1.1</scale>
			<Icon>
				<href>http://maps.google.com/mapfiles/kml/pushpin/ylw-pushpin.png</href>
			</Icon>
			<hotSpot x="20" y="2" xunits="pixels" yunits="pixels"/>
		</IconStyle>
		<BalloonStyle>
		</BalloonStyle>
		<LineStyle>
			<width>0.6</width>
		</LineStyle>
		<PolyStyle>
			<color>ffffae6f</color>
		</PolyStyle>
	</Style>
	<Placemark>
		<name>Kabale_Kaharo</name>
		<styleUrl>#msn_ylw-pushpin</styleUrl>
		<Polygon>
			<tessellate>1</tessellate>
			<outerBoundaryIs>
				<LinearRing>
					<coordinates>
						30.07424140578554,-1.250908645192025,0 30.07414658143317,-1.250781916268281,0 30.07406537632947,-1.250616682657986,0 30.07398394974553,-1.250452975328485,0 30.07390533458877,-1.2503056726208,0 30.07383118413177,-1.2501946038894,0 30.07375653741385,-1.250082793237606,0 30.07367296761181,-1.250049345972031,0 30.07358518230303,-1.249984489143098,0 30.07347530612805,-1.250038792662135,0 30.07341480245725,-1.250159971879289,0 30.07334407108879,-1.25020858110895,0 30.07327896014152,-1.250292820250187,0 30.07320872711027,-1.250341025836593,0 30.07314422986858,-1.25042457999685,0 30.07306128204875,-1.250510793769336,0 30.07301622322334,-1.250590410511921,0 30.07294896694315,-1.250645452438382,0 30.07286396577089,-1.250705829722752,0 30.07282100575539,-1.250789637980954,0 30.07275593810442,-1.250959361244096,0 30.07268694036512,-1.251097868410717,0 30.07265383070628,-1.251224286501237,0 30.07262733364862,-1.251384815866337,0 30.07261642902951,-1.251530829540193,0 30.07260394548992,-1.251669511070088,0 30.07257401419982,-1.251811207030975,0 30.07254801409633,-1.251976382989927,0 30.07247922806786,-1.252095910716792,0 30.07243428102049,-1.252144338302964,0 30.07234485741685,-1.252240687446984,0 30.07229001171167,-1.252326911694332,0 30.07222012482441,-1.252422276838704,0 30.0721659055612,-1.252507025409985,0 30.07213234411583,-1.252609552097445,0 30.07206775097458,-1.252727288877063,0 30.07205622309345,-1.252850238265623,0 30.07206048418794,-1.252965114523104,0 30.07208533108672,-1.253098770173748,0 30.07214918602934,-1.253175353128911,0 30.07219537889023,-1.253253171345737,0 30.07226610594293,-1.253351709826357,0 30.07233636363008,-1.253449408874005,0 30.07241300280376,-1.253590586393454,0 30.07247996881846,-1.253679292857049,0 30.07255576420668,-1.253807887722147,0 30.07262142464481,-1.253893791883062,0 30.07270269434586,-1.253973878312553,0 30.07276749365825,-1.254058128738352,0 30.0728535816053,-1.254155369317822,0 30.07293927211159,-1.254252307106408,0 30.0729963344108,-1.254381869298911,0 30.0730698276225,-1.254508897355712,0 30.07312969619176,-1.254660128480641,0 30.07320108786108,-1.25478191078419,0 30.07323916357362,-1.254907483290191,0 30.07320302367093,-1.254990749745837,0 30.07320884496903,-1.255121224948059,0 30.07316879477573,-1.255178562722706,0 30.07311418292195,-1.255242701098513,0 30.07306563619281,-1.255249538533462,0 30.07300650094801,-1.255200975849168,0 30.07290488218033,-1.255104094991382,0 30.07282459524099,-1.255032966092178,0 30.07278194009212,-1.254984478319372,0 30.07268443275232,-1.254914149799705,0 30.07258882231647,-1.254850486790889,0 30.0725277351811,-1.254788313048021,0 30.07245436684187,-1.254752007641034,0 30.07235261625362,-1.254744352706105,0 30.07224008959653,-1.254683790623966,0 30.07212334765781,-1.25469370243612,0 30.0719965559822,-1.254572673957005,0 30.07190833856241,-1.254475340400218,0 30.07181331868734,-1.254429884494548,0 30.07173243272982,-1.254365237157915,0 30.07162219353395,-1.254315331166497,0 30.07148701709265,-1.254246262905091,0 30.07141249838327,-1.254222415956633,0 30.07127042404018,-1.254126094604219,0 30.07121020801056,-1.25409514961496,0 30.07106021598608,-1.253981403119681,0 30.07095705736643,-1.253920963183494,0 30.07083862057276,-1.253867161690746,0 30.0707757226034,-1.25383166623562,0 30.07065091645247,-1.253752453674133,0 30.07054580625177,-1.253678857405097,0 30.07042561748915,-1.253623827559805,0 30.07036895150934,-1.253616199707737,0 30.07025184620013,-1.253581086014478,0 30.07017798844453,-1.253563659051664,0 30.07009609627453,-1.253591581139041,0 30.07004420587218,-1.253595077742182,0 30.06997976764232,-1.253621787443784,0 30.06990291873287,-1.253671614989347,0 30.06983106020868,-1.253743226761468,0 30.06978482493315,-1.253842387276648,0 30.06977601388915,-1.253933337775467,0 30.06978390740735,-1.254081687764341,0 30.06983330296254,-1.254253805650528,0 30.06992675048118,-1.254349031117475,0 30.06999649480754,-1.254420101418787,0 30.07006594562619,-1.254490873309907,0 30.07014413621148,-1.254580599840062,0 30.07022866012657,-1.254636034896497,0 30.07034398782967,-1.254732698167875,0 30.07040552721472,-1.254765613890288,0 30.07055839769829,-1.254931283147888,0 30.07067093218063,-1.2549762446075,0 30.07075130671977,-1.255025940912633,0 30.07083141454502,-1.255075471153341,0 30.07095958808655,-1.255179930585523,0 30.07101188979467,-1.25524429671803,0 30.07109280237462,-1.255347088770218,0 30.0712210480256,-1.255394004371296,0 30.07132624456186,-1.255527526317977,0 30.07141489845987,-1.255612224404186,0 30.07146864722003,-1.255632356080019,0 30.0715808224447,-1.255745873884198,0 30.07170775721869,-1.255856616953815,0 30.07180657457257,-1.255929513875894,0 30.07192032272921,-1.25599964839797,0 30.07200193610338,-1.256009624431385,0 30.07210032003115,-1.256083808884894,0 30.0722295760404,-1.256207311059371,0 30.07229405304692,-1.256269513849948,0 30.07243962760623,-1.256343641723825,0 30.0725099043387,-1.256433635592176,0 30.07261304283418,-1.256472469404259,0 30.07269524435193,-1.256552961116788,0 30.07278199046529,-1.256592286411041,0 30.07283909502195,-1.256638593894044,0 30.07294622260434,-1.25670182772309,0 30.07300283805712,-1.256747777500108,0 30.07307272698786,-1.256786581552282,0 30.07315654959344,-1.256820101759754,0 30.07321163732414,-1.25686282085974,0 30.07330110722944,-1.256924364776208,0 30.07334123813888,-1.256970516394535,0 30.07343492278596,-1.257056491164058,0 30.07345470706821,-1.257079080094972,0 30.07356519791212,-1.257100770480639,0 30.0736329233007,-1.25713646284091,0 30.0736809696802,-1.257149621531478,0 30.07376398917985,-1.25718465375719,0 30.07385031045106,-1.257241185378168,0 30.0739403084883,-1.257320929342143,0 30.0740067041206,-1.257354519419365,0 30.0740441690889,-1.257396052715307,0 30.07412893634354,-1.25745017218649,0 30.07416619677506,-1.257491798813708,0 30.07423243512856,-1.257526529393104,0 30.07435007721487,-1.257599549976468,0 30.07441980054526,-1.25765829176708,0 30.074503450683,-1.257712319729565,0 30.07455806636668,-1.257773676453902,0 30.07461166433908,-1.257831824564321,0 30.07466505310305,-1.257889742338286,0 30.07472347360672,-1.257987388633738,0 30.07474615188272,-1.258045609815453,0 30.07480276814166,-1.258137327488499,0 30.07485447927568,-1.258191008404934,0 30.07492208242101,-1.258248372364154,0 30.07495734981882,-1.258288182715532,0 30.07505343158049,-1.258340092417542,0 30.07510543653779,-1.258397637587481,0 30.07518261288146,-1.258425359165396,0 30.07523114259631,-1.258459578359044,0 30.07531408004094,-1.258533032780475,0 30.07539917740324,-1.258627330872936,0 30.07543209359273,-1.258660416000444,0 30.0755099805411,-1.258704612737526,0 30.07554678053841,-1.258775686999692,0 30.07565057242826,-1.258913518988573,0 30.07580002855087,-1.259072966452077,0 30.07585656565717,-1.259193436702059,0 30.07590787750792,-1.259269789347543,0 30.07594047530024,-1.259306641282138,0 30.07603034194763,-1.259348492410359,0 30.07607741108471,-1.259395360300809,0 30.07613851327424,-1.25944033715083,0 30.07619804519002,-1.259467924940576,0 30.0762321143442,-1.25953442341592,0 30.07626405769003,-1.259570995149641,0 30.07630235857209,-1.25968246153251,0 30.07631036563906,-1.259775598243028,0 30.07634347096772,-1.259829984406647,0 30.07635128336135,-1.259922055354479,0 30.07628392950974,-1.259961596718082,0 30.07623267177552,-1.260019769283201,0 30.07619413854999,-1.260059605297757,0 30.07615573403804,-1.260099309610729,0 30.07607362492557,-1.260121804990759,0 30.07601961704378,-1.260143063484531,0 30.07597375025689,-1.260107100144775,0 30.07586181901072,-1.260111892532279,0 30.07576935265627,-1.260039670385582,0 30.07572532116931,-1.260023458136701,0 30.07561739750492,-1.25994844135395,0 30.07552635691434,-1.259896455213941,0 30.07545302134206,-1.259878489951377,0 30.07536137857401,-1.259826208320316,0 30.07528769656238,-1.259808135470705,0 30.07522909520251,-1.259793523458532,0 30.07515506039059,-1.259765712480625,0 30.07509680522862,-1.259752955124414,0 30.07499346944047,-1.259723568216819,0 30.0749506132464,-1.259724253263399,0 30.07484678053295,-1.259693887482005,0 30.07480193657864,-1.259678565473083,0 30.07470176729581,-1.25968016840882,0 30.07462792909174,-1.259664423854605,0 30.0745396285462,-1.259648741757607,0 30.07445339513204,-1.259649280031515,0 30.07437935143101,-1.259633633399047,0 30.07430788276033,-1.259635496588173,0 30.07420554211908,-1.259621891685519,0 30.07411974830611,-1.259624129785331,0 30.0740440614591,-1.259595167916431,0 30.07398737521056,-1.259598248866348,0 30.07388821545937,-1.259603640369541,0 30.07380326304861,-1.259608258039282,0 30.07373249989729,-1.259612105209659,0 30.07367573613558,-1.259614717458414,0 30.07357357826993,-1.259602465162839,0 30.0735450763887,-1.25960346344213,0 30.07340018315966,-1.259592984660193,0 30.07334359068534,-1.259596007155304,0 30.07324213576129,-1.259585878131142,0 30.07317142222809,-1.259589658150401,0 30.07308407104836,-1.259578772124765,0 30.07301338411377,-1.259582552039835,0 30.07289893984289,-1.259585382362303,0 30.07282741562586,-1.259587158947746,0 30.07277019880494,-1.259588580142622,0 30.07265575907161,-1.259591435785052,0 30.07256994382996,-1.259593567468928,0 30.07251273801553,-1.259594989970974,0 30.07241263090723,-1.259597476072814,0 30.07234402788746,-1.259614729200479,0 30.07224692843824,-1.259632668039472,0 30.07220703139519,-1.25964917683908,0 30.07212734790123,-1.25968214738364,0 30.07204781554403,-1.259715056788106,0 30.07200506114251,-1.259716116818071,0 30.07195112796445,-1.259732900353891,0 30.07188610507765,-1.259765362615547,0 30.07180650528156,-1.259797281022393,0 30.07175564528141,-1.259828734092441,0 30.07170487570033,-1.259860131979678,0 30.07165767787833,-1.259907216520413,0 30.07161181823777,-1.259956314844956,0 30.07156345696826,-1.259991171145465,0 30.0715063970657,-1.260035549651995,0 30.07145007412687,-1.260080631764865,0 30.07139976831721,-1.260144780715153,0 30.0713515959149,-1.260168994656188,0 30.07131699747225,-1.260191909082232,0 30.07128075331885,-1.260254181765006,0 30.07124470663034,-1.260316110203511,0 30.07119551449227,-1.260378917209352,0 30.07115990358573,-1.260440159931375,0 30.07113767703941,-1.260499781476925,0 30.07111490265307,-1.260558000445116,0 30.07110307647086,-1.260651264568165,0 30.07111673579757,-1.260740100141485,0 30.07115302953828,-1.260771684272231,0 30.0712382275564,-1.260833118534709,0 30.07129222736654,-1.260880135880796,0 30.07137447388678,-1.260888277553799,0 30.07141308196765,-1.260883774554133,0 30.07148653017273,-1.260899980945178,0 30.07154855041873,-1.260879510344296,0 30.07158320207697,-1.260859271623378,0 30.07165988856253,-1.260839786069912,0 30.07171788033489,-1.26080277470741,0 30.07181122142577,-1.260787522817827,0 30.07187607299407,-1.260770792486192,0 30.07193453577289,-1.260733585265653,0 30.07194883039803,-1.26073432585434,0 30.0720281766482,-1.260718272934323,0 30.07214243210046,-1.260724191384589,0 30.07219329268604,-1.260706656897868,0 30.07227889789051,-1.260711102475602,0 30.07238595423764,-1.260694776038961,0 30.07245583717281,-1.260695868963415,0 30.07257546337052,-1.260676824100202,0 30.07264532296433,-1.260677906350783,0 30.07271745099074,-1.260637475864021,0 30.07285158657318,-1.26061874326464,0 30.0730220526173,-1.260579112237346,0 30.0732410445152,-1.260571608877761,0 30.07333198413054,-1.260548007351245,0 30.07344217246326,-1.260545461101268,0 30.07353342837422,-1.260521805930153,0 30.07370269667254,-1.260474617522149,0 30.07377143663147,-1.260472117862286,0 30.07384912079107,-1.260447604749019,0 30.07391796215494,-1.260445101169578,0 30.07398201946178,-1.260420745127874,0 30.0740506415151,-1.260417381739531,0 30.07412860400075,-1.260392053459377,0 30.0742110981711,-1.260388004853,0 30.07429362559845,-1.2603839538779,0 30.07433490234498,-1.260381929071182,0 30.07440803589213,-1.260400432101774,0 30.07442605548143,-1.260421497810324,0 30.07451324877979,-1.260440937168969,0 30.07460026399493,-1.260460339684319,0 30.07473752229246,-1.260534407939703,0 30.07486701148888,-1.260567500665192,0 30.0749689224167,-1.260602100586041,0 30.07505693118345,-1.260637391434881,0 30.07516865081864,-1.26065082442255,0 30.07521158064865,-1.260665280392955,0 30.07531098458719,-1.260693815150184,0 30.07539702500372,-1.260724603896731,0 30.07549370839691,-1.260735052618775,0 30.07553403819557,-1.260731360540844,0 30.07566244982234,-1.26077739005634,0 30.07571620924534,-1.260772479388898,0 30.07576997201551,-1.260767461234492,0 30.07586620515589,-1.260776783049866,0 30.07595114231024,-1.260806423686936,0 30.07604513121482,-1.260796795959088,0 30.07611234586836,-1.260789911148096,0 30.07616616648732,-1.260784399029439,0 30.07619309082536,-1.260781640295074,0 30.0762604518203,-1.260774740075053,0 30.07634320644843,-1.260785414216115,0 30.07641364351861,-1.260813102252167,0 30.07645556580141,-1.26082634883782,0 30.07652616199962,-1.260856263986753,0 30.07652929930378,-1.260892705051155,0 30.07663095996844,-1.260974158076138,0 30.07664437917281,-1.260972852603401,0 30.07674116527199,-1.260999817910281,0 30.07684139802436,-1.261078309363653,0 30.07693964112106,-1.261137394042451,0 30.07699639033125,-1.261183441649631,0 30.07706623291317,-1.261227806329595,0 30.0770949456288,-1.261259314851858,0 30.07716572085745,-1.261323579418161,0 30.07726330445136,-1.261399636821216,0 30.07730399677529,-1.261413308148435,0 30.0773587154989,-1.261442425468474,0 30.07748102316042,-1.261499557145156,0 30.07756312446044,-1.261559125027232,0 30.07759082170078,-1.261589695680746,0 30.07768497363263,-1.261631856976178,0 30.07773931035408,-1.261676527911006,0 30.07779296672676,-1.261705043121311,0 30.07782021657676,-1.261735270042477,0 30.07788820669276,-1.261814936982623,0 30.077955714425,-1.261894040918785,0 30.07798255363931,-1.261924611192569,0 30.07802266359958,-1.261969315806011,0 30.07810243401619,-1.262058515179648,0 30.07815532798016,-1.262121922906248,0 30.07818210124301,-1.262185730124866,0 30.07822177049461,-1.262264764099591,0 30.07824783007305,-1.262295909190329,0 30.07826131828795,-1.262357971364402,0 30.07828805488109,-1.262480442972686,0 30.07828889269727,-1.262572292334186,0 30.07830234965684,-1.262662783519906,0 30.07834083548672,-1.262752024811159,0 30.07834120272376,-1.262815713018691,0 30.07836656131934,-1.262877766303129,0 30.07836671845477,-1.262908009950116,0 30.07839206203314,-1.262995556641999,0 30.07839242734514,-1.26308459646444,0 30.07841732607374,-1.263126631549998,0 30.07844220207754,-1.263212385686732,0 30.07845457985312,-1.26326952750598,0 30.07846688385728,-1.263311909421865,0 30.07847913590943,-1.263368507612182,0 30.07849132172998,-1.263424796775634,0 30.078430487745,-1.263457385686588,0 30.07845497906868,-1.263522585076747,0 30.07847934883107,-1.263573120949927,0 30.0785157093442,-1.263609016047424,0 30.07853986429967,-1.263659189526148,0 30.0785639167053,-1.263709149377996,0 30.07859995157592,-1.263744652009254,0 30.07863581405441,-1.263793045720234,0 30.07867153494925,-1.263841244980077,0 30.07869533888458,-1.26386467430887,0 30.07874264837938,-1.263924916190198,0 30.07877787984019,-1.263973814820339,0 30.07886043271478,-1.264031352825854,0 30.07888358752399,-1.26406796345084,0 30.07893018595517,-1.264115285537453,0 30.07896460195558,-1.26416480833316,0 30.07898669816076,-1.264228166636488,0 30.07898475357705,-1.264306095782763,0 30.07897202181738,-1.264345837816552,0 30.0789476213181,-1.26438640026232,0 30.07893445039701,-1.264451334072493,0 30.07893272927121,-1.264527523032607,0 30.07895511843259,-1.264563471470253,0 30.07898904006395,-1.264598336549887,0 30.07906961933097,-1.264616737001366,0 30.0791148781019,-1.264650488832944,0 30.07919517732719,-1.264669110170475,0 30.07922887496865,-1.264683396703949,0 30.07936213735719,-1.264637028184738,0 30.07951438481437,-1.264702486695622,0 30.07957776894226,-1.264752771933628,0 30.07962667481049,-1.264803689091903,0 30.07969425797566,-1.264882955073792,0 30.07975864044971,-1.264940495006244,0 30.07979116654129,-1.264975657874501,0 30.07984405295594,-1.265065605926303,0 30.07988052623859,-1.26513771930422,0 30.07993019403851,-1.265196748430583,0 30.07997960556468,-1.265255472902741,0 30.08004306989475,-1.265314728924865,0 30.08010416004759,-1.265363556519889,0 30.08015087167971,-1.265411884945471,0 30.08021137622892,-1.26545952103766,0 30.08026095923468,-1.265532905490888,0 30.08032534509826,-1.265612004686794,0 30.08042939068505,-1.265681713855328,0 30.08050687210904,-1.265778306335887,0 30.08056721419533,-1.265841090493036,0 30.08065632787283,-1.265912463591737,0 30.0807144379161,-1.265948001841496,0 30.08082781349319,-1.265995066043735,0 30.08089581314332,-1.265990483465044,0 30.08095136392636,-1.266003147375292,0 30.08102046991191,-1.266014887964146,0 30.08107697065343,-1.266043818776733,0 30.08114892303923,-1.266104221786244,0 30.0811915557836,-1.266133871858802,0 30.08125081523742,-1.266214425534338,0 30.08129603613897,-1.266285882985599,0 30.08136913988854,-1.266375559727516,0 30.08140017358386,-1.266445917427129,0 30.08143196269622,-1.266533023850496,0 30.08144823175394,-1.2665848749683,0 30.08148024296418,-1.266684770944246,0 30.08152323352575,-1.266747230872892,0 30.08157921434733,-1.266808990489947,0 30.08162101186675,-1.266855100292716,0 30.08167761095621,-1.266937584882274,0 30.08173308028354,-1.267003169993277,0 30.08177564632879,-1.267082566179793,0 30.08181530046219,-1.267095413146658,0 30.08185607508087,-1.26713976965954,0 30.08193613118661,-1.267196709454608,0 30.08200275132798,-1.267246276243587,0 30.08204266685496,-1.26727927985483,0 30.0821608418397,-1.267344986688455,0 30.08225223066135,-1.267397712406624,0 30.08233110273196,-1.267492905073916,0 30.08238302741024,-1.267532708270448,0 30.08243499446158,-1.267596711848141,0 30.08247388726996,-1.267664940578587,0 30.0824999791179,-1.267744277532249,0 30.08252588250479,-1.267820112703274,0 30.08255151510174,-1.267879733024216,0 30.08257707167324,-1.267954611267758,0 30.08260235472341,-1.267997982740627,0 30.08262758726089,-1.268072171089089,0 30.08265256613971,-1.268133510772411,0 30.0826649950452,-1.268179286238537,0 30.08273943162492,-1.268245421431882,0 30.08276396090383,-1.268290057569796,0 30.08282560718599,-1.268315447287185,0 30.08286238764583,-1.268343094113472,0 30.08289907043485,-1.268370668480167,0 30.08293565625335,-1.268398169041468,0 30.08299679822044,-1.26842331005333,0 30.08306978340537,-1.268462624658308,0 30.08310578126328,-1.26850301399257,0 30.08315436846167,-1.268526499617294,0 30.08317785337085,-1.268567653938858,0 30.0832127032135,-1.268636383595298,0 30.08324776143928,-1.268690157795357,0 30.08327088344397,-1.268730675249626,0 30.08330516023232,-1.268798341318197,0 30.08335186173674,-1.268840347400258,0 30.08339865529233,-1.268879539395506,0 30.08345817828875,-1.268901485148479,0 30.08352908714577,-1.268936314142748,0 30.08355263542648,-1.268948208351844,0 30.08368138105919,-1.269020199925583,0 30.0837394363042,-1.269056468703526,0 30.08377403002143,-1.269080876234121,0 30.08382057574277,-1.26910416443363,0 30.08386685961063,-1.2691373931474,0 30.08388960327544,-1.269160408851252,0 30.08395983897816,-1.269190782117769,0 30.0840173019178,-1.269225275699412,0 30.08406322881401,-1.269240013497777,0 30.0841323642817,-1.269255755336468,0 30.08418970858574,-1.269270945582541,0 30.08427105217987,-1.269274542435995,0 30.08433985597914,-1.269289726729899,0 30.08439719087389,-1.269303350382837,0 30.08446509740315,-1.26932949504105,0 30.08449123283957,-1.269293120324575,0 30.08452909697963,-1.269256898001332,0 30.08454574480471,-1.269195221652401,0 30.08454976483972,-1.269145420953077,0 30.08455481490051,-1.2690828623665,0 30.08453449952608,-1.269043992472795,0 30.08451534524924,-1.268991407136514,0 30.08452066578729,-1.268926688287376,0 30.0845235133719,-1.268889078263657,0 30.08454280869611,-1.268789406392216,0 30.08452287925496,-1.268737876272809,0 30.08449915942506,-1.268736765770207,0 30.08439578225423,-1.268681048689307,0 30.08433789438484,-1.268652780113653,0 30.08428091829863,-1.268610365508263,0 30.08424720549947,-1.268580230083104,0 30.08418958702075,-1.268547683406209,0 30.08414451996858,-1.268502695302218,0 30.08409840011786,-1.268471016413657,0 30.08402968590196,-1.268409676099929,0 30.08395851480386,-1.268368628947612,0 30.08390052444187,-1.268301540575162,0 30.08385565787423,-1.268226943183983,0 30.08382095486816,-1.268173553643922,0 30.08374942883439,-1.268106334009826,0 30.08371483058922,-1.268038909267468,0 30.08368054721574,-1.267957531481627,0 30.08363431485066,-1.267859283258333,0 30.08359967471412,-1.26778519136982,0 30.08356479368328,-1.267710589262038,0 30.08352915654644,-1.267650094596475,0 30.08348067550324,-1.267588516540421,0 30.08344408773994,-1.267542447716725,0 30.08338165279636,-1.267497433533519,0 30.08334425172698,-1.267455628447898,0 30.08329407865882,-1.267400909248003,0 30.08325626023379,-1.267360275271501,0 30.08320565352489,-1.267305901062888,0 30.08316756048614,-1.267264970304971,0 30.08312934768602,-1.267223912959929,0 30.08307792684979,-1.267196495923154,0 30.08301371224632,-1.267140634015007,0 30.08297525293774,-1.267095755734787,0 30.08294964089375,-1.267051256135593,0 30.08289789094487,-1.267005482232404,0 30.08284588195128,-1.266974119681876,0 30.08280682019842,-1.266928595476924,0 30.08272827134552,-1.266866480757383,0 30.08268882658782,-1.266836167600925,0 30.08263613833824,-1.266803377592706,0 30.08259647373585,-1.266771298424384,0 30.08254347988135,-1.266738977401407,0 30.08251679078755,-1.266707746080961,0 30.08246336391459,-1.266660145558961,0 30.08240971406083,-1.266612344979806,0 30.08236916608265,-1.266564955469658,0 30.08232845439176,-1.266517375447457,0 30.08227354969093,-1.266433080814398,0 30.08221817240551,-1.266345462101423,0 30.08217661711065,-1.266291663677181,0 30.08212048189111,-1.266202892700518,0 30.08206478640093,-1.266147402880482,0 30.0820352979176,-1.266062698731981,0 30.08199290334133,-1.266011373792874,0 30.08196263707532,-1.265912400132776,0 30.08194644018922,-1.265830062583211,0 30.08191684286699,-1.265763591752448,0 30.08188710558669,-1.265697118776212,0 30.08185721435674,-1.2656302990173,0 30.08182711180971,-1.265562388686236,0 30.08178280037219,-1.265492103884449,0 30.08174022724381,-1.265473502805703,0 30.08164016873189,-1.265419613942157,0 30.08158258471128,-1.265384033704303,0 30.08152410633947,-1.265331924713605,0 30.08146613807227,-1.26529607940889,0 30.08139406566732,-1.265261921202016,0 30.08133677853676,-1.265244654207052,0 30.08127858771518,-1.265211297128338,0 30.08123446183887,-1.265178536908142,0 30.08119114935381,-1.265162312786982,0 30.08111763234553,-1.2651136850514,0 30.08104290619894,-1.26504865260754,0 30.08098151328209,-1.264978725856585,0 30.08092181377405,-1.264941033067063,0 30.08087516506919,-1.264886685827778,0 30.08080062393996,-1.264847892262727,0 30.08073913880818,-1.264792998656183,0 30.08067902405878,-1.264757724878212,0 30.08060182211454,-1.264688424425714,0 30.08053997981136,-1.264635728555992,0 30.08047794863722,-1.264583177002908,0 30.08040230194559,-1.264546187623315,0 30.0803237905376,-1.264475863123436,0 30.08026231651335,-1.264439361653349,0 30.08019816113398,-1.264379696121566,0 30.08015004275742,-1.264338223154775,0 30.08008505845644,-1.264276670569665,0 30.08003480843407,-1.264216678240071,0 30.08001627171294,-1.264178409084511,0 30.07997516045,-1.264063122383809,0 30.07991969563906,-1.263960351421098,0 30.07986578936461,-1.263876279236303,0 30.07982710808673,-1.263794781451897,0 30.07980145724928,-1.263694779940344,0 30.07976230566892,-1.263612148450792,0 30.07973558968082,-1.263507625236113,0 30.07969473228204,-1.263417845777158,0 30.07966794247394,-1.263313664766418,0 30.07962284096496,-1.263185469381422,0 30.07959783242855,-1.263100205246804,0 30.07958860665904,-1.263016878877109,0 30.07956303461658,-1.262929092182175,0 30.07953243897592,-1.262797834625327,0 30.07951756280207,-1.262667369810985,0 30.07949625747366,-1.262620237932606,0 30.07942925818659,-1.262455513485056,0 30.07938589401378,-1.262359529758737,0 30.07936141718321,-1.262288693262233,0 30.07931480148377,-1.262168705674658,0 30.07925665049435,-1.262090242194923,0 30.07922971707511,-1.261999325528063,0 30.07915159348629,-1.261884726962851,0 30.0790904757046,-1.261776008456741,0 30.07905033507843,-1.261710284420634,0 30.07898849407124,-1.261600299558914,0 30.07894356115074,-1.261504501928281,0 30.07889785894672,-1.261406018015044,0 30.07885376979764,-1.26131526854918,0 30.07879143763106,-1.261206956568416,0 30.07876227914153,-1.261100433070843,0 30.07873658991193,-1.261029824378058,0 30.07871945995951,-1.260893575508607,0 30.07870795674465,-1.260802094746639,0 30.07867607034389,-1.260683965250874,0 30.07864832778872,-1.260604909546028,0 30.0786278916419,-1.260453440990689,0 30.07857563194887,-1.260320651944675,0 30.07854411209489,-1.260215436517054,0 30.07852664809404,-1.260086855136211,0 30.07852952363558,-1.259982405257214,0 30.07854441919327,-1.259854801892573,0 30.07855985682549,-1.259727720345271,0 30.07860283325786,-1.259666387814014,0 30.07868125098181,-1.259607465907835,0 30.07871991942122,-1.259512591945813,0 30.07875884613417,-1.259417079361129,0 30.07878494254924,-1.259353048363826,0 30.07884057644162,-1.259239317484862,0 30.07888381912021,-1.259159691226056,0 30.07892726945706,-1.259079684424875,0 30.07895635241702,-1.259026132013851,0 30.07905390979492,-1.25894899922199,0 30.07911599143251,-1.258869170723764,0 30.0792027393976,-1.25884762562829,0 30.07925427546352,-1.258827231501038,0 30.07933619645089,-1.258754994618378,0 30.07938187837185,-1.258676970156615,0 30.07942788419183,-1.258599357966479,0 30.07949272081592,-1.258525997565421,0 30.07955235354679,-1.258395812264752,0 30.0795836877542,-1.258344571113513,0 30.0796466175738,-1.258241661672053,0 30.07967279712307,-1.258131747472681,0 30.07972000916176,-1.258050800561415,0 30.07974553896951,-1.257932249531523,0 30.07976243750043,-1.257728293758945,0 30.07979011105072,-1.257630875196139,0 30.07983020760793,-1.257465293451365,0 30.07986175963702,-1.257403132648004,0 30.07992626756444,-1.257286354137588,0 30.07999834764281,-1.257247839384533,0 30.08006962001755,-1.257202025848868,0 30.08013701219537,-1.257110905680205,0 30.08020867673463,-1.257064794112078,0 30.0802804745056,-1.257018595923713,0 30.08033255592749,-1.256961063268697,0 30.08042090874062,-1.256880093941778,0 30.0804698816332,-1.256775979850412,0 30.08051916889615,-1.256671204056251,0 30.08058886926819,-1.256578598691709,0 30.08063845464029,-1.256468425525379,0 30.08068877717613,-1.256362003412638,0 30.08076207871521,-1.25630890849177,0 30.08082732877599,-1.256120251460424,0 30.0808787894286,-1.256011588908241,0 30.08090804418548,-1.255847443483926,0 30.08097793538215,-1.255703883111653,0 30.08101067647713,-1.25558602403817,0 30.08108155001528,-1.255440228739846,0 30.08115748223863,-1.255385972224207,0 30.08121134013983,-1.255275508049595,0 30.08128958280342,-1.25526344233072,0 30.08138568481719,-1.255207979224436,0 30.08148374455244,-1.255198949906194,0 30.08155972887172,-1.255123676796304,0 30.0816359331381,-1.255045482109611,0 30.08171248880949,-1.254966927384412,0 30.08178938878438,-1.254888023644113,0 30.08184655171028,-1.254799228748658,0 30.08194424259034,-1.254729122278401,0 30.0820009119763,-1.254579966030827,0 30.08210052275689,-1.254568765808568,0 30.08215906605098,-1.254478280291246,0 30.0822387967559,-1.254457302286697,0 30.08233764818029,-1.254325446139273,0 30.08243758247107,-1.254258061781389,0 30.08251770596523,-1.254181740193295,0 30.08257805466427,-1.25402504646195,0 30.08267942496352,-1.253939659252841,0 30.08276126826268,-1.253827883531703,0 30.08282311455573,-1.253723595366452,0 30.08292615129007,-1.253630290548052,0 30.08300768767993,-1.253650032438475,0 30.08313075376143,-1.253620569172165,0 30.08321207296261,-1.253640318057706,0 30.08329324180144,-1.253660023821272,0 30.08347618123482,-1.253663539682383,0 30.08357802889794,-1.253669408093516,0 30.08367842378213,-1.253720630531734,0 30.08377847693296,-1.253771682623314,0 30.08385413586737,-1.253902081659412,0 30.08397251853742,-1.253967598307541,0 30.08404965334876,-1.254038066837905,0 30.08410609660952,-1.254110945243091,0 30.08418205698713,-1.254186502502454,0 30.08425799746811,-1.254256682081323,0 30.08435172583064,-1.254380849397259,0 30.08445000289243,-1.254411708142827,0 30.08451900831461,-1.25457548044116,0 30.08461380062005,-1.25463418898251,0 30.08468108002112,-1.254782578191943,0 30.08479160848345,-1.254866695006973,0 30.08487550266553,-1.255024191733292,0 30.08497112728765,-1.25505338873954,0 30.08507181909035,-1.255023280502567,0 30.08520218425755,-1.255099658797449,0 30.08529735887767,-1.255128738222093,0 30.08535995478811,-1.255270429306979,0 30.08540481142209,-1.255380322382116,0 30.08547273619604,-1.255608281922327,0 30.08553653547134,-1.255707240226696,0 30.08561426562731,-1.255849364908306,0 30.08571440849653,-1.255809995738466,0 30.0857968256991,-1.255765365651365,0 30.08591064769027,-1.255776651747083,0 30.08601753607185,-1.255702148679418,0 30.08607863914289,-1.255677174068371,0 30.08618805958406,-1.255701957812262,0 30.08630076112996,-1.255452061100058,0 30.08632412730105,-1.255154264685596,0 30.08627469575096,-1.255060610401294,0 30.08620949335302,-1.254943540400761,0 30.08616631039721,-1.25480796614221,0 30.08612275066952,-1.254671205056994,0 30.08607880717612,-1.254533236557757,0 30.08603016831792,-1.254421181768641,0 30.08597964304861,-1.254318480440226,0 30.08592883399731,-1.254215204260773,0 30.08583391027053,-1.254168769239852,0 30.08576106084919,-1.254090056832833,0 30.08569090399117,-1.253989435738934,0 30.08560111040538,-1.253881305969553,0 30.08552710092724,-1.253816629075924,0 30.08545404826438,-1.253725716666545,0 30.08538001247702,-1.253638825254548,0 30.08528307781876,-1.253585659485674,0 30.08518551741124,-1.253534707289922,0 30.08509144702019,-1.253416693967036,0 30.08501669359092,-1.2533195112175,0 30.08494157337553,-1.253220988327608,0 30.08490580510689,-1.253135600394316,0 30.08484002209822,-1.252883379936014,0 30.08480562351574,-1.252775980386481,0 30.08475360085281,-1.252613546622849,0 30.08466347989293,-1.252381660321361,0 30.08462882071584,-1.252261076809026,0 30.0844966267619,-1.251993918616569,0 30.08441851575306,-1.251864114726622,0 30.08433460515063,-1.25183920037373,0 30.08423178672624,-1.251756375745101,0 30.08412964765004,-1.251634716849505,0 30.08404616794639,-1.251568606849046,0 30.08389491546049,-1.251562164768785,0 30.08381082989704,-1.251473145822258,0 30.08372504164382,-1.25143036262607,0 30.08363786347919,-1.251434140761582,0 30.08355017045781,-1.251450022556376,0 30.08344066959431,-1.251470650493399,0 30.08333075799639,-1.251530728954811,0 30.08322020542737,-1.251623853144388,0 30.08311014570232,-1.251722800430978,0 30.08302289393207,-1.251767358122678,0 30.08291431160884,-1.2518787828758,0 30.08280637528012,-1.251958025755367,0 30.08269897210539,-1.252036876853794,0 30.08261363273346,-1.252137164934733,0 30.08252898900721,-1.252267940710425,0 30.08244463945892,-1.252362514329231,0 30.08233993157216,-1.252486403779452,0 30.08225646276668,-1.252568632739154,0 30.08217375336039,-1.252677082655824,0 30.08207062377718,-1.252792050409761,0 30.08198784542726,-1.252846681180074,0 30.08190571089039,-1.252920375344384,0 30.08182419025499,-1.25301016832361,0 30.08176187489784,-1.253018248900236,0 30.08168014623628,-1.253081476369884,0 30.08155818891082,-1.253181479318099,0 30.08147733087925,-1.253251430431599,0 30.0813967426718,-1.253321146181221,0 30.08129589406393,-1.253393564859954,0 30.08121678768802,-1.253489159585895,0 30.08113679203188,-1.253552935717689,0 30.08105815056803,-1.253645101343867,0 30.0809798322933,-1.253736888457078,0 30.08092235600687,-1.253829027691659,0 30.08086613399834,-1.253935435345439,0 30.08077142920247,-1.254078250844789,0 30.08069581841333,-1.254185125403292,0 30.08061702795607,-1.254225465290694,0 30.08054006585032,-1.254296192013452,0 30.08045908421258,-1.254295887491569,0 30.08038211066043,-1.254361648302717,0 30.08030331135661,-1.254394301602986,0 30.08022463355923,-1.254426903027693,0 30.08014607168604,-1.254459459146799,0 30.08002964994528,-1.254525003670266,0 30.079971616111,-1.254558093373565,0 30.07987597911242,-1.254624617892739,0 30.07981897086659,-1.254663983102389,0 30.07972767128776,-1.254772955884728,0 30.07965132856965,-1.254814148849287,0 30.07960021431174,-1.25491796782199,0 30.07952705241188,-1.254991110992516,0 30.07945415480252,-1.255063965496959,0 30.07940392689472,-1.255166404303353,0 30.0793320933356,-1.255241461076321,0 30.07924071435338,-1.255315773221807,0 30.07917283167724,-1.255423872109867,0 30.07910388839094,-1.255510117680599,0 30.07901977715698,-1.255632837408035,0 30.07893629379742,-1.255754642708083,0 30.07887187421507,-1.255869856852636,0 30.07880396386467,-1.255949851221297,0 30.07875775204859,-1.256052777051975,0 30.07871181217976,-1.256155097875811,0 30.07866634605989,-1.256257825035447,0 30.0786215244894,-1.256362075119479,0 30.07855581400101,-1.256442930917367,0 30.07851479749448,-1.256574457672998,0 30.07844811631814,-1.256645829718957,0 30.0783631534183,-1.256718751870366,0 30.07831166680327,-1.25675663387974,0 30.07826030222338,-1.256794425767072,0 30.07817967171153,-1.256895075584091,0 30.07810246658604,-1.257020451926814,0 30.07793516323455,-1.257157820022998,0 30.0777972065921,-1.257368515502755,0 30.07771578392231,-1.257451539616656,0 30.07764938900633,-1.257506872740568,0 30.07758318791524,-1.257562043713755,0 30.07749110080808,-1.257563836438592,0 30.07739589403723,-1.257541939930108,0 30.07731132534328,-1.25746689684571,0 30.07722642200255,-1.257391557315433,0 30.07716349980012,-1.257341444948587,0 30.07705749613277,-1.257258793868915,0 30.07698809129544,-1.257174607343471,0 30.07690015783762,-1.257091995794083,0 30.07682881639469,-1.257002642177097,0 30.07673285413409,-1.25688175646079,0 30.07666140886785,-1.256793952912062,0 30.07658495859759,-1.256677491549413,0 30.07650798751584,-1.256560176782382,0 30.07642926948022,-1.25643786313304,0 30.07635258305686,-1.2563357472646,0 30.07627541673359,-1.256232993120859,0 30.07619776737227,-1.256129596192564,0 30.07608850149492,-1.256062919022974,0 30.07599434101623,-1.255971080569447,0 30.07587954073952,-1.255876493351639,0 30.07578602276526,-1.255789022381258,0 30.07569078160352,-1.255697089346506,0 30.07559358268101,-1.255600101395399,0 30.07549584859243,-1.255502581056689,0 30.07536579369718,-1.255354979697938,0 30.07526648073768,-1.255268128023563,0 30.07516104041792,-1.255151419047812,0 30.0750623514801,-1.255068877969219,0 30.07491986353062,-1.254963320242041,0 30.07482977999451,-1.254921142080425,0 30.07473398614134,-1.254850226630174,0 30.07462716177987,-1.254748810017501,0 30.07449577457093,-1.254636544877704,0 30.07438666123938,-1.254531768397019,0 30.0743097669053,-1.254461203900147,0 30.07422515770042,-1.254356748863972,0 30.07414006739774,-1.254251698858466,0 30.0740888340184,-1.254114560720441,0 30.07400787962973,-1.253869472810085,0 30.07396387274445,-1.253681803630067,0 30.07395109028638,-1.253535525688223,0 30.07393079060214,-1.253367586639982,0 30.07392320904233,-1.253161731156102,0 30.07390829081809,-1.253006292444978,0 30.07389394791604,-1.252851649047649,0 30.07390304781466,-1.252702045803849,0 30.07391221125307,-1.252551330795429,0 30.07393134807671,-1.2524418390757,0 30.07392872908017,-1.252254385585431,0 30.07392160804547,-1.252129138674357,0 30.07390722853861,-1.251876186766799,0 30.07391938219135,-1.25164854276782,0 30.07391633780778,-1.251451950737184,0 30.07395341777608,-1.251322087072579,0 30.07402451603604,-1.251241146152838,0 30.07407273296831,-1.251156826127135,0 30.07419070872515,-1.251081425782403,0 30.07422337880791,-1.250931261620379,0 30.07424140578554,-1.250908645192025,0 
					</coordinates>
				</LinearRing>
			</outerBoundaryIs>
		</Polygon>
		<atom:link rel="app" href="https://www.google.com/earth/about/versions/#earth-pro" title="Google Earth Pro 7.3.6.10201"></atom:link>
	</Placemark>
</Document>
</kml>
