<?xml version="1.0" encoding="UTF-8"?>
<kml xmlns="http://www.opengis.net/kml/2.2" xmlns:gx="http://www.google.com/kml/ext/2.2" xmlns:kml="http://www.opengis.net/kml/2.2" xmlns:atom="http://www.w3.org/2005/Atom">
<Document>
	<name>Kabale_Katuna.kml</name>
	<StyleMap id="msn_ylw-pushpin">
		<Pair>
			<key>normal</key>
			<styleUrl>#sn_ylw-pushpin</styleUrl>
		</Pair>
		<Pair>
			<key>highlight</key>
			<styleUrl>#sh_ylw-pushpin</styleUrl>
		</Pair>
	</StyleMap>
	<Style id="sh_ylw-pushpin">
		<IconStyle>
			<scale>1.3</scale>
			<Icon>
				<href>http://maps.google.com/mapfiles/kml/pushpin/ylw-pushpin.png</href>
			</Icon>
			<hotSpot x="20" y="2" xunits="pixels" yunits="pixels"/>
		</IconStyle>
		<BalloonStyle>
		</BalloonStyle>
		<LineStyle>
			<width>0.6</width>
		</LineStyle>
		<PolyStyle>
			<color>ffffae6f</color>
		</PolyStyle>
	</Style>
	<Style id="sn_ylw-pushpin">
		<IconStyle>
			<scale>1.1</scale>
			<Icon>
				<href>http://maps.google.com/mapfiles/kml/pushpin/ylw-pushpin.png</href>
			</Icon>
			<hotSpot x="20" y="2" xunits="pixels" yunits="pixels"/>
		</IconStyle>
		<BalloonStyle>
		</BalloonStyle>
		<LineStyle>
			<width>0.6</width>
		</LineStyle>
		<PolyStyle>
			<color>ffffae6f</color>
		</PolyStyle>
	</Style>
	<Placemark>
		<name>Kabale_Katuna</name>
		<styleUrl>#msn_ylw-pushpin</styleUrl>
		<Polygon>
			<tessellate>1</tessellate>
			<outerBoundaryIs>
				<LinearRing>
					<coordinates>
						30.0010879487791,-1.281158171077384,0 30.00107810510802,-1.280432027164057,0 30.00120741348133,-1.279559485384086,0 30.00133962762021,-1.278836048305837,0 30.00161631328459,-1.27814015519191,0 30.00175470516868,-1.277451348748597,0 30.00188954701481,-1.276608751910241,0 30.00159775003355,-1.27586843475364,0 30.00116587674094,-1.275541749382225,0 30.00073275061276,-1.275080665126337,0 30.00029881463721,-1.27448910141534,0 30.00000763900209,-1.273906067306964,0 29.99957362342735,-1.273454965679967,0 29.99927677322545,-1.272707914278649,0 29.99912210003417,-1.272095080148675,0 29.9991080255926,-1.271333696818012,0 29.99924140001736,-1.270734711549499,0 29.99922777772897,-1.269971596406971,0 29.99935842338052,-1.269210785787324,0 29.99948795360645,-1.268437775141532,0 29.99947311993985,-1.26779252577686,0 29.99931392189357,-1.267139836839957,0 29.99915075654393,-1.266325946815479,0 29.99884678689512,-1.265677110728078,0 29.9988297205341,-1.264876739285512,0 29.99881509625303,-1.264091437341895,0 29.99894633349055,-1.263308376644351,0 29.99922773668124,-1.262690203780233,0 29.99892564494431,-1.262063656804051,0 29.99833586403872,-1.261744531917115,0 29.99775188905341,-1.26174261419387,0 29.99701964779452,-1.261588231320637,0 29.99658256924465,-1.261596441557252,0 29.99585184056135,-1.261455579854844,0 29.99511759983811,-1.261295818294737,0 29.9945290257249,-1.261136339845621,0 29.99378945977574,-1.260818288196448,0 29.99319126182842,-1.260343708242648,0 29.99259866813349,-1.260037753879244,0 29.99214611421375,-1.259565538753267,0 29.99139849488041,-1.259090056782292,0 29.99064949624194,-1.258613687060826,0 29.99020355021307,-1.258453856634712,0 29.98946320839382,-1.258292623184167,0 29.98872797065901,-1.258289422234519,0 29.98799310501893,-1.258285778728474,0 29.9871115487124,-1.258286775823904,0 29.98608394026324,-1.258287849341553,0 29.98549663914536,-1.25828965060015,0 29.98490924376165,-1.25829003495104,0 29.98417499442498,-1.258290530309365,0 29.98361139523754,-1.258772623770365,0 29.98303998833583,-1.259091634622791,0 29.98246164762612,-1.259251935470233,0 29.98172990665938,-1.259254651304153,0 29.9810075954221,-1.259419582541992,0 29.98028577267007,-1.259584326375463,0 29.97940986271011,-1.259591823867569,0 29.97911841230344,-1.259595223679185,0 29.9782517694944,-1.259761526893474,0 29.97753030224862,-1.259922732502963,0 29.9769554470887,-1.260083367611611,0 29.97638217826107,-1.260246734741097,0 29.97581073393785,-1.260412943310455,0 29.97525998988381,-1.260895549120036,0 29.9748442719983,-1.261215016692256,0 29.97429426532549,-1.261692659498515,0 29.97406128252392,-1.262353778473291,0 29.97384712816463,-1.263051927052608,0 29.97378401716197,-1.263758126088373,0 29.97391648978426,-1.264826625121074,0 29.9745200801405,-1.265282982149904,0 29.97527974508029,-1.265763440064738,0 29.9758837953376,-1.266089140030093,0 29.97633772203383,-1.266403156062545,0 29.97692859214977,-1.266703790940686,0 29.97764799129488,-1.266972998078648,0 29.97822876177963,-1.267253649480194,0 29.97896201298594,-1.267687841243265,0 29.97968406473431,-1.267964619812283,0 29.98014006909227,-1.268423146175488,0 29.98072266108386,-1.268710531996334,0 29.98144924939645,-1.269134252037392,0 29.98203057816406,-1.269420496942799,0 29.98262817580974,-1.269879020399574,0 29.98307203791699,-1.270182026177895,0 29.98365420412817,-1.27047355743096,0 29.98408563564676,-1.270612971391383,0 29.98494458146525,-1.270881383699316,0 29.98551835887586,-1.271152380249057,0 29.98609270369822,-1.271426120054989,0 29.98665732226032,-1.271404477273165,0 29.98737208295282,-1.271536602332669,0 29.98782271346756,-1.272133199311253,0 29.98784186806635,-1.272588717915365,0 29.9878737200285,-1.27334601083266,0 29.98790215305481,-1.274221486956376,0 29.98792130549698,-1.27480870493881,0 29.98835024283501,-1.274947896432492,0 29.98906520771407,-1.275091384930064,0 29.98963860765328,-1.275239313711315,0 29.99008135291751,-1.27568818233874,0 29.99038079190194,-1.276134601745463,0 29.99039645848677,-1.276580075080402,0 29.99070535245211,-1.277320404043222,0 29.99086707297155,-1.277911197948398,0 29.9911743162825,-1.278646307381087,0 29.99120855527221,-1.279413001778533,0 29.99153696151027,-1.280345448228321,0 29.99171293442199,-1.28111039119383,0 29.99228329491189,-1.281272596705399,0 29.99299069567538,-1.281560704959759,0 29.99355320891245,-1.281829055036506,0 29.99410478920814,-1.282060259514498,0 29.99466096135274,-1.28230654750437,0 29.99537389249167,-1.282877875634129,0 29.99622463373756,-1.283446161042363,0 29.99664938470016,-1.283729881780051,0 29.99721614453514,-1.28415586534651,0 29.99764013928182,-1.284440135504462,0 29.99820883151078,-1.285011907841102,0 29.99877536704131,-1.285446665807024,0 29.99892782663794,-1.286162386608716,0 29.99851769860275,-1.286583633592632,0 29.99811249610941,-1.287153401923837,0 29.99812108859671,-1.287579733541475,0 29.99813535708446,-1.288288593347294,0 29.99828496675741,-1.288853852415678,0 29.99843158039804,-1.2892775379159,0 29.99858335919203,-1.289981809295572,0 29.99873202943005,-1.290543799344912,0 29.99902025256803,-1.291243817527026,0 29.99944265287938,-1.291802092781606,0 29.99999693724059,-1.292081433877676,0 30.00068578533381,-1.292221791374975,0 30.00123880688828,-1.292500618746999,0 30.00179116272643,-1.29277911756869,0 30.00247688464414,-1.292780457439414,0 30.00302542179952,-1.29278152253977,0 30.00384838742059,-1.292785740029789,0 30.00425709769779,-1.292376094943731,0 30.00439071470885,-1.291694799031925,0 30.00425126921865,-1.291160457009397,0 30.00410998343104,-1.290488235464425,0 30.0039687088323,-1.289798792824775,0 30.00369161466587,-1.289140944009559,0 30.00341127041366,-1.288327358001508,0 30.00313170804503,-1.288034772734409,0 30.00256680076821,-1.287150546915694,0 30.00228039877474,-1.286558127669523,0 30.00199439581379,-1.285972983325334,0 30.00198515830447,-1.285125451942228,0 30.00197776919501,-1.284548504861257,0 30.00196849100248,-1.283825276983748,0 30.00210180316263,-1.283255156172325,0 30.00209269382938,-1.28252796382084,0 30.00180110388067,-1.281777549230021,0 30.00179918395449,-1.281631319569172,0 30.0010879487791,-1.281158171077384,0 
					</coordinates>
				</LinearRing>
			</outerBoundaryIs>
		</Polygon>
		<atom:link rel="app" href="https://www.google.com/earth/about/versions/#earth-pro" title="Google Earth Pro 7.3.6.10201"></atom:link>
	</Placemark>
</Document>
</kml>
