<?xml version="1.0" encoding="UTF-8"?>
<kml xmlns="http://www.opengis.net/kml/2.2" xmlns:gx="http://www.google.com/kml/ext/2.2" xmlns:kml="http://www.opengis.net/kml/2.2" xmlns:atom="http://www.w3.org/2005/Atom">
<Document>
	<name>Kabale_Bukora.kml</name>
	<StyleMap id="msn_ylw-pushpin">
		<Pair>
			<key>normal</key>
			<styleUrl>#sn_ylw-pushpin</styleUrl>
		</Pair>
		<Pair>
			<key>highlight</key>
			<styleUrl>#sh_ylw-pushpin</styleUrl>
		</Pair>
	</StyleMap>
	<Style id="sh_ylw-pushpin">
		<IconStyle>
			<scale>1.3</scale>
			<Icon>
				<href>http://maps.google.com/mapfiles/kml/pushpin/ylw-pushpin.png</href>
			</Icon>
			<hotSpot x="20" y="2" xunits="pixels" yunits="pixels"/>
		</IconStyle>
		<BalloonStyle>
		</BalloonStyle>
		<LineStyle>
			<width>0.6</width>
		</LineStyle>
		<PolyStyle>
			<color>ffffae6f</color>
		</PolyStyle>
	</Style>
	<Style id="sn_ylw-pushpin">
		<IconStyle>
			<scale>1.1</scale>
			<Icon>
				<href>http://maps.google.com/mapfiles/kml/pushpin/ylw-pushpin.png</href>
			</Icon>
			<hotSpot x="20" y="2" xunits="pixels" yunits="pixels"/>
		</IconStyle>
		<BalloonStyle>
		</BalloonStyle>
		<LineStyle>
			<width>0.6</width>
		</LineStyle>
		<PolyStyle>
			<color>ffffae6f</color>
		</PolyStyle>
	</Style>
	<Placemark>
		<name>Kabale_Bukora</name>
		<styleUrl>#msn_ylw-pushpin</styleUrl>
		<Polygon>
			<tessellate>1</tessellate>
			<outerBoundaryIs>
				<LinearRing>
					<coordinates>
						29.95582771095052,-1.307419435827722,0 29.95579897157136,-1.307404118192844,0 29.95565461467191,-1.307333908706198,0 29.95553413712131,-1.307445439302732,0 29.95544076331081,-1.307596503002413,0 29.95536821731242,-1.307800500131096,0 29.95521029591296,-1.307969379362588,0 29.95509070795255,-1.308105583643997,0 29.95499219971924,-1.308293721971679,0 29.954959355035,-1.30846059667231,0 29.95487028374372,-1.308604399941985,0 29.95476166750436,-1.308695206864453,0 29.95464511189394,-1.308837868687551,0 29.95458466305092,-1.309011393815352,0 29.95463552920675,-1.309232751427816,0 29.95470269569277,-1.309353660508043,0 29.95475410455415,-1.309552144822744,0 29.95487635368355,-1.309687289737471,0 29.95497873751657,-1.30977030263249,0 29.95509939195598,-1.309915841719437,0 29.95521844151653,-1.310074020515585,0 29.95533491865864,-1.310254557161723,0 29.95547307274689,-1.310294321261529,0 29.95559476631398,-1.310408919658452,0 29.95574802047414,-1.310534503499279,0 29.95585602179792,-1.310727444666891,0 29.95595845423802,-1.310789284987137,0 29.95605878900505,-1.310868720001152,0 29.95615818147716,-1.310954678807795,0 29.95625705097843,-1.311043138227955,0 29.95638122540709,-1.311154636412779,0 29.95651558090474,-1.311218020467078,0 29.95664987339572,-1.311281377367596,0 29.95675725986022,-1.311332041860282,0 29.95691284323896,-1.311304330014662,0 29.95707324118377,-1.311386074328558,0 29.95724467626192,-1.311421681429507,0 29.95733614031479,-1.31141644125801,0 29.95749650578909,-1.311498219224133,0 29.95758824052342,-1.311493044449614,0 29.9577068880606,-1.311501509806775,0 29.95785248914155,-1.311523642592452,0 29.95799807254774,-1.311547068838261,0 29.95814251987674,-1.311577318369322,0 29.95826068514063,-1.311592200698595,0 29.95839099283391,-1.311563882351266,0 29.95858531478871,-1.311530363977354,0 29.95867633317998,-1.31153657780727,0 29.9588457305853,-1.311485447386697,0 29.95895041749522,-1.311445389227312,0 29.95910854976488,-1.31132968882155,0 29.95928033695953,-1.311277653202076,0 29.95938812516052,-1.311230387715548,0 29.95953763242444,-1.3111497982638,0 29.95964654183789,-1.311101850865772,0 29.95983450605222,-1.311108211274274,0 29.96005837862255,-1.310997452951357,0 29.96011131789879,-1.31103225373362,0 29.96026157000696,-1.311060409754846,0 29.96041199688996,-1.311088603600361,0 29.96053617492125,-1.311099421552311,0 29.96066054520942,-1.311110254581932,0 29.96078510982043,-1.311121104342279,0 29.96095556619382,-1.31109044224171,0 29.96110715238704,-1.311118797922115,0 29.96120649676956,-1.311110902484194,0 29.96136049576256,-1.311132844049988,0 29.96148772600918,-1.311139198981162,0 29.96166177103549,-1.311104982393802,0 29.96177056338386,-1.311071273740542,0 29.96191742922267,-1.311025385528761,0 29.96198625636763,-1.310833239598145,0 29.96205631861356,-1.310641568637853,0 29.96212500272711,-1.310454247115896,0 29.96219289615551,-1.310269483119942,0 29.96214598101266,-1.310124753227311,0 29.96205591913802,-1.310005769787511,0 29.96196560514774,-1.309886452824568,0 29.9618750375424,-1.309766800461833,0 29.961727661363,-1.309712530643642,0 29.96157964144646,-1.309660630196638,0 29.96146249784282,-1.309711966738315,0 29.96133244476369,-1.309801869335034,0 29.96123431471535,-1.309895284154972,0 29.96118677944671,-1.310031179006315,0 29.96107719997441,-1.310159086920485,0 29.96095256811698,-1.310236557349669,0 29.9608408439256,-1.310277469977957,0 29.96068838098251,-1.310343838488536,0 29.9605742148729,-1.31029686342963,0 29.96043202688352,-1.310236249327344,0 29.96030586180412,-1.310225873919711,0 29.96013924521539,-1.310241452548564,0 29.96005412634733,-1.310205167660359,0 29.95988816797531,-1.310220756950965,0 29.95973461480311,-1.310198367233948,0 29.95960019673402,-1.31021603728923,0 29.95945017261988,-1.310180866523263,0 29.95927769982262,-1.310219483583315,0 29.95914463775814,-1.310235567065177,0 29.95898425416861,-1.310237267660276,0 29.95887946026711,-1.310267629721984,0 29.95873052420293,-1.310232641228806,0 29.95863073295964,-1.310138550410717,0 29.95852711066743,-1.310062197485548,0 29.95839742338006,-1.309962609135049,0 29.95824072410878,-1.309843174949105,0 29.95816693784329,-1.309767471333508,0 29.95803744552902,-1.309662263296141,0 29.95773093405423,-1.309390026978935,0 29.95768546078434,-1.309321119183733,0 29.95760292339097,-1.309153425557102,0 29.95754732045987,-1.309004378692776,0 29.95747278399235,-1.308804583382424,0 29.9574353314814,-1.3087044752559,0 29.95737881887238,-1.308554272125563,0 29.95728373976096,-1.308427423537412,0 29.95722562125027,-1.308283192176863,0 29.95712911880412,-1.308161189201724,0 29.95706979948508,-1.308020507179569,0 29.95696377902855,-1.307931852096938,0 29.95682742107478,-1.307839920651543,0 29.9566535644072,-1.307766469401673,0 29.95651078746751,-1.30768764052945,0 29.95639742885475,-1.307616094111735,0 29.95622649541341,-1.307513761207695,0 29.95611160854671,-1.307452486678537,0 29.95595943501953,-1.30741081399741,0 29.95583605270159,-1.307384477925181,0 29.95582771095052,-1.307419435827722,0 
					</coordinates>
				</LinearRing>
			</outerBoundaryIs>
		</Polygon>
		<atom:link rel="app" href="https://www.google.com/earth/about/versions/#earth-pro" title="Google Earth Pro 7.3.6.10201"></atom:link>
	</Placemark>
</Document>
</kml>
