<?xml version="1.0" encoding="UTF-8"?>
<kml xmlns="http://www.opengis.net/kml/2.2" xmlns:gx="http://www.google.com/kml/ext/2.2" xmlns:kml="http://www.opengis.net/kml/2.2" xmlns:atom="http://www.w3.org/2005/Atom">
<Document>
	<name>Kampala_Katanga.kml</name>
	<StyleMap id="m_ylw-pushpin">
		<Pair>
			<key>normal</key>
			<styleUrl>#s_ylw-pushpin</styleUrl>
		</Pair>
		<Pair>
			<key>highlight</key>
			<styleUrl>#s_ylw-pushpin_hl</styleUrl>
		</Pair>
	</StyleMap>
	<Style id="s_ylw-pushpin">
		<IconStyle>
			<scale>1.1</scale>
			<Icon>
				<href>http://maps.google.com/mapfiles/kml/pushpin/ylw-pushpin.png</href>
			</Icon>
			<hotSpot x="20" y="2" xunits="pixels" yunits="pixels"/>
		</IconStyle>
		<LineStyle>
			<width>0.6</width>
		</LineStyle>
		<PolyStyle>
			<color>ffffae6f</color>
		</PolyStyle>
	</Style>
	<Style id="s_ylw-pushpin_hl">
		<IconStyle>
			<scale>1.3</scale>
			<Icon>
				<href>http://maps.google.com/mapfiles/kml/pushpin/ylw-pushpin.png</href>
			</Icon>
			<hotSpot x="20" y="2" xunits="pixels" yunits="pixels"/>
		</IconStyle>
		<LineStyle>
			<width>0.6</width>
		</LineStyle>
		<PolyStyle>
			<color>ffffae6f</color>
		</PolyStyle>
	</Style>
	<Placemark>
		<name>Katanga</name>
		<styleUrl>#m_ylw-pushpin</styleUrl>
		<Polygon>
			<tessellate>1</tessellate>
			<outerBoundaryIs>
				<LinearRing>
					<coordinates>
						32.57249826081734,0.339796415603834,0 32.57247579978443,0.3397856940220648,0 32.57240853587291,0.3397755149765552,0 32.57238623481975,0.3397645901644926,0 32.57233064829872,0.3397425866503533,0 32.57226427055313,0.3397424089097971,0 32.57219795073416,0.3397310834093095,0 32.57215356443876,0.3397200236178648,0 32.57212079292248,0.3396751397067245,0 32.5720878868628,0.339619322307046,0 32.57206590990281,0.3395747927517713,0 32.57204372728766,0.3395304245799495,0 32.57204387476626,0.3394637626047751,0 32.57204399790148,0.3394082133734477,0 32.57206637906206,0.339363637501507,0 32.5720888807255,0.3393300369949522,0 32.57213374900213,0.3392851913997447,0 32.57215607530394,0.3392406967065037,0 32.57217884472079,0.3391957430930941,0 32.57221282207004,0.3391395875872136,0 32.57224663592007,0.3391057601324481,0 32.57228059110427,0.3390496357715991,0 32.57229195997515,0.3389939590702767,0 32.57228093980284,0.338960682999565,0 32.57225881655127,0.3389163634637589,0 32.57222558863023,0.3388610019475944,0 32.57220346542316,0.3388166823595719,0 32.57219249054891,0.338772295744694,0 32.57218156026476,0.3387167967098828,0 32.57218173366537,0.338672345414148,0 32.57218199527492,0.3386056758968694,0 32.57219331510964,0.3385611666699395,0 32.57220467822934,0.3385055542737018,0 32.5722271399308,0.3384609888783332,0 32.57224964793166,0.3384053219743874,0 32.57226100883091,0.3383497269211059,0 32.57228348386818,0.3382941070742359,0 32.57231704818256,0.338238467394392,0 32.57233944430708,0.3381939826342618,0 32.57236182368087,0.3381495247649943,0 32.57238411935882,0.3381051272251039,0 32.57241752206322,0.3380717516034905,0 32.57243986253985,0.3380383855553776,0 32.57248450821857,0.3379827505214237,0 32.5724957496509,0.3379383580396294,0 32.57252923354742,0.3378938725611502,0 32.5725516427691,0.337827282802423,0 32.572584929262,0.3377718855328648,0 32.57261875350469,0.3376939697630849,0 32.57264120457002,0.3376605395034381,0 32.57267448649294,0.3376162324810978,0 32.57269666147936,0.3375830163443124,0 32.57274095929558,0.3375608494543708,0 32.57278525579119,0.3375386838151822,0 32.5728516736995,0.3375275669013532,0 32.57292915612725,0.3375164418282534,0 32.57294023527198,0.3375053687305117,0 32.57301771244945,0.3374942448033066,0 32.57307304397773,0.3374942026535474,0 32.57310631739613,0.3374941161992923,0 32.57315067535981,0.3374718940755339,0 32.57320609628892,0.3374275419414205,0 32.57326159959347,0.3373942059792535,0 32.57331678865371,0.337361103291298,0 32.57336055773489,0.3373283132139175,0 32.57338234841315,0.3372954119171211,0 32.57341514124148,0.3372625539869444,0 32.57345887626747,0.3372187322810259,0 32.57348062194457,0.3371747993023228,0 32.57351337487371,0.3371309037507395,0 32.57353513221706,0.3370869490453455,0 32.57355702525119,0.3370539460943471,0 32.57358982247239,0.3369878704593097,0 32.57360075684665,0.3369658416347805,0 32.57361161236577,0.3369217382097967,0 32.5736444633094,0.3368666679597898,0 32.57368845787727,0.3368447439492707,0 32.57373246010184,0.3368228157190454,0 32.57378753096888,0.3368119639744358,0 32.57384255309919,0.3367900823284837,0 32.57388649178365,0.3367792905156047,0 32.57393041110814,0.3367574430180767,0 32.57395236345912,0.3367022155909724,0 32.57399652022654,0.3366358732616449,0 32.57400756230174,0.3366026690236499,0 32.57404068465621,0.3365473652808016,0 32.57404073981657,0.3365030138505778,0 32.57405207709926,0.3364474327485245,0 32.57408539775967,0.3363809098750473,0 32.57410772666987,0.3363143361360116,0 32.57413018899889,0.336247680714358,0 32.57416420978314,0.336191805032905,0 32.57418640978424,0.3361696267127366,0 32.57424228218886,0.3361471480222506,0 32.5742753171109,0.3361251221397853,0 32.57433041429424,0.336092075012184,0 32.5743743979742,0.3360479853905343,0 32.57440754065055,0.3360037443460752,0 32.57441874982162,0.3359593736398878,0 32.57440794789466,0.3359149342577346,0 32.5744087236903,0.3358480887031368,0 32.57440823515331,0.3357708754022729,0 32.57440820431608,0.3357155520564534,0 32.57440816781488,0.3356491612378581,0 32.57439694941651,0.3355938846927637,0 32.57438606175999,0.3355384671959574,0 32.57438633032774,0.3354719530146135,0 32.57438618861058,0.3354166690752099,0 32.57437519275693,0.3353723744921614,0 32.57436447762201,0.3353169272482698,0 32.57436480687652,0.3352615123776452,0 32.57435390468623,0.3352061403147104,0 32.57435409387297,0.3351507789792445,0 32.57435430139102,0.3350954237230934,0 32.57435405966918,0.3350401634587867,0 32.57435405191507,0.3349959149386921,0 32.57434304225887,0.3349295328985115,0 32.57433202689656,0.3348631545702133,0 32.57432098898136,0.3348078422726163,0 32.5743099395192,0.3347414695590751,0 32.57427703873618,0.3346861503073523,0 32.57425531864999,0.3346197845593668,0 32.57424458624089,0.334553439769791,0 32.57423377442383,0.3345092211213249,0 32.57423405657391,0.3344539576682427,0 32.57423431588962,0.3343876524063043,0 32.57423488545554,0.33433244998652,0 32.57424652197005,0.3342772748930373,0 32.5742690654052,0.3342221063582238,0 32.57430265666546,0.3341559165373105,0 32.57432466382831,0.3341117234704494,0 32.57436834081783,0.3340563802149378,0 32.57442358073466,0.3340121953208009,0 32.57446793246555,0.3339790999626689,0 32.5745230995616,0.3339348944289746,0 32.57456717425008,0.3339127675072223,0 32.57458922795044,0.3338906597497408,0 32.57462231780036,0.3338354048458138,0 32.5746331564209,0.3337911319643539,0 32.57464413207613,0.3337248088755007,0 32.57464421913718,0.3336806519484256,0 32.57464448018481,0.3336255340768358,0 32.57464531251869,0.3335707304378701,0 32.57464614267182,0.3335159710855429,0 32.57465772906568,0.3334390340005596,0 32.574657754127,0.3334280179734709,0 32.57466838753906,0.3333725950966535,0 32.57466819596974,0.3333172798482776,0 32.57467956476617,0.3332623172551841,0 32.57470175696665,0.3332182595749397,0 32.57475687403226,0.3331630373696928,0 32.57477899101904,0.3331410013794089,0 32.57481216415687,0.3331079491137439,0 32.57485657646449,0.3330750749589181,0 32.57490114654566,0.3330533972497175,0 32.57495686703136,0.3330208383265962,0 32.5749792042445,0.3329990586325007,0 32.57502371049109,0.3329774170690797,0 32.57507950002848,0.3329230360885677,0 32.57509096098082,0.3328794608357411,0 32.57511351250671,0.3328360089709272,0 32.57512513090967,0.3327706817750103,0 32.57514765405428,0.3327272997325394,0 32.57515916563017,0.332672951385768,0 32.57517066865099,0.3326186402679051,0 32.57518216393995,0.3325643663791087,0 32.57516065519545,0.3325100789009783,0 32.57516104076474,0.3324666958062111,0 32.57515012587621,0.3324118747313997,0 32.57513919190104,0.3323460524944999,0 32.57511762894602,0.3323027178860302,0 32.57509604542116,0.3322593809808659,0 32.57507434874424,0.3322048742797849,0 32.57506364335616,0.3321504149609108,0 32.57509706337751,0.3320963521473643,0 32.57510821956041,0.3320747176817001,0 32.57516353076834,0.3320426135987051,0 32.57522964567551,0.332043191329737,0 32.57535065047223,0.3320220749953963,0 32.5753726306179,0.3320221969112425,0 32.57542745512357,0.3320660877778473,0 32.57544931478562,0.3321097999918248,0 32.5754712049905,0.3321426163511446,0 32.5755370380553,0.3321427736846244,0 32.57558076932573,0.3321425203150155,0 32.57564640347606,0.3321531538480982,0 32.57569028533053,0.3321532331225516,0 32.57572307516855,0.3321858636481446,0 32.5757558335522,0.3322293626129469,0 32.57578881391409,0.3322405779543353,0 32.5758328405287,0.3322301463494619,0 32.57587684655892,0.3322305997516493,0 32.57593177302637,0.3322419999948674,0 32.57597571831596,0.3322752843623661,0 32.57604150187179,0.3322974396209875,0 32.57608530150462,0.3323192719667764,0 32.57615099329921,0.3323410522788027,0 32.57619476994196,0.3323627535606637,0 32.57624951905712,0.3323953716332222,0 32.57629334963281,0.3324063231224956,0 32.57632617517179,0.3324389222728132,0 32.57635900533964,0.3324824368464753,0 32.57639186615709,0.3325480157995464,0 32.57640282131121,0.3325808509551677,0 32.5764027902112,0.3326353982458112,0 32.57640276574254,0.3326900142123775,0 32.57641371860606,0.3327447319877396,0 32.57645758826114,0.3327887086553629,0 32.57651243324574,0.3328219511295257,0 32.57654532882746,0.3328440724635946,0 32.57660013604028,0.3328770632981116,0 32.57663301488999,0.3328986837181692,0 32.57668783222508,0.3329093727120322,0 32.57673169348197,0.3329311640404866,0 32.57675363823452,0.3329638225869197,0 32.57674269466933,0.3330292099400134,0 32.57675370008577,0.3331055542473127,0 32.57675371645889,0.3331711911286739,0 32.57675372698541,0.333236913632051,0 32.57675373386303,0.3332807136845414,0 32.57674276829201,0.3333354764611445,0 32.57674277944531,0.3333902317416871,0 32.57675376948625,0.3334449813779704,0 32.57677574199103,0.3334887705969965,0 32.57677575224828,0.3335545695124915,0 32.57677574306918,0.3335985573084386,0 32.5767647538343,0.3336535303437088,0 32.57673181572738,0.3336865046044239,0 32.57670984584109,0.3337305102148344,0 32.57667691118512,0.3337744508898333,0 32.57665496418186,0.3338182350925923,0 32.57662202461896,0.3338619807795438,0 32.57658907328199,0.3339058047871379,0 32.5765671022322,0.3339606689739039,0 32.57651216921672,0.334015513746753,0 32.57650116206635,0.3340703566256636,0 32.57647917068697,0.3341032566888497,0 32.57644618072623,0.3341361552973324,0 32.57641318160324,0.3341690631849676,0 32.57636918984432,0.3342129853404784,0 32.57633620106325,0.3342459464917272,0 32.57630320107587,0.3343008879886701,0 32.57628119477021,0.334344845631842,0 32.57625915424876,0.3343887891383996,0 32.57625915998653,0.3344547634638648,0 32.57625913886427,0.3345207283436444,0 32.57625912455915,0.3345647101764584,0 32.57623709690038,0.3346306886411536,0 32.57622606966157,0.3346966780596391,0 32.57621505305551,0.3347296767777981,0 32.57619304148772,0.3347626773235318,0 32.57616003178634,0.3348066790904769,0 32.57614903100828,0.3348396762926611,0 32.57610500698385,0.3348946862382075,0 32.57607197517376,0.3349497031260761,0 32.57607198095558,0.3349937000683433,0 32.57604996278165,0.3350377127359701,0 32.57601693495945,0.3350817348826436,0 32.57597283148591,0.3351368181250964,0 32.57595076272727,0.3351808816174014,0 32.57592869466077,0.3352139442853916,0 32.57589565096213,0.3352689988893204,0 32.5758848391307,0.3352908302570966,0 32.57584098249048,0.3353456959867744,0 32.57581884663635,0.3353898259407684,0 32.57578564632483,0.3354450300810555,0 32.57576348321149,0.3354892049393872,0 32.57571920606809,0.3355224712884405,0 32.57569713953991,0.3355665579315244,0 32.57568615542365,0.3355995598601479,0 32.57568638378901,0.3356653624371749,0 32.57567548032745,0.3357202764305386,0 32.57565344494824,0.3357643265872421,0 32.57564256722844,0.3357971914507588,0 32.57560959597082,0.3358521608693966,0 32.57560963619108,0.3358851233939742,0 32.57557665553021,0.3359290988771629,0 32.5755546884854,0.3359730611927984,0 32.57552158457189,0.336028196472573,0 32.57548846730284,0.3360833509137571,0 32.57544430030266,0.3361385644428748,0 32.57541116910548,0.3361937408530239,0 32.57536696389459,0.3362490078822924,0 32.57533387395794,0.3362931284615796,0 32.57532287746824,0.3363371478234332,0 32.57527816197771,0.3363710503575686,0 32.57524459275185,0.336415791027644,0 32.57520038515526,0.3364490289465996,0 32.57516713598169,0.3364823186503289,0 32.57513399786538,0.3365154529074883,0 32.57509020851865,0.3365812224369409,0 32.57507977568018,0.3366355549815908,0 32.57504694007602,0.3366793420055452,0 32.57503647458023,0.3367336801416032,0 32.57502578075898,0.3367883000841623,0 32.57502585914454,0.3368322243306839,0 32.57501490827535,0.3368871792288721,0 32.57500383307689,0.3369313050059137,0 32.57499275557805,0.3369864463469753,0 32.5749594676726,0.3370198490020904,0 32.57492610632162,0.337064364009355,0 32.57488160784457,0.3371090545226081,0 32.5748487553897,0.3371418207612699,0 32.57480507392653,0.3371853481105337,0 32.5747723941406,0.3372288951044435,0 32.57475060616913,0.3373056327427347,0 32.57475058999722,0.3373496961632255,0 32.57475045273642,0.3374049352880428,0 32.57472829349638,0.3374491803715806,0 32.57469510464345,0.3375044618019864,0 32.57466197639074,0.3375596578361524,0 32.57462884041345,0.3376148530148801,0 32.57458466221741,0.3376811182198273,0 32.57456246419569,0.3377364736751633,0 32.57451829495432,0.3377807016484247,0 32.57448516403234,0.3378138752603278,0 32.57444084503766,0.3378363247548021,0 32.57439628076905,0.3378589698162523,0 32.57436310902102,0.33789225110983,0 32.57430786018004,0.3379365468813145,0 32.57426362712248,0.3379588052545716,0 32.57419726541753,0.3379921980265497,0 32.57416406770827,0.338003403721435,0 32.57411984904268,0.3380366589495748,0 32.57407575943729,0.338080746676703,0 32.57404269159455,0.3381138132009702,0 32.57399823600358,0.3381363503802233,0 32.57395370662164,0.3381589713507805,0 32.57392047612638,0.3382032763851385,0 32.57392061148623,0.3382472011415382,0 32.57393197447861,0.3382908450545464,0 32.57393227411301,0.3383565752411996,0 32.57393242387046,0.3383894344465069,0 32.5739438821782,0.3384549479533517,0 32.57394338434644,0.3385218100542318,0 32.57394314402466,0.3385662306870684,0 32.57394300485499,0.3386215587563532,0 32.57390955144302,0.338677246069483,0 32.57388722572857,0.3387217591436403,0 32.57385372938129,0.3387885453040853,0 32.57382028051198,0.3388332033811956,0 32.57378685240374,0.3388667962833202,0 32.57373118403157,0.3389006465376383,0 32.57369773628337,0.3389342574768598,0 32.57366428087938,0.338967875818477,0 32.57360856458791,0.3390017619870827,0 32.57357510282027,0.339035379481228,0 32.57353054728843,0.3390580280116461,0 32.57348596007468,0.3390917532221441,0 32.57345253573223,0.3391032128119416,0 32.57338562918545,0.3391482866931886,0 32.57335216680274,0.3391708309317929,0 32.57330754791038,0.3392045921626561,0 32.57324053694862,0.3392608222751125,0 32.57319583989575,0.339294595101205,0 32.57315121468308,0.3393172631693673,0 32.57309540767312,0.3393511461901452,0 32.57303954877092,0.3394072233167201,0 32.57300604964639,0.3394187165411153,0 32.57292741310269,0.3394756391754477,0 32.57288232204338,0.3395099274733279,0 32.57282591391909,0.3395555974413449,0 32.57275816741071,0.3396126665988718,0 32.57270175532543,0.3396472343289167,0 32.57264524367443,0.3396929849604032,0 32.57260002480486,0.3397273708167943,0 32.57255471550582,0.3397729434809376,0 32.57249826081734,0.339796415603834,0 
					</coordinates>
				</LinearRing>
			</outerBoundaryIs>
		</Polygon>
		<atom:link rel="app" href="https://www.google.com/earth/about/versions/#earth-pro" title="Google Earth Pro 7.3.6.10201"></atom:link>
	</Placemark>
</Document>
</kml>
