<?xml version="1.0" encoding="UTF-8"?>
<kml xmlns="http://www.opengis.net/kml/2.2" xmlns:gx="http://www.google.com/kml/ext/2.2" xmlns:kml="http://www.opengis.net/kml/2.2" xmlns:atom="http://www.w3.org/2005/Atom">
<Document>
	<name>Kampala_Nalukolongo.kml</name>
	<StyleMap id="m_ylw-pushpin">
		<Pair>
			<key>normal</key>
			<styleUrl>#s_ylw-pushpin</styleUrl>
		</Pair>
		<Pair>
			<key>highlight</key>
			<styleUrl>#s_ylw-pushpin_hl</styleUrl>
		</Pair>
	</StyleMap>
	<Style id="s_ylw-pushpin">
		<IconStyle>
			<scale>1.1</scale>
			<Icon>
				<href>http://maps.google.com/mapfiles/kml/pushpin/ylw-pushpin.png</href>
			</Icon>
			<hotSpot x="20" y="2" xunits="pixels" yunits="pixels"/>
		</IconStyle>
		<LineStyle>
			<width>0.6</width>
		</LineStyle>
		<PolyStyle>
			<color>ffffae6f</color>
		</PolyStyle>
	</Style>
	<Style id="s_ylw-pushpin_hl">
		<IconStyle>
			<scale>1.3</scale>
			<Icon>
				<href>http://maps.google.com/mapfiles/kml/pushpin/ylw-pushpin.png</href>
			</Icon>
			<hotSpot x="20" y="2" xunits="pixels" yunits="pixels"/>
		</IconStyle>
		<LineStyle>
			<width>0.6</width>
		</LineStyle>
		<PolyStyle>
			<color>ffffae6f</color>
		</PolyStyle>
	</Style>
	<Placemark>
		<name>Nalukolongo</name>
		<styleUrl>#m_ylw-pushpin</styleUrl>
		<Polygon>
			<tessellate>1</tessellate>
			<outerBoundaryIs>
				<LinearRing>
					<coordinates>
						32.54344011695081,0.2925221896085171,0 32.5434364270502,0.2926726412071629,0 32.54364919676399,0.2928982633647045,0 32.54393847461239,0.2929732936580764,0 32.54415153034169,0.2931991246620773,0 32.54429017244355,0.2935006399155063,0 32.54442757519374,0.2938765064605695,0 32.54464294937232,0.2941716723962582,0 32.54485753795666,0.2944686573852298,0 32.5449984832917,0.2947674194329396,0 32.54521465311576,0.2949893703693079,0 32.54543090549976,0.295211397008218,0 32.54579152493857,0.2955816497360185,0 32.54593440085263,0.2958054741912802,0 32.54615096397385,0.2960278374692221,0 32.54629260489342,0.2963276316770855,0 32.54643451122503,0.2966270960047415,0 32.54650213621885,0.2970024961947085,0 32.54649593422541,0.2973811167544855,0 32.54634225293606,0.2977625075251171,0 32.54604274954563,0.298070075596608,0 32.54574275263931,0.2983781695705063,0 32.54537106392065,0.2986098807035363,0 32.54515023689658,0.2986842668498863,0 32.54500058517329,0.2989096984710789,0 32.54463158285151,0.299060741771866,0 32.54418789653649,0.2992872941348982,0 32.54403730751389,0.2994417005292809,0 32.5437388565152,0.2995985372169226,0 32.54336609925902,0.2997570830968261,0 32.54262093838131,0.2999265891220831,0 32.54254378188552,0.3000073476514634,0 32.54216685791956,0.300100452782861,0 32.54171726673134,0.3001183398834653,0 32.54141901671959,0.3001263236208149,0 32.54098009811603,0.3000485626964617,0 32.54090657039608,0.300048479753933,0 32.54031862307965,0.3000462909053341,0 32.54002562942937,0.3000449775770147,0 32.53943827818738,0.3000431675489547,0 32.53929076696645,0.3000433624102505,0 32.53870774006774,0.300033515397639,0 32.53834360972938,0.300027660623795,0 32.53790452868138,0.3000241589084134,0 32.53739237518493,0.3000200816223349,0 32.53680720437336,0.300015414801181,0 32.53615047362992,0.300007640013957,0 32.53578158477973,0.3000826244982062,0 32.53533441465646,0.3001647008010841,0 32.53511046451595,0.3002426304582118,0 32.53466400118226,0.3003232098279895,0 32.53436568125277,0.3004020177418025,0 32.53406899492852,0.300405633442251,0 32.53362003519463,0.3005618957555554,0 32.53309659923191,0.3007190261865646,0 32.53294815991416,0.3007207484764685,0 32.53249731369658,0.3009516728712721,0 32.53212119276342,0.3011080452858845,0 32.53173993766784,0.3013440082678366,0 32.53150788304823,0.3015037786734728,0 32.53111680154279,0.301752826389271,0 32.53081024120463,0.3019878960538693,0 32.53050033677773,0.3022252349955551,0 32.53019683407976,0.3024548591067213,0 32.52996992048025,0.3026078172436463,0 32.52959603011348,0.3027596518454637,0 32.52936554308286,0.3029901667336009,0 32.52913832341608,0.3031433272966367,0 32.52883752956868,0.303296223565284,0 32.52853996930538,0.3033715395708179,0 32.52824958033982,0.3032915843485161,0 32.52788561142184,0.3032110060939229,0 32.52760039595162,0.3030520969297925,0 32.52731689264795,0.3028187203869117,0 32.52702685842295,0.3026661156255436,0 32.52674060614724,0.3024375810259015,0 32.5264508225129,0.3022845411410482,0 32.5260891172433,0.3020565518708635,0 32.52587231991815,0.3019054857172198,0 32.52543771029988,0.3016782564969896,0 32.52492330403825,0.3014569544236423,0 32.52485220718646,0.3013808456963687,0 32.52450571307244,0.3009929020665163,0 32.52428886731671,0.3009154751761985,0 32.52407562588876,0.3007616511063076,0 32.52416914169113,0.3003772147543239,0 32.52425860299668,0.3000699780159627,0 32.52427832329106,0.2996863676637029,0 32.52415126917143,0.299302877620767,0 32.52386579389283,0.2991490579132486,0 32.52351575816999,0.2988415932041334,0 32.52322620639137,0.298764836753131,0 32.52302363268722,0.2984577167299657,0 32.52289467416472,0.2981508823314126,0 32.52277464085994,0.2976914009322187,0 32.52271457710334,0.2974620275683739,0 32.52258562180653,0.2971565418964258,0 32.52260353829435,0.2968511239268303,0 32.52269463081178,0.2965459666414071,0 32.52279035136085,0.2961648189585422,0 32.52288588744928,0.2957841570812076,0 32.52297243088185,0.2955559530727687,0 32.52314973227224,0.2950241883444201,0 32.52324046124191,0.29472076059347,0 32.52333152150093,0.2944173075519325,0 32.52350401870497,0.2939629987597804,0 32.52365872297047,0.2938116716733139,0 32.52395941469479,0.293660063698353,0 32.52419128530066,0.2934331512875142,0 32.52449308549689,0.2932806154303859,0 32.52479531830985,0.2931275970683923,0 32.52517407121291,0.2929714581723568,0 32.52556330619694,0.2927339614156487,0 32.52594864811145,0.2925007738615173,0 32.52641150525665,0.2922623788547054,0 32.52679757527216,0.2920273104766211,0 32.52725936390456,0.2917898320964341,0 32.52756233799047,0.2917069508319585,0 32.52794180799024,0.2915490147324328,0 32.5283207558385,0.2913911680870053,0 32.52863375552131,0.2911557910611219,0 32.52908361754958,0.2909988977915519,0 32.52953607531805,0.2907682305049836,0 32.52990633589077,0.2906886111574504,0 32.53035920400978,0.2904568592228411,0 32.53073289239551,0.290302125213142,0 32.53103300073693,0.2901489348512198,0 32.53126387482404,0.2899225177043137,0 32.5314856046206,0.2898459894713744,0 32.53171595661232,0.2896193658325565,0 32.53194104165479,0.2894687382649648,0 32.532174910723,0.2891679588915579,0 32.532412873254,0.2887926200054563,0 32.53259149197156,0.2883355260989934,0 32.53269881967196,0.2879499275523403,0 32.53272256274785,0.2876460992310477,0 32.53275378221822,0.2871952172517614,0 32.5327797409815,0.2868203307558224,0 32.53281081297218,0.2863714723299241,0 32.53282631574806,0.2861474560045953,0 32.53290671448867,0.2859288172631363,0 32.53299605769098,0.2855626149339898,0 32.53317215098703,0.2851140657581333,0 32.53318400088443,0.284964315120308,0 32.53334178772094,0.2846712730156329,0 32.5335058539312,0.2843736606238195,0 32.53380463341848,0.2841519314221713,0 32.53407585386699,0.2839512099053,0 32.53435484502795,0.2838147058641695,0 32.53471403600237,0.2835307786386589,0 32.53499418959866,0.2834634536320019,0 32.53527536551884,0.2833252722177799,0 32.53562069023364,0.2832625954501407,0 32.53590223755462,0.2831240711266817,0 32.53624059772152,0.2832075664164338,0 32.53643351669954,0.2835054271964094,0 32.53663236398818,0.2837285072810378,0 32.53683162697236,0.2839513474201126,0 32.53703145667563,0.284175090657932,0 32.53729784594631,0.2844736082451977,0 32.53757132275121,0.2846255915543983,0 32.53777174792078,0.2848501207172709,0 32.53804871541256,0.2849290692724921,0 32.53832898180829,0.2849344548045043,0 32.53875119818427,0.2849409721829325,0 32.53924698882873,0.2848748118506332,0 32.53960387912455,0.2848049367424499,0 32.54003103539353,0.2847363111983024,0 32.54060424271763,0.2845936265358746,0 32.54088809180972,0.2845960127248301,0 32.54138658202037,0.2843865488172257,0 32.54167163902489,0.2843168972436414,0 32.54195921734664,0.2841738091661017,0 32.54245663088263,0.2841071080066864,0 32.54281251366211,0.2840385970319667,0 32.5430250352782,0.2840411875979437,0 32.5433793712778,0.284045512188183,0 32.54366230681498,0.2840497891437187,0 32.54394271902034,0.2841283159034537,0 32.54429653389109,0.284275699654128,0 32.54457716079623,0.2845671966819891,0 32.54493458922293,0.2846393593416383,0 32.54507508465124,0.2847852280536266,0 32.54535767710311,0.2849332962190182,0 32.54571640353659,0.284933045918376,0 32.54600348748193,0.2849327128232431,0 32.54636256149893,0.284931791188361,0 32.54686418993288,0.2848616453066217,0 32.54715023239829,0.2848630607570587,0 32.54750753791993,0.2848651757727538,0 32.54779647957724,0.284790821789025,0 32.54822886377013,0.2847158903457433,0 32.54866010901777,0.2846426611096395,0 32.54894738315785,0.2845707397922399,0 32.54923545342352,0.2844970686944645,0 32.5496659427796,0.2844960749184251,0 32.5499529121456,0.2844954094764753,0 32.55031126063974,0.2844954549195364,0 32.55059772703688,0.2844960013049944,0 32.55109907881495,0.2844969578806341,0 32.55145775872938,0.284495906250056,0 32.55174559711676,0.2844926314981687,0 32.55210538617739,0.2844880991214384,0 32.55232113001559,0.2844853399586549,0 32.55282433856173,0.2844787499123377,0 32.55311234509202,0.2844018852727196,0 32.5533996385797,0.2843978897590169,0 32.55368730724928,0.284321094479014,0 32.55411867938338,0.2841702114495981,0 32.5544774500915,0.284093629498293,0 32.55469259273116,0.2840192724224057,0 32.5551219749586,0.2840157891976727,0 32.55547995571032,0.2839403212856318,0 32.55576625439088,0.2837953782337303,0 32.55612347663057,0.2837228565949167,0 32.55633808249917,0.2836486891158476,0 32.55662429098138,0.2835014268672223,0 32.55705293464229,0.2833535287529269,0 32.55733857535961,0.2832067823109412,0 32.55790928748235,0.2831311224792048,0 32.55812317298795,0.2830580950291848,0 32.55847959589347,0.282985014971465,0 32.55876471898666,0.2829845976972335,0 32.55904992728561,0.2830567233515028,0 32.55926390319603,0.2831289763435292,0 32.55954936573556,0.2832033613369814,0 32.55976393853125,0.2833514866598815,0 32.55962192350758,0.2836418627829007,0 32.5596232120712,0.284081088286907,0 32.55969566829772,0.2843754849834074,0 32.55969693434992,0.2848153418616133,0 32.55969792790039,0.2851107179879154,0 32.55962729510783,0.285477512887917,0 32.55955663868841,0.2858465915629023,0 32.55941378957368,0.2861393137050701,0 32.55934264489503,0.2864339558736242,0 32.55905596616422,0.2866568029803294,0 32.55884079112869,0.2867283438173839,0 32.55855336164735,0.286797562555721,0 32.55819448946742,0.2867943666432834,0 32.55783578429249,0.2869400698949292,0 32.55754838333898,0.287088462568253,0 32.55726080485357,0.2872369536444579,0 32.55690120876177,0.2874595340857423,0 32.55675680052877,0.2876085621595668,0 32.55639612021226,0.2879096023693761,0 32.55617867733084,0.2882124365963334,0 32.55596130874543,0.2884401592248506,0 32.55567107751772,0.2887444222697827,0 32.55545163600032,0.2891278500110293,0 32.55530587325553,0.2892820394768403,0 32.55515876355447,0.2895888958253853,0 32.55494055904157,0.2898133246849665,0 32.55464933821456,0.290112858553407,0 32.55443070574391,0.2903377267950622,0 32.55421228655052,0.2904888691589206,0 32.5537749142219,0.2908636271317345,0 32.55348264965703,0.2910910792125139,0 32.55326354606972,0.2913151019622001,0 32.55304451232172,0.2915379357102901,0 32.55282579208612,0.2916870831462771,0 32.55260572342934,0.2919120416630775,0 32.5523136269379,0.292136163209153,0 32.55194962029773,0.2922833248439813,0 32.55129566609201,0.292428229169939,0 32.55107741297615,0.2925014124879356,0 32.55071451956131,0.2925005718225251,0 32.55027850297024,0.2925013214365587,0 32.54976931235723,0.2925038336713307,0 32.54955106348181,0.292504911827227,0 32.54918727529376,0.2925067062822294,0 32.54882343781603,0.2925085009380633,0 32.54831397551936,0.2925110155279429,0 32.54787722282933,0.2925131686764319,0 32.54758601369067,0.2925146084442538,0 32.54714914372968,0.2925167642841501,0 32.54664105389507,0.2924431483003386,0 32.54635066567032,0.2924443936667524,0 32.54584122458187,0.2924446535605102,0 32.54526122883613,0.2923700607200642,0 32.54482511971195,0.2923705097910076,0 32.54446162813557,0.2923708538584354,0 32.5439545021835,0.292296171737648,0 32.54380912408068,0.2922963086031318,0 32.54337295298028,0.2922967164815417,0 32.54344011695081,0.2925221896085171,0 
					</coordinates>
				</LinearRing>
			</outerBoundaryIs>
		</Polygon>
		<atom:link rel="app" href="https://www.google.com/earth/about/versions/#earth-pro" title="Google Earth Pro 7.3.6.10201"></atom:link>
	</Placemark>
</Document>
</kml>
