<?xml version="1.0" encoding="UTF-8"?>
<kml xmlns="http://www.opengis.net/kml/2.2" xmlns:gx="http://www.google.com/kml/ext/2.2" xmlns:kml="http://www.opengis.net/kml/2.2" xmlns:atom="http://www.w3.org/2005/Atom">
<Document>
	<name>Kampala_Kisenyi.kml</name>
	<StyleMap id="m_ylw-pushpin">
		<Pair>
			<key>normal</key>
			<styleUrl>#s_ylw-pushpin</styleUrl>
		</Pair>
		<Pair>
			<key>highlight</key>
			<styleUrl>#s_ylw-pushpin_hl</styleUrl>
		</Pair>
	</StyleMap>
	<Style id="s_ylw-pushpin">
		<IconStyle>
			<scale>1.1</scale>
			<Icon>
				<href>http://maps.google.com/mapfiles/kml/pushpin/ylw-pushpin.png</href>
			</Icon>
			<hotSpot x="20" y="2" xunits="pixels" yunits="pixels"/>
		</IconStyle>
		<LineStyle>
			<width>0.6</width>
		</LineStyle>
		<PolyStyle>
			<color>ffffae6f</color>
		</PolyStyle>
	</Style>
	<Style id="s_ylw-pushpin_hl">
		<IconStyle>
			<scale>1.3</scale>
			<Icon>
				<href>http://maps.google.com/mapfiles/kml/pushpin/ylw-pushpin.png</href>
			</Icon>
			<hotSpot x="20" y="2" xunits="pixels" yunits="pixels"/>
		</IconStyle>
		<LineStyle>
			<width>0.6</width>
		</LineStyle>
		<PolyStyle>
			<color>ffffae6f</color>
		</PolyStyle>
	</Style>
	<Placemark>
		<name>Kisenyi</name>
		<styleUrl>#m_ylw-pushpin</styleUrl>
		<Polygon>
			<tessellate>1</tessellate>
			<outerBoundaryIs>
				<LinearRing>
					<coordinates>
						32.57306718298222,0.3082488819461755,0 32.57305553740148,0.3082198265169056,0 32.57303812873251,0.308202339218035,0 32.57302074768202,0.3081907083657772,0 32.57300915975398,0.3081732110725776,0 32.57298602283472,0.3081498918970841,0 32.57297447412615,0.3081264928221976,0 32.57296871600323,0.3081031972805121,0 32.57295720206764,0.3080799323624894,0 32.57295147831649,0.308050901803963,0 32.57296302281511,0.3080275210560302,0 32.57296879513509,0.3080043825455064,0 32.57299178424535,0.3079869390098917,0 32.57300325604808,0.3079638014314278,0 32.57300324019501,0.3079349968306409,0 32.57300895575782,0.3079064218222552,0 32.57299177517342,0.3078893692637882,0 32.57296888555772,0.3078779720494026,0 32.5729402974679,0.3078609080148573,0 32.5729174351986,0.3078551825662079,0 32.57290602590254,0.3078438205987182,0 32.57287751468242,0.3078266978050981,0 32.57286047759371,0.307803927451606,0 32.57285488292888,0.3077811622489083,0 32.57285502842593,0.3077527483334248,0 32.57284948550338,0.3077243828982507,0 32.57284965758561,0.3076904699765533,0 32.57284980013497,0.3076622727151494,0 32.57286126028971,0.3076397586580105,0 32.57287270150278,0.3076172812401128,0 32.57287274429147,0.3076060678975366,0 32.57288419476448,0.3075724775873301,0 32.57289556819448,0.3075557111029048,0 32.57291822099496,0.3075445519948431,0 32.57294650835821,0.3075334250454028,0 32.57296912834201,0.3075223117425109,0 32.57299173712024,0.3075056275639501,0 32.57301433020535,0.307494510843709,0 32.5730312450525,0.3074722666060897,0 32.57304813396532,0.3074500508418965,0 32.57306499806479,0.3074278686377248,0 32.57307622106778,0.3074112530078787,0 32.5730874052247,0.3073891175912353,0 32.57309293935026,0.3073670113509954,0 32.57309843446186,0.3073394312596662,0 32.57310391385788,0.3073119140650528,0 32.57310376944798,0.3072844610866879,0 32.5730924533502,0.3072625479960046,0 32.57306999508823,0.3072461453747441,0 32.57304757614201,0.3072297709990858,0 32.57303077949405,0.3072134237397002,0 32.57301401150524,0.3071971040412689,0 32.57298612463812,0.3071862459790857,0 32.57296383777375,0.3071808256895961,0 32.57294715675098,0.3071645637445874,0 32.57293051727589,0.3071429166609482,0 32.57291390695787,0.3071213057305504,0 32.5728862022313,0.3071051225942028,0 32.57286962909629,0.3070889580310616,0 32.57284753397278,0.3070728143148775,0 32.57281992817003,0.3070566921892218,0 32.5727978084263,0.3070513213883176,0 32.57277579857296,0.3070352301399884,0 32.57276493568209,0.307013811768777,0 32.57275967210322,0.3069870963372024,0 32.57275436934677,0.3069657715368443,0 32.57276562880923,0.3069445038973425,0 32.57278777832305,0.3069338816507712,0 32.57280992891733,0.306917925793727,0 32.57283201398057,0.3069072844358526,0 32.57284858226252,0.3068966570806519,0 32.57288163981399,0.306886036891337,0 32.57290365729951,0.3068753398412749,0 32.572925656256,0.3068699446858223,0 32.57294217189619,0.3068646687145316,0 32.57297517506672,0.3068541937252775,0 32.57299715141092,0.3068489487575245,0 32.57301911067876,0.3068384066976612,0 32.57304655226988,0.30683313916643,0 32.57307949997575,0.3068277199678711,0 32.57310148869467,0.3068276175473706,0 32.57312897769513,0.3068221521098874,0 32.57315655855884,0.3068218468658297,0 32.57318959276639,0.3068163544956611,0 32.57321165952276,0.3068162067119206,0 32.57324478585441,0.3068159847762735,0 32.5732778906365,0.3068158484607936,0 32.57331647283674,0.3068157784585362,0 32.57333291105223,0.3068104976092172,0 32.57336022588804,0.306799989763917,0 32.57337123261851,0.3067999839902044,0 32.57340425442662,0.3067999671124421,0 32.57343700421392,0.306789480996202,0 32.57344798582896,0.3067894956643727,0 32.57349167950885,0.3067790231787931,0 32.57351357253206,0.3067737302472717,0 32.57354634711623,0.3067631543312003,0 32.57355185334848,0.3067631415245382,0 32.57358462114364,0.3067525605495539,0 32.57361186334529,0.3067419992196471,0 32.57363373408607,0.3067367012651548,0 32.57366093495525,0.3067261600399053,0 32.57368261227331,0.3067156419144562,0 32.57370995297043,0.3067103400712083,0 32.57372628186931,0.3067050702740625,0 32.57375324337442,0.3066893234305432,0 32.57378029806699,0.3066735100568241,0 32.57380188943731,0.3066630323820952,0 32.57381821529984,0.3066577499802845,0 32.57383989025625,0.306647205502602,0 32.57387257174234,0.3066366131868918,0 32.57389403385439,0.3066208644451432,0 32.57392117354109,0.3066103152665278,0 32.57394276553916,0.3065998167349967,0 32.57395355673478,0.3065945698396392,0 32.57398591205036,0.3065788382445774,0 32.57401273298709,0.3065631513314913,0 32.57403450827127,0.3065578566323678,0 32.57406635549175,0.3065371171035561,0 32.57408774932076,0.3065267353504132,0 32.57411491140624,0.3065214721631236,0 32.57413627633531,0.3065111015875933,0 32.57414146359155,0.3065059449687975,0 32.57417927303219,0.3064955057914934,0 32.57420640854037,0.3064902447205672,0 32.5742387024023,0.3064798371447683,0 32.57427131345805,0.306474551572343,0 32.57429259473715,0.3064642094077709,0 32.57432540596826,0.3064587923364094,0 32.57434694585447,0.3064482883202296,0 32.57438010691841,0.3064479980266393,0 32.57440218827271,0.3064478244969672,0 32.57442939592556,0.3064425142989142,0 32.57445138491008,0.306442399310185,0 32.57448446362601,0.3064421797952721,0 32.57450609554396,0.3064369408004602,0 32.57452257244908,0.3064368688771156,0 32.57454968482259,0.3064316108657629,0 32.57457657542248,0.3064264674750312,0 32.57459800834575,0.306421326732211,0 32.57461945139954,0.3064161781300083,0 32.5746467131047,0.3064108341769089,0 32.57468501169546,0.3064054162370201,0 32.57470675965293,0.3064001087309268,0 32.57472333006515,0.3063999907944826,0 32.57474550319055,0.306399799340308,0 32.57476213934045,0.3063996557261012,0 32.57479542855767,0.3063993683478062,0 32.57483433934936,0.3063990079210536,0 32.57485120495709,0.3063987751410496,0 32.57488051267278,0.3064085191140482,0 32.57489809465965,0.3064133222149136,0 32.57492198174416,0.3064231210141881,0 32.57495126895915,0.3064276409685185,0 32.57497483808692,0.3064376525656619,0 32.57499801887136,0.3064532095499542,0 32.57502102011051,0.3064688702757196,0 32.57503856427067,0.3064845450863,0 32.57506123733254,0.3064950088169893,0 32.57508392683238,0.3065054798429441,0 32.57510681107594,0.3065158952629002,0 32.57513602366045,0.3065314141449186,0 32.57516577837357,0.3065468001950694,0 32.57518503040332,0.3065620720698862,0 32.57520433046117,0.3065773824237029,0 32.57522367932502,0.3065927309962785,0 32.57524305066431,0.3066081269514898,0 32.57526386638948,0.3066340035118761,0 32.57527290515115,0.3066601754197936,0 32.57528076358903,0.3066812981713598,0 32.5752830897973,0.30670246011063,0 32.57528658813282,0.3067342838525514,0 32.57529448829013,0.3067555564585948,0 32.57530206165988,0.3067824001041119,0 32.57530356735181,0.3068039274147397,0 32.57530550745475,0.306830867297168,0 32.57530862563918,0.3068631178846554,0 32.57530444124423,0.3068847750020056,0 32.57529461874572,0.3069064610689784,0 32.57527385916992,0.3069336154857604,0 32.57526924175797,0.3069554114922808,0 32.57525868502572,0.3069717811758278,0 32.57524270454478,0.3069936245168004,0 32.57522644723236,0.3070100240136904,0 32.57521560434076,0.3070209616978393,0 32.57519351413743,0.3070373973304269,0 32.57517137233987,0.3070593330854719,0 32.57514907353256,0.3070757936027705,0 32.57512670339118,0.3070922640011574,0 32.57510987367743,0.3071032479444886,0 32.57508773696557,0.3071197060660508,0 32.575059466774,0.3071307050168025,0 32.57504305783673,0.3071471609726804,0 32.57501487757585,0.307158154908628,0 32.57499864511084,0.3071746114688486,0 32.5749766759084,0.3071910820760146,0 32.57496645700328,0.3072130480363059,0 32.57496768965859,0.3072350339286676,0 32.57497496931308,0.3072625551280664,0 32.57497669315539,0.3072901232095219,0 32.57498966571735,0.3073122198443592,0 32.5750026600174,0.307334354085456,0 32.57501605412538,0.3073620720736675,0 32.57502904102732,0.3073842870082563,0 32.57504765551493,0.3074065346046599,0 32.57505411057465,0.3074176693906033,0 32.57506777203688,0.3074511192245006,0 32.57508072220272,0.3074734651947305,0 32.57509364864452,0.3074958416337437,0 32.57509518125659,0.3075182440603032,0 32.57510279978084,0.307540731186667,0 32.57509934069079,0.3075688746271645,0 32.57508990805886,0.3075970337412444,0 32.57507991355247,0.3076195716679571,0 32.57506952116804,0.3076420711049654,0 32.57504692330882,0.3076588598637123,0 32.57502384702463,0.3076643940848091,0 32.57499579180055,0.3076812350091206,0 32.57497383426696,0.3076981775749275,0 32.57495746687407,0.3077095214801824,0 32.57493537413772,0.307726464722601,0 32.57491871854721,0.307737764703048,0 32.5749023508635,0.3077547388165069,0 32.57488021280935,0.3077717178438093,0 32.57485706425798,0.3077660540668287,0 32.57482182402252,0.3077546194519623,0 32.57479248544718,0.3077488269062688,0 32.57476903563435,0.3077430796820465,0 32.57473432944198,0.3077429646066487,0 32.57470542053004,0.3077428685231526,0 32.57467660159892,0.3077427944538258,0 32.57464892249461,0.3077542235854139,0 32.57462054559412,0.3077598702736867,0 32.57459251667785,0.3077768087056932,0 32.57457554987119,0.3077824585776435,0 32.57454761563061,0.3077994547417288,0 32.57451973139821,0.3078164916700369,0 32.57449800721673,0.30783371948334,0 32.57448173393503,0.3078508782077711,0 32.57445960280432,0.3078680137494219,0 32.57444322510401,0.307885182183166,0 32.57442682905591,0.3079023723133762,0 32.57441026817325,0.307919514368893,0 32.57439369146628,0.3079366724445248,0 32.57436549683087,0.307953793037048,0 32.57434888548809,0.307970981614564,0 32.57432619492338,0.3079823938203713,0 32.57430953063965,0.3079995918193406,0 32.57429303185391,0.3080169156159182,0 32.5742704859071,0.3080284660638422,0 32.57425401860885,0.308045863917179,0 32.57423172697933,0.3080632607271458,0 32.57421491535101,0.3080748625428899,0 32.57419264951713,0.3080923490276612,0 32.57417630543888,0.3081099765734868,0 32.57415939998778,0.3081272413879987,0 32.57414928759909,0.3081622738596497,0 32.57413857160344,0.3081855979818564,0 32.57412783981546,0.3082089566794809,0 32.57411688613388,0.3082321835901555,0 32.57410545887468,0.3082436576116382,0 32.57409476022674,0.3082785288652331,0 32.57408903371216,0.3082842770119855,0 32.57407851230185,0.3083250617010861,0 32.5740554563549,0.3083479838164357,0 32.57403253127349,0.3083653745009647,0 32.5740155928296,0.3083829782535555,0 32.57399882359537,0.308406499941285,0 32.57397618725625,0.3084300296871301,0 32.57395952535114,0.3084595066328129,0 32.57394264963408,0.3084830895144761,0 32.57392592716185,0.3085126429283231,0 32.5739147058102,0.3085303898388033,0 32.57390389120773,0.3085601751178628,0 32.57389302630752,0.3085842564380361,0 32.57388214820908,0.3086026497761569,0 32.57387134669346,0.308632705874543,0 32.57386602255168,0.3086564913067179,0 32.57386073855454,0.3086803858729287,0 32.57385544766661,0.308704312377508,0 32.57385028537404,0.308734250423589,0 32.57384508520022,0.3087641849340006,0 32.57383369621738,0.3087878897934706,0 32.57381650271437,0.3088175524963727,0 32.57379912507331,0.3088353801029252,0 32.57378181926977,0.3088591740146437,0 32.57376444006693,0.3088713332143812,0 32.57374144210603,0.3088956797065323,0 32.57371832182828,0.3089140954021213,0 32.57369525363986,0.3089385109460229,0 32.5736777339837,0.3089448367932591,0 32.57365447228833,0.3089631734024938,0 32.57363117916884,0.3089815210547766,0 32.57359594923562,0.3089939083005873,0 32.57357251062042,0.3090062372007875,0 32.5735487966116,0.3090061955069023,0 32.57351949656886,0.3090246463311488,0 32.57349599921794,0.3090369952746165,0 32.57346663627278,0.3090554844033228,0 32.57343723753442,0.3090739958891243,0 32.57341952386435,0.3090860353930953,0 32.57340780319044,0.3091041505927208,0 32.57337235101844,0.3091341614296153,0 32.57335469607635,0.3091583370235467,0 32.57333705835629,0.3091827290206845,0 32.57331941387601,0.3092014099691895,0 32.57330186636247,0.3092325179282874,0 32.57328428339659,0.3092636890753855,0 32.57327248574263,0.3092879880534368,0 32.57326062406091,0.3093119294683461,0 32.57324278259805,0.3093358850926208,0 32.57321903502326,0.3093722955825485,0 32.57320124521028,0.3093912150403895,0 32.57317749283593,0.309416559724626,0 32.57314767655463,0.3094357023275894,0 32.57312379175611,0.3094485269086233,0 32.5730998452144,0.3094610286348289,0 32.57307586835956,0.3094671831396618,0 32.57306388639526,0.3094733789827228,0 32.57302191249556,0.3094856965116443,0 32.57298591657262,0.3094917503338147,0 32.57293191822249,0.3095034278994832,0 32.57290195289257,0.3095026691754615,0 32.57288995328091,0.3095086199955532,0 32.57285400558612,0.309513788335923,0 32.57283007456086,0.3095130056836878,0 32.57280015038378,0.3095183220865224,0 32.57276433096368,0.3095169618453924,0 32.57273451408853,0.3095158289537684,0 32.5727106308567,0.3095153618778291,0 32.57268074623328,0.3095150738075165,0 32.57265689707054,0.3095086320960105,0 32.57263304946175,0.3095022704114812,0 32.5725972104332,0.3094961719459282,0 32.57256734088161,0.3094901587656379,0 32.57253747629215,0.3094841466005529,0 32.57250771313147,0.3094718431622855,0 32.57246590135567,0.309448335535803,0 32.57244790002389,0.3094369294710761,0 32.5724178899491,0.3094198570842286,0 32.57239384377833,0.3094086277065269,0 32.572369797989,0.3093973595521805,0 32.57233985659926,0.3093798887478698,0 32.57231047116056,0.3093665542501309,0 32.57228729629363,0.3093526771092537,0 32.57226417010523,0.3093388288682163,0 32.5722410914429,0.3093250095780502,0 32.5722179215547,0.3093115867923271,0 32.57219460930686,0.3092986563601491,0 32.57218886762581,0.3092923095170028,0 32.5721482600665,0.3092607786223829,0 32.57213708063796,0.3092359189898262,0 32.57212012134401,0.3092049999049833,0 32.5721149654931,0.3091743098409934,0 32.57211567740633,0.3091438101012018,0 32.57211653030504,0.3091072761940138,0 32.57211695587322,0.3090890359413846,0 32.57212369910865,0.3090526358544488,0 32.57212987152859,0.3090405356116516,0 32.57214246824952,0.3090042802313874,0 32.57215490879311,0.3089741240791935,0 32.57217308142203,0.3089500576188178,0 32.57218535466178,0.3089260008957578,0 32.57220323649916,0.3089140224496362,0 32.57222123047875,0.3088960388064561,0 32.57223920868134,0.3088780706351145,0 32.5722514205468,0.308854099712317,0 32.57227509877126,0.3088422451312871,0 32.57229305727996,0.3088242477503736,0 32.57231687151738,0.308806275619419,0 32.57234066281747,0.3087883207853491,0 32.57235260373966,0.3087763539851852,0 32.57238221615638,0.3087584382804286,0 32.57241170924443,0.3087465008081667,0 32.57242948159403,0.3087345348579495,0 32.57245912318427,0.3087106855269579,0 32.57248861686467,0.3086928298151039,0 32.57252986919358,0.3086690787539519,0 32.57254170221504,0.3086572145483835,0 32.57257700325589,0.3086336011058576,0 32.57260633533964,0.3086103318267583,0 32.57262390668441,0.308598731235912,0 32.57264744850832,0.3085751770273368,0 32.57267098009706,0.3085516235437143,0 32.5726886135965,0.3085339520060809,0 32.57270036032717,0.3085221796154271,0 32.57272378658738,0.3085045708424508,0 32.57274727464902,0.3084808813406084,0 32.57275905018201,0.3084631209901589,0 32.57278830045139,0.3084394647591966,0 32.57281748023014,0.3084159929164435,0 32.57283496551047,0.3083985749404576,0 32.57284660664185,0.3083870380265838,0 32.57287565665286,0.3083699093126314,0 32.57289888946804,0.3083585327881349,0 32.57292213127166,0.3083412988383055,0 32.57294536565687,0.3083297943037078,0 32.57297439484181,0.3083300121382933,0 32.57300344159152,0.3083244934433637,0 32.57304410310179,0.3083247439331005,0 32.57306731045611,0.3083130451423911,0 32.5730788886862,0.3082954960669221,0 32.57307881683077,0.3082663129123056,0 32.57307296456511,0.3082430280107378,0 32.57306712045673,0.308219771687384,0 32.57306718298222,0.3082488819461755,0 
					</coordinates>
				</LinearRing>
			</outerBoundaryIs>
		</Polygon>
		<atom:link rel="app" href="https://www.google.com/earth/about/versions/#earth-pro" title="Google Earth Pro 7.3.6.10201"></atom:link>
	</Placemark>
</Document>
</kml>
