<?xml version="1.0" encoding="UTF-8"?>
<kml xmlns="http://www.opengis.net/kml/2.2" xmlns:gx="http://www.google.com/kml/ext/2.2" xmlns:kml="http://www.opengis.net/kml/2.2" xmlns:atom="http://www.w3.org/2005/Atom">
<Document>
	<name>Kampala_Kinatwataka.kml</name>
	<StyleMap id="m_ylw-pushpin">
		<Pair>
			<key>normal</key>
			<styleUrl>#s_ylw-pushpin</styleUrl>
		</Pair>
		<Pair>
			<key>highlight</key>
			<styleUrl>#s_ylw-pushpin_hl</styleUrl>
		</Pair>
	</StyleMap>
	<Style id="s_ylw-pushpin">
		<IconStyle>
			<scale>1.1</scale>
			<Icon>
				<href>http://maps.google.com/mapfiles/kml/pushpin/ylw-pushpin.png</href>
			</Icon>
			<hotSpot x="20" y="2" xunits="pixels" yunits="pixels"/>
		</IconStyle>
		<LineStyle>
			<width>0.6</width>
		</LineStyle>
		<PolyStyle>
			<color>ffffae6f</color>
		</PolyStyle>
	</Style>
	<Style id="s_ylw-pushpin_hl">
		<IconStyle>
			<scale>1.3</scale>
			<Icon>
				<href>http://maps.google.com/mapfiles/kml/pushpin/ylw-pushpin.png</href>
			</Icon>
			<hotSpot x="20" y="2" xunits="pixels" yunits="pixels"/>
		</IconStyle>
		<LineStyle>
			<width>0.6</width>
		</LineStyle>
		<PolyStyle>
			<color>ffffae6f</color>
		</PolyStyle>
	</Style>
	<Placemark>
		<name>Kinatwataka</name>
		<styleUrl>#m_ylw-pushpin</styleUrl>
		<Polygon>
			<tessellate>1</tessellate>
			<outerBoundaryIs>
				<LinearRing>
					<coordinates>
						32.65910512328724,0.323303075226229,0 32.65904404812188,0.3233023209720889,0 32.65886093227699,0.3232395228392568,0 32.65898342595447,0.3229989721037419,0 32.65928882124145,0.3228817571451383,0 32.65959410117284,0.3228250425251263,0 32.65983887526085,0.3227068610483254,0 32.66014480953274,0.3227102943758799,0 32.66038959506778,0.3227130422262234,0 32.66069562395194,0.3227164769056084,0 32.66094048246762,0.3227192245428406,0 32.66124646720379,0.3226017029254587,0 32.66149111195662,0.3224230551168254,0 32.66167455549972,0.3223042099813956,0 32.66191746593734,0.3221868193917136,0 32.66216018174497,0.3220694952251635,0 32.66234210528613,0.3218304786431208,0 32.66258498685426,0.3217131336873736,0 32.66282799685509,0.321595726030572,0 32.66301133162118,0.321537403961912,0 32.66319399755877,0.3212982089315257,0 32.66319332717966,0.3211174212371465,0 32.66319243934913,0.3207558585852588,0 32.66319248856858,0.3204543670461286,0 32.66325342688923,0.3202742938780263,0 32.66331435053807,0.3199738036024626,0 32.66337404425256,0.3197945505447707,0 32.66355569796977,0.3196167125476518,0 32.66355500796268,0.3193162549081997,0 32.66355569529255,0.31901516640285,0 32.66349115244692,0.3187162287223455,0 32.66342322316079,0.3183598830671983,0 32.66342044201168,0.3181817474670317,0 32.66341649934445,0.317884627162025,0 32.66347563408413,0.317646809586858,0 32.66347179033781,0.3173502032209848,0 32.66353264017422,0.3170516358653703,0 32.66353565931466,0.316750360647283,0 32.66365938687959,0.3165705404986395,0 32.6637837303412,0.3163304607023268,0 32.66409040066747,0.3161519836057858,0 32.6643355457547,0.316033280592902,0 32.66451913597658,0.3159743696685207,0 32.66470097507744,0.3160962492906898,0 32.66494623768641,0.3159775114263668,0 32.66500861742066,0.3157376848245238,0 32.66518976060044,0.3155011655265343,0 32.665067562025,0.3152015514868062,0 32.66488534672943,0.3150204786253444,0 32.66482405825937,0.3147813941228974,0 32.66470258413405,0.3145414359120389,0 32.66464113179347,0.3142431548243989,0 32.66451975855086,0.3140034262394592,0 32.66439844034588,0.3137638131408767,0 32.66433734987312,0.3135253402300198,0 32.66427629078127,0.3132869816783092,0 32.66409479718144,0.3129871955830911,0 32.66403345713316,0.312808941098413,0 32.66385138004394,0.3126291670682901,0 32.66354907243301,0.3124474284128058,0 32.66336760514482,0.312267324580858,0 32.66318609663413,0.3120280799894704,0 32.66306501127218,0.3117897330793253,0 32.66318516096506,0.311495507911209,0 32.66318462529023,0.3112590193358363,0 32.66318440263256,0.3110225937649626,0 32.66312319120305,0.3107268400252253,0 32.66306299962785,0.3105486450787519,0 32.66282136702832,0.3103689105947524,0 32.66257986229937,0.3101891018122044,0 32.66245909157744,0.3100108768646138,0 32.66221821877915,0.3098310975754167,0 32.66203757877362,0.3096513320507781,0 32.66173643348749,0.3094709500468647,0 32.66155567900939,0.3092922007185023,0 32.66125485619857,0.3090528286856859,0 32.66107447689729,0.3088739216705142,0 32.66083402862891,0.3086942675086823,0 32.6606537840311,0.3085154892705717,0 32.66035345167744,0.3082764051710447,0 32.66017328501391,0.3081564985021535,0 32.65993316303777,0.3079770998010137,0 32.65969323650943,0.3077390770869379,0 32.65951329601776,0.3075024144990586,0 32.65939351159808,0.3072082769722828,0 32.65927368160887,0.3069728861662779,0 32.65915391438487,0.3067376229261439,0 32.65903421189206,0.3065024851677404,0 32.65903491438649,0.306210115974976,0 32.65909569309486,0.3059184725101846,0 32.6591564354231,0.3056270082715974,0 32.65933698436474,0.3054535126420214,0 32.65945754362873,0.3052211906601674,0 32.65957794158683,0.3050472894040125,0 32.65981787494697,0.304875195721725,0 32.66011807789096,0.3046454679696332,0 32.66011816340883,0.3045871775264232,0 32.66053760394,0.3045922178772671,0 32.66083716169913,0.3045958887085224,0 32.66113668609388,0.3045996616618504,0 32.66137652849071,0.3044274599098268,0 32.66161614149136,0.3041973376665664,0 32.66179577425849,0.3040248155332745,0 32.66209513719994,0.3039119882525088,0 32.66239453441754,0.3039156394432805,0 32.6626339959085,0.3039186499305909,0 32.66305248515361,0.3039248133981565,0 32.66323208422011,0.30392705878947,0 32.6634715218287,0.30393007156956,0 32.66383068385258,0.3039345964600797,0 32.66412998659427,0.3039383651773467,0 32.66442928887341,0.3039421318025826,0 32.66472858722138,0.3039459034213903,0 32.66496749759801,0.3039499523676201,0 32.66526724465833,0.303952843442396,0 32.66556635511377,0.3039568981214108,0 32.66574622235905,0.3040173290992909,0 32.66586704047564,0.3042517277168802,0 32.66586799296721,0.3045435559359915,0 32.66580850050561,0.3047181358232886,0 32.66574980793011,0.3050092816643703,0 32.66563128970094,0.3051823571275676,0 32.66551226217486,0.3054729415014868,0 32.66539303321674,0.3057052794337597,0 32.665333569586,0.3058800877221174,0 32.66521441733443,0.3061713299264547,0 32.66527494210291,0.3063477697560018,0 32.66557560687119,0.306527200938725,0 32.66581640082735,0.3067057806505805,0 32.66599739026523,0.3068247066496443,0 32.66617857755442,0.3070025165267979,0 32.66629970773207,0.3072385410448623,0 32.66630038605714,0.3074735969063182,0 32.66636119842472,0.3077095600807259,0 32.66642182784389,0.3079458434508682,0 32.66666348103906,0.3081837661908129,0 32.6670834394382,0.30830808166259,0 32.66720252566504,0.308429033714147,0 32.66749927436133,0.3086141992191045,0 32.66767963073529,0.3087940872399781,0 32.66786076807324,0.3089730150065871,0 32.66803942022871,0.3092729567887239,0 32.66821937331883,0.30951253494873,0 32.66839782926927,0.3096943409251277,0 32.66851887158013,0.3099914117173848,0 32.6685804555885,0.3102279856291576,0 32.66857640285587,0.310528077414047,0 32.66864013797559,0.3107038056975411,0 32.66871288744336,0.310931099692088,0 32.66883656408441,0.3111675289212434,0 32.66901748577646,0.3114074103033164,0 32.6692559328792,0.3116504576492556,0 32.66956163741059,0.3120078600620919,0 32.66962350531921,0.3121264684132428,0 32.6698047141643,0.3123071541150736,0 32.66998726461232,0.3125465038042255,0 32.67010856869457,0.3127263742704878,0 32.67029122653688,0.3130255481766817,0 32.67053012731273,0.3133284178947799,0 32.67065110944701,0.3135683872355517,0 32.67065628737898,0.3138634567207848,0 32.67066250184566,0.3142178661811227,0 32.67072410645524,0.314397156497674,0 32.67073036301497,0.3147520729051242,0 32.67079411576717,0.3150499999750808,0 32.67079936142531,0.3153462641605844,0 32.67086381323152,0.3156442711668782,0 32.67093231077772,0.3160602570371367,0 32.67093914610275,0.3163565713331816,0 32.67094580129574,0.316653317654052,0 32.67101098434176,0.316952119829059,0 32.67107487355474,0.3171915959009285,0 32.67119992588282,0.3174919731391677,0 32.67132501772936,0.3177926313633923,0 32.67144895597286,0.3180337767213262,0 32.67169230342933,0.3182774455888615,0 32.6719340382871,0.3184616275620523,0 32.67223362487382,0.3187079498869917,0 32.67247542683755,0.3189524570545382,0 32.67278077214649,0.3191967500158882,0 32.67290476650593,0.3193782571129654,0 32.67303019313805,0.3196196949959265,0 32.67315638166681,0.3198610662808088,0 32.67328511056078,0.3201622194951522,0 32.67335147863749,0.3204028988705404,0 32.67341728877391,0.3207043928805731,0 32.6734839735432,0.3210058869596409,0 32.67354946038974,0.321247433570184,0 32.6736176491474,0.3216095689582268,0 32.67368500854782,0.3219117222838564,0 32.67369342168087,0.322273486540946,0 32.67369917482927,0.3225755132928677,0 32.67364073217418,0.3228169300278987,0 32.67358188638384,0.3231192398688206,0 32.67346550829647,0.3234203211044508,0 32.67346820935353,0.3237236712306935,0 32.67334898608595,0.3239647916736639,0 32.67323075984691,0.324266721908,0 32.67311038297366,0.324447416172421,0 32.67305210038992,0.3246896855757626,0 32.67280913466382,0.3249298903041085,0 32.67256432210324,0.3249877039182103,0 32.67219630744487,0.3251049567564595,0 32.67189291659375,0.3252835326985101,0 32.6715275197399,0.3254005597139968,0 32.67116123066162,0.3255176925459434,0 32.67103848483303,0.3255161769693561,0 32.67073299635349,0.3255122794168542,0 32.67042750753821,0.3255083754530171,0 32.67012200303791,0.3255044731462695,0 32.66981648160654,0.3255005691632294,0 32.66938919481415,0.3255559867330651,0 32.66926742814192,0.3256153143381205,0 32.66896227043758,0.3256723108385827,0 32.66865748115043,0.3257902329527099,0 32.66847448450209,0.325848816206891,0 32.66810863809451,0.3260269721043135,0 32.66780296487721,0.3260840511016562,0 32.66749735041022,0.3262021296248706,0 32.66725291036231,0.3263210085747105,0 32.66706991427657,0.3265016984995981,0 32.66688708906056,0.3267434906504049,0 32.66670341482759,0.3269854186990505,0 32.66658054143981,0.3271671256971654,0 32.66639476000272,0.3274092212783153,0 32.66620924886409,0.3275902347057138,0 32.66590508289691,0.3277086402729639,0 32.66547907707591,0.3278867407413973,0 32.6652973047063,0.3281292207324963,0 32.66517575570594,0.328250127544714,0 32.66486904295416,0.3282462846343427,0 32.66450044725378,0.3282416302757623,0 32.66431577249301,0.328055669421746,0 32.6641312228812,0.3278697853303345,0 32.66394671659927,0.3276839583220811,0 32.66376249307797,0.3274982226431483,0 32.66351749691851,0.3273728771665297,0 32.66333371982874,0.3272483274718542,0 32.663088314451,0.3271230392928098,0 32.66278120164484,0.3270581064167297,0 32.66253486189352,0.3269329141478944,0 32.66228907727638,0.3268687944684442,0 32.66204382178219,0.3268657096264227,0 32.66179933279561,0.3269847077256903,0 32.66149324766655,0.3271640729351741,0 32.66130907214583,0.3272228584229682,0 32.66100134059231,0.3274634623539494,0 32.66081652484433,0.3276445494587095,0 32.66057068191613,0.3277637536939816,0 32.6603861675903,0.3279449349932155,0 32.66020230926627,0.3281262192501874,0 32.66001837115942,0.3283075860618494,0 32.6597725451727,0.3285494930054147,0 32.65958801627216,0.3286697062382515,0 32.65934188376217,0.3288504697622179,0 32.65915713265817,0.3290320778570993,0 32.65891057901203,0.3292129173255637,0 32.65872379168508,0.3295170856710452,0 32.65859989833227,0.3296995987774416,0 32.65847609090314,0.3298821810855173,0 32.65847340763555,0.3301888402371147,0 32.65847009026147,0.3305569092346192,0 32.6584673309486,0.3308637128018888,0 32.65846408137209,0.3312320024757155,0 32.65846273055741,0.3314163062699896,0 32.65839923217252,0.3317229165452729,0 32.65827490163967,0.3319675264463238,0 32.65821112520088,0.3322742653982627,0 32.65814811410026,0.3324579859136655,0 32.65802262985761,0.3327640588798874,0 32.65789768157867,0.3330087448662561,0 32.65777269664417,0.3332535018303907,0 32.65770812408176,0.3336221618527525,0 32.65764632942435,0.3338071398203533,0 32.65764512611556,0.3341163092090375,0 32.65764416727755,0.3343637638264719,0 32.65764297076623,0.3346732650912168,0 32.6576420132754,0.3349210042101495,0 32.6577015185546,0.3353550579799492,0 32.65782400949759,0.3356046732163241,0 32.65800775754582,0.335916933574175,0 32.65819101658957,0.33622880202964,0 32.65831319495321,0.3364159792567422,0 32.65849658601489,0.3367280611886697,0 32.65867990415126,0.3369777645683818,0 32.65886309579899,0.3371649919784683,0 32.6589855878671,0.3374149202936629,0 32.65910793736741,0.3376023559237464,0 32.65935205996059,0.3378518718141089,0 32.6594726389036,0.3380374806681919,0 32.65965403979092,0.3382228506070249,0 32.65989688715705,0.3383462931625659,0 32.66020057946383,0.3385319590603745,0 32.66038264614608,0.3387180587228716,0 32.66038055309017,0.339089959035062,0 32.6603180916457,0.3393379746528922,0 32.66013413996068,0.3394620081649233,0 32.65982987287145,0.3393385525173762,0 32.65958625460325,0.3393396281149175,0 32.65934239816041,0.3393406220513362,0 32.65897629466195,0.3393421146160437,0 32.65867091809326,0.3393433585343837,0 32.65830411467988,0.3393448527909849,0 32.65799765920776,0.3394082564484942,0 32.65775201829601,0.3394083007171769,0 32.65750500865665,0.3395324272871435,0 32.65744151704909,0.3397813618619252,0 32.65743843284417,0.3401547033348207,0 32.65731313784001,0.3404035229286503,0 32.65718780314497,0.3406524137782525,0 32.65706157593986,0.3409633415388338,0 32.65687437203235,0.3412122276755937,0 32.65668747861321,0.3415256398167263,0 32.65662485265049,0.3417141901316563,0 32.65650016092928,0.3419658099712743,0 32.65643747487319,0.3421546416819277,0 32.65643582271382,0.3424692310165296,0 32.65643398586947,0.3427199543225256,0 32.65649349150067,0.343033329885972,0 32.6564908477997,0.3433461520075142,0 32.65648978816933,0.3434713119077758,0 32.65630064090983,0.3437824658866909,0 32.65617422888031,0.3440319588527664,0 32.65598504575692,0.3443436428490045,0 32.65579748822836,0.3445317347260226,0 32.65560952575689,0.3447832871393615,0 32.65542232725171,0.3449088404572345,0 32.65517248805274,0.3450973201405523,0 32.65485704224402,0.3454693630495238,0 32.65466723020872,0.3457165791080065,0 32.65441649634836,0.3459037570088278,0 32.65429161166509,0.346227547691934,0 32.65435176037964,0.3465455848876268,0 32.65422475955656,0.346796861322336,0 32.65415962227981,0.3471122346889794,0 32.654094961345,0.3473644624573049,0 32.65409268556286,0.3476171703679723,0 32.65377928779043,0.3477404448141393,0 32.65358990619696,0.3479274210572503,0 32.65333790277721,0.3480467419242969,0 32.65302477850278,0.3480393290435941,0 32.65277556583829,0.3479067841997762,0 32.6525264699465,0.347774098615814,0 32.65221429169787,0.3477031063931478,0 32.65196538005119,0.3475699135696643,0 32.65171661071568,0.3474367942985389,0 32.65159279178123,0.3473064843911156,0 32.65178266739189,0.347056992777128,0 32.65203528531351,0.3468785289958637,0 32.65235072289779,0.3467028714157717,0 32.65266559714976,0.3465225995902278,0 32.65285420205335,0.3463990654961021,0 32.65316829792804,0.346214290591602,0 32.65341967486385,0.3460280666147784,0 32.65367110727004,0.3458419392649356,0 32.65392192761875,0.3457192638809014,0 32.65404886699896,0.3454683478723274,0 32.6539261617574,0.3452139757723827,0 32.65374112030253,0.3449587721603369,0 32.65355665757734,0.344640398041748,0 32.65343377897968,0.3442542653800226,0 32.65355913467579,0.3441286845855039,0 32.65374791889716,0.3439433526588095,0 32.65393675373932,0.3436935608142853,0 32.65406292107714,0.3434419619259123,0 32.65412690418637,0.3431254407699452,0 32.65419068462639,0.3428733020333014,0 32.65425442664111,0.3426213288347325,0 32.65413037639589,0.3423631685080286,0 32.65400677759919,0.3420419379429602,0 32.65394488763145,0.3419131455680555,0 32.65363330487459,0.3417763141254211,0 32.65344727119401,0.3415807645485584,0 32.65288564416507,0.3413649594207493,0 32.65263654139436,0.3412256939932925,0 32.65238654019062,0.3411459338159539,0 32.65213876578476,0.3410087200287016,0 32.65189129466455,0.3408059201787699,0 32.65164408483236,0.3407334692406254,0 32.65139736075614,0.3405967844310396,0 32.65115150906649,0.34039545583539,0 32.65090657586041,0.340197576333186,0 32.65066234179346,0.3400032880020374,0 32.6504190009762,0.3397461405767245,0 32.6502372189363,0.3394887194802139,0 32.65005300685458,0.3394817099666969,0 32.64980918620782,0.3393509551677612,0 32.64950519313349,0.3391608755006532,0 32.64913855482349,0.3390956515538689,0 32.64889508345637,0.3389712963002599,0 32.64871352879812,0.3387881072654938,0 32.64846969823122,0.3386674075194253,0 32.6482248199126,0.3386084708441181,0 32.6480432092394,0.3384228530700007,0 32.64786296251963,0.3381716971775181,0 32.64768204257241,0.3379821591584151,0 32.64743793460431,0.3379170915305891,0 32.64725835994205,0.337665153938893,0 32.64707675065276,0.3375383847848931,0 32.6468348932664,0.3373496896965351,0 32.64665493074949,0.3371015094039042,0 32.64641226352934,0.3369748046762832,0 32.64604771452763,0.3368456357559072,0 32.64580393693126,0.3368404665846272,0 32.64550156174155,0.3367694386912762,0 32.64513859018096,0.3366978920033079,0 32.64483359080737,0.3366934715598849,0 32.64464973515781,0.3366925115741319,0 32.64433999542998,0.3366967935701831,0 32.6441510457647,0.33676400953123,0 32.64390166277636,0.3367688982912621,0 32.64365235900934,0.3368926219777622,0 32.64328680468085,0.3369447252282868,0 32.64310273912623,0.3370028657062611,0 32.64266774929759,0.3371864495583071,0 32.64260413322432,0.3372490234215681,0 32.64235379650485,0.3373733309026146,0 32.64209886784953,0.3375637984331636,0 32.64190799860088,0.337690942442563,0 32.64159614549384,0.3378138000891984,0 32.64128772941516,0.3378114948721432,0 32.64103639777914,0.3379358775598558,0 32.64078342056017,0.3380621192410749,0 32.64046775143195,0.338188717379575,0 32.64021206161902,0.3383781977632639,0 32.63990020843387,0.3384391694972379,0 32.63970814025501,0.3386267067347338,0 32.63939044386697,0.3388152321581035,0 32.63926152127198,0.3389411643134871,0 32.63906879727345,0.3391292912213252,0 32.63887583118039,0.3393176670335952,0 32.63856101876893,0.3393809350494682,0 32.63837678472932,0.3392557090377207,0 32.63813166197907,0.3390678778731876,0 32.63782197104129,0.3389428419183064,0 32.63763572404942,0.3388803421934513,0 32.63732584506565,0.3387552332039006,0 32.63701390479766,0.3386927969777773,0 32.63670193162893,0.3386302090857111,0 32.63632516283494,0.3386301697785932,0 32.63607381430792,0.3386301429574168,0 32.63588196441067,0.3387549772733473,0 32.63575139730141,0.3390034144529994,0 32.6354980483114,0.3391882220420647,0 32.6353067595949,0.3393737504684143,0 32.63511540524441,0.3395593857466166,0 32.6349244688694,0.339744338646163,0 32.63473432659066,0.3399292206528329,0 32.63460460612956,0.3401769972590676,0 32.63447810080153,0.3403609970871158,0 32.6341038992629,0.3404193480634193,0 32.63385735332839,0.3403536578752238,0 32.6336114527663,0.3402873763155027,0 32.6333671960794,0.3401587511694638,0 32.63324816715348,0.3399084381931996,0 32.63312880137123,0.3396585328651403,0 32.63300777517378,0.339409803202851,0 32.6328284167655,0.3391577072056005,0 32.63264849949899,0.3389674060029559,0 32.63246866495479,0.3387771890176841,0 32.63228891396852,0.3385870529162457,0 32.63217104562612,0.3383978812339523,0 32.63192966518358,0.338207086211489,0 32.63168636525226,0.3380788050476127,0 32.63137828646723,0.3380127549709246,0 32.63106975821423,0.3379469837868446,0 32.63082392069417,0.3378815507677952,0 32.63058096750852,0.3377533029272493,0 32.63033867865258,0.3376247857345039,0 32.6301583849169,0.3374970882210588,0 32.62991901647857,0.3373060220772681,0 32.62980993837464,0.3369910222760911,0 32.62982854328373,0.3366147893305945,0 32.62984023447765,0.3364257934791556,0 32.62997295450369,0.3361172489568481,0 32.63010718825996,0.3358693511704984,0 32.63030438835482,0.3356218496975662,0 32.63049409044599,0.3354999142024135,0 32.63080891830622,0.3353176560326073,0 32.63099846190003,0.335195818331279,0 32.63130617509037,0.3351388777343944,0 32.6316105665363,0.3351444162731401,0 32.63191468514433,0.3351501826791911,0 32.6322779544347,0.3351577251829366,0 32.63252007781664,0.3351630741395341,0 32.63276358258563,0.3351677322250172,0 32.63307109002778,0.3351721592817631,0 32.63331579160354,0.3352375152638852,0 32.63362224938334,0.3353036805297077,0 32.63393080670951,0.3353076689809166,0 32.63417361949698,0.3354352503072014,0 32.63435214853673,0.3356857510045758,0 32.63447123151597,0.3358732307595365,0 32.63446497876975,0.3361213747950851,0 32.63458255928651,0.3363710542603351,0 32.63475852705765,0.3366849283509536,0 32.63493758736835,0.3368748389002715,0 32.63511978110996,0.3370628021437433,0 32.63536476478221,0.3372509439431861,0 32.6356117450568,0.3373765625412937,0 32.63585869176978,0.3375021556478557,0 32.63616668829224,0.3376901360587614,0 32.63641222494685,0.337877763399252,0 32.63665956587013,0.338002894740862,0 32.63697101787592,0.3380657995927356,0 32.63715701245504,0.3381285896749883,0 32.63753300198189,0.3381286521455436,0 32.6377835856868,0.3381286029343168,0 32.63797531132255,0.3380033324742917,0 32.63823221103633,0.3378147633274091,0 32.63842615614278,0.3376265774718206,0 32.6386217590894,0.3373762810990899,0 32.63887605457045,0.3372506595361474,0 32.63912920754158,0.3371866406346711,0 32.63938710070529,0.3369362100474707,0 32.63957843721976,0.3367503709516523,0 32.63976826598115,0.3365660319573599,0 32.6399590892182,0.3363806470527457,0 32.64015033539658,0.3361950477082354,0 32.64041300136865,0.3360004622202729,0 32.64066918979962,0.335811885057912,0 32.64092354959434,0.3356250176886503,0 32.64111413755302,0.3354398384392993,0 32.64123882076623,0.3352583629887765,0 32.64148565237379,0.3353194153572038,0 32.64179208651792,0.3353824600520221,0 32.64203808781286,0.3352636450902357,0 32.64222268143912,0.3351443660843154,0 32.64258847950342,0.3351498320422321,0 32.64289360036272,0.3351540363604186,0 32.64313838656685,0.3351568284234436,0 32.6434452481375,0.3352187295577463,0 32.64363231032662,0.3352158829172106,0 32.64394159213928,0.3351542266979783,0 32.64424926162067,0.3350944093617711,0 32.64449251039945,0.3350985590823514,0 32.64479248608522,0.3350511814832683,0 32.64503240338675,0.3350619042273839,0 32.6452726031043,0.3351917092411155,0 32.64545316214465,0.3353781999022986,0 32.64569498826022,0.335506076868437,0 32.64599877960971,0.3355743187949317,0 32.64618161578149,0.3355787511820656,0 32.64642424285555,0.3357650291325628,0 32.6466060429557,0.3359491870975952,0 32.64678838482892,0.3361313188046832,0 32.64703077644008,0.3363180023134128,0 32.64727221272807,0.3365666040213967,0 32.64745405651185,0.3366922928344858,0 32.64769636061318,0.3368802126603296,0 32.64793802540442,0.3371290272232971,0 32.64805962303422,0.3371926384313983,0 32.64830245823435,0.3373781564999946,0 32.64848424465273,0.3375599735033765,0 32.6487891788279,0.3376785672629963,0 32.64891241011593,0.3376183359611661,0 32.64915934602026,0.3374428229423163,0 32.64940418554067,0.3374488401744009,0 32.64964609579732,0.3376985413931255,0 32.64976710663695,0.3378238865309649,0 32.64994815647304,0.3380023029361054,0 32.65012897844333,0.3381807561693541,0 32.65043393628425,0.3382443927535128,0 32.65067798684629,0.3383771126528768,0 32.65098392585334,0.3385123860107086,0 32.65122942888273,0.3385835815761327,0 32.65147475268226,0.3387170367147825,0 32.65184393689838,0.3388565575728395,0 32.65215247283668,0.3389308242946173,0 32.65233746549467,0.3389997085759762,0 32.65258470014543,0.3390714185360051,0 32.65289503654648,0.3391479849101469,0 32.65320627307401,0.3392892706173655,0 32.65351867319212,0.3394320966918682,0 32.65370502308922,0.3396923231827648,0 32.65395526594521,0.3398945478884727,0 32.65408009406945,0.3400263690546919,0 32.6542673755747,0.3401600268936926,0 32.65458139742979,0.3400469069118051,0 32.65483273313476,0.3399306333534851,0 32.65514671178862,0.3398794981724299,0 32.65552131101014,0.3398255804109223,0 32.65570818666959,0.3397657901850594,0 32.65595749584156,0.3396444210480249,0 32.65614471799935,0.3394590131578002,0 32.65627018677046,0.3392103442334167,0 32.65627197322701,0.3388978331273746,0 32.65633614496345,0.3385239211415462,0 32.656337528848,0.3382112162694925,0 32.65633951183349,0.3378996519191143,0 32.65640422024332,0.3374645287319683,0 32.65646878634259,0.3370295971077043,0 32.65647026503093,0.3367807344819636,0 32.65647129477991,0.3365940642366264,0 32.65653443102778,0.3363459197663223,0 32.65641329192069,0.3359094463766851,0 32.65641364526621,0.3358473316423902,0 32.65635400824834,0.3354740496615438,0 32.65629327866022,0.3352870890485237,0 32.65617166161219,0.3349755046767833,0 32.65611178610444,0.3346648120352539,0 32.65598939253984,0.3344149936307665,0 32.65599142795737,0.3341054837496422,0 32.6559316218063,0.3337952824085353,0 32.65599458277961,0.3335483926549537,0 32.65599630948567,0.3332391462195498,0 32.65593581465603,0.3330530265584853,0 32.65593791121575,0.3326823271754374,0 32.65587781172691,0.3324346753536728,0 32.65581810479359,0.3321254455272691,0 32.65575843073557,0.3318164009551149,0 32.65563772036198,0.3314452351890418,0 32.65545453025086,0.3312583431220645,0 32.65520948043726,0.3310705098605465,0 32.65508795575192,0.3308227424434727,0 32.65496693446156,0.3305136330346494,0 32.65484653957264,0.33014333487308,0 32.65491084995691,0.3297757240770373,0 32.65503472268762,0.3296545373948252,0 32.65528190332409,0.3294735624612467,0 32.65546750983906,0.3292918605841406,0 32.65559200332974,0.329048130312217,0 32.65571643857889,0.3288045146439786,0 32.65571836811058,0.3284982115247558,0 32.6557816913347,0.3281928675410094,0 32.65584495879799,0.327887706986891,0 32.65590804443787,0.3275827250585862,0 32.65603207853414,0.3273398087426896,0 32.65615625360718,0.327097000980565,0 32.65640340433808,0.3267947966383145,0 32.65634364129221,0.3265499118870804,0 32.65634538697047,0.3261840511478212,0 32.65628565383641,0.325878610422043,0 32.6562256885986,0.3256342412058174,0 32.65616589922512,0.3253292080441414,0 32.65616612050256,0.3250862884796551,0 32.65635041576243,0.324845624778885,0 32.65647347931065,0.3246649562169229,0 32.65671939750985,0.3244856623826051,0 32.6569650774322,0.3243064104367532,0 32.65727293173421,0.3241275513957393,0 32.65757893170691,0.3239494710284034,0 32.65788449061147,0.3237716258946913,0 32.65818928225185,0.3236546559531815,0 32.65855565115682,0.3235382244093135,0 32.65886083522174,0.3235421176909535,0 32.65916600921602,0.3235460115892694,0 32.65910512328724,0.323303075226229,0 
					</coordinates>
				</LinearRing>
			</outerBoundaryIs>
		</Polygon>
		<atom:link rel="app" href="https://www.google.com/earth/about/versions/#earth-pro" title="Google Earth Pro 7.3.6.10201"></atom:link>
	</Placemark>
</Document>
</kml>
