<?xml version="1.0" encoding="UTF-8"?>
<kml xmlns="http://www.opengis.net/kml/2.2" xmlns:gx="http://www.google.com/kml/ext/2.2" xmlns:kml="http://www.opengis.net/kml/2.2" xmlns:atom="http://www.w3.org/2005/Atom">
<Document>
	<name>Kampala_Kasubi.kml</name>
	<StyleMap id="m_ylw-pushpin">
		<Pair>
			<key>normal</key>
			<styleUrl>#s_ylw-pushpin</styleUrl>
		</Pair>
		<Pair>
			<key>highlight</key>
			<styleUrl>#s_ylw-pushpin_hl</styleUrl>
		</Pair>
	</StyleMap>
	<Style id="s_ylw-pushpin">
		<IconStyle>
			<scale>1.1</scale>
			<Icon>
				<href>http://maps.google.com/mapfiles/kml/pushpin/ylw-pushpin.png</href>
			</Icon>
			<hotSpot x="20" y="2" xunits="pixels" yunits="pixels"/>
		</IconStyle>
		<LineStyle>
			<width>0.6</width>
		</LineStyle>
		<PolyStyle>
			<color>ffffae6f</color>
		</PolyStyle>
	</Style>
	<Style id="s_ylw-pushpin_hl">
		<IconStyle>
			<scale>1.3</scale>
			<Icon>
				<href>http://maps.google.com/mapfiles/kml/pushpin/ylw-pushpin.png</href>
			</Icon>
			<hotSpot x="20" y="2" xunits="pixels" yunits="pixels"/>
		</IconStyle>
		<LineStyle>
			<width>0.6</width>
		</LineStyle>
		<PolyStyle>
			<color>ffffae6f</color>
		</PolyStyle>
	</Style>
	<Placemark>
		<name>Untitled Polygon</name>
		<styleUrl>#m_ylw-pushpin</styleUrl>
		<Polygon>
			<tessellate>1</tessellate>
			<outerBoundaryIs>
				<LinearRing>
					<coordinates>
						32.55063593986169,0.3345748931720166,0 32.55063994628296,0.3345900508687666,0 32.55064373343253,0.3346102940817112,0 32.55064730379829,0.3346356538009543,0 32.55065110774038,0.3346559926676038,0 32.5506692782571,0.3346712938572043,0 32.5506975650141,0.3346712781660481,0 32.55073016431858,0.3346814317286781,0 32.55074884844525,0.3346864450718773,0 32.55075827260671,0.3346864639319773,0 32.55077651082783,0.3347020448937962,0 32.55078978982493,0.3347229781296386,0 32.55080291905865,0.3347491367134591,0 32.55081583868174,0.3347807143023153,0 32.55082447436741,0.3348018607509819,0 32.55083321578029,0.3348227229225433,0 32.55084648236561,0.334849167901836,0 32.55085995328691,0.3348705126487449,0 32.55086367902305,0.3348973994483274,0 32.55087238779969,0.334919055073263,0 32.55087661507962,0.3349350037162827,0 32.5508854267655,0.3349564528104216,0 32.55088436271247,0.3349882789759694,0 32.55088382633953,0.3350088015429961,0 32.55087855084783,0.3350335462923076,0 32.550873029013,0.3350638803476352,0 32.55086754059873,0.3350896125246182,0 32.55085698386338,0.3351165037342185,0 32.55084162388092,0.3351386500030775,0 32.55083075559599,0.33516674706507,0 32.55081527176807,0.3351892685182343,0 32.55079996602849,0.3352062468669781,0 32.55077499576108,0.3352228136893011,0 32.55074515181966,0.3352394074718182,0 32.55072023119659,0.3352556105723707,0 32.55070026032556,0.3352712678682857,0 32.55066551060894,0.3352921426805433,0 32.5506406927113,0.3353075977983377,0 32.55062068461919,0.3353230775807623,0 32.55060071550236,0.3353338637028488,0 32.55058075672878,0.33534460390255,0 32.55054573824914,0.3353657799306002,0 32.55051587772505,0.3353813195420064,0 32.55049551055924,0.3353976712480186,0 32.55045983203814,0.3354251799343395,0 32.55044969993212,0.3354308047515788,0 32.55042916282607,0.3354474948460908,0 32.55041354410147,0.33546409834284,0 32.55038800311919,0.3354809222104272,0 32.55035731871998,0.3354982889332513,0 32.55033655411677,0.3355153432013238,0 32.55031094316189,0.3355320152240266,0 32.55029021130638,0.3355487769239018,0 32.55026591815375,0.3355431452024585,0 32.55024740318415,0.3355259893429973,0 32.55022930607382,0.3355032442179529,0 32.55021648533829,0.3354751149532628,0 32.55019313026769,0.335458222462549,0 32.55017495663633,0.3354361713479072,0 32.55015154849148,0.3354196480919153,0 32.55013843897034,0.3353973840346453,0 32.55012052692349,0.3353752021896967,0 32.55011156007743,0.3353640120797965,0 32.55008887728658,0.3353418251927044,0 32.5500710486205,0.335319792000257,0 32.55005815567063,0.3352977140054137,0 32.5500402495321,0.3352761140924185,0 32.55002752254076,0.3352493479884332,0 32.55000966555931,0.3352278672824849,0 32.54999184530546,0.3352064310326848,0 32.54998336415667,0.3351903457464985,0 32.54997045939455,0.335168951283349,0 32.54995715932468,0.335152962660661,0 32.54993946970805,0.335131669035612,0 32.54993064353996,0.335121029197623,0 32.54991782247438,0.3350997978398732,0 32.54990899858551,0.3350892347543349,0 32.54989091584656,0.3350735446825295,0 32.54987801089224,0.33505269479695,0 32.5498603165818,0.3350318983415121,0 32.54984785593589,0.335005905916173,0 32.54983077534934,0.3349797688181711,0 32.54981378938161,0.3349536110439574,0 32.54980123164404,0.3349326615097469,0 32.54978870025525,0.3349117556523646,0 32.54977619560491,0.3348908935892056,0 32.54977276817362,0.3348753175821744,0 32.5497650989755,0.3348544881544094,0 32.54975777918474,0.3348287127872237,0 32.54974593159908,0.3347982375622901,0 32.54973944668036,0.3347669382721377,0 32.54974109469735,0.3347511333519328,0 32.54973938146696,0.3347244543348072,0 32.5497325828194,0.3347028225234917,0 32.5497315083457,0.3346708698526006,0 32.54973451965916,0.334644467546898,0 32.54973800322757,0.3346130381172558,0 32.54973571198626,0.3345920569823154,0 32.5497390685062,0.3345609762401506,0 32.54973739502854,0.3345348893961689,0 32.54973969750949,0.3345142165113985,0 32.54974257194754,0.3344884359235079,0 32.5497505274954,0.3344577824990683,0 32.5497703202933,0.3344430943638882,0 32.54978838464639,0.334443809852059,0 32.54981607945682,0.3344397213164789,0 32.54984321114311,0.3344407937486973,0 32.54987148795588,0.334431541544676,0 32.54989920153398,0.3344274501256586,0 32.54993215292839,0.3344181641669432,0 32.54996008036046,0.3344137393658405,0 32.54998858865672,0.3344041153464787,0 32.5500073631607,0.3343994660394545,0 32.55002613883299,0.3343948248103826,0 32.55004949130251,0.3343902795308711,0 32.55006474074914,0.3343751371354369,0 32.55008962299278,0.3343550291139328,0 32.5501098718327,0.3343348918654694,0 32.55012097827031,0.3343146045009269,0 32.55013101953595,0.3343046587072647,0 32.55014608057327,0.3342897365141365,0 32.55016072050374,0.334279801239122,0 32.55018036205586,0.3342648886681428,0 32.55019953129931,0.3342550451565111,0 32.55021454285649,0.3342401138698674,0 32.55023865443375,0.334225333025041,0 32.55025767706182,0.3342156583081895,0 32.55027198047048,0.3342061659759558,0 32.55029115362001,0.3341918791913231,0 32.55030998575472,0.3341824626908904,0 32.55032459708436,0.3341680805012463,0 32.55034801919589,0.334158620118174,0 32.55036207715055,0.3341537535155675,0 32.55038098144696,0.3341441560250522,0 32.5503992729969,0.3341442298902157,0 32.55041728829882,0.3341491236040363,0 32.55043644693296,0.3341346392444895,0 32.55045110551512,0.3341199968339688,0 32.55046547315158,0.3341101880885102,0 32.55047575669597,0.3340908480597373,0 32.55048171579181,0.3340667538949957,0 32.55049198390996,0.3340474477497219,0 32.55049316798698,0.334028095899273,0 32.55049435346983,0.3340088004710803,0 32.5504960222315,0.3339800829599138,0 32.55049717319375,0.3339566882861753,0 32.55049882263351,0.333928172210364,0 32.55050016979651,0.333908773162697,0 32.55050203643528,0.3338800265168221,0 32.55050313859962,0.3338653875433469,0 32.55050904579147,0.3338460366361068,0 32.55051149046885,0.3338164773419583,0 32.55051317149993,0.3337967562292229,0 32.55051087502957,0.3337720558125336,0 32.55050863448457,0.3337473959587482,0 32.55050648676024,0.3337226923468186,0 32.55049940625938,0.3337030777650859,0 32.55049619715214,0.3336886297996927,0 32.55048889088331,0.3336695496396346,0 32.55048176126184,0.3336461386148704,0 32.55047062365198,0.333618107387843,0 32.55045833661493,0.3336043035314722,0 32.55045511644698,0.3335860674585657,0 32.55044724073558,0.3335723635083773,0 32.55043996631377,0.3335496342462094,0 32.55043245323117,0.3335314253032389,0 32.55042035485919,0.333517638431253,0 32.55041328728159,0.3334948864859046,0 32.55040158164619,0.3334766624958503,0 32.55038626688637,0.3334494556886609,0 32.55037500191483,0.333426834907984,0 32.55036807858424,0.3334043117935391,0 32.55035231326089,0.3333820775456257,0 32.55034859885857,0.3333732283262413,0 32.55034121280448,0.3333555407588435,0 32.55032959805892,0.3333377810025746,0 32.55031834194156,0.3333156688314412,0 32.5503064670926,0.3333023818213897,0 32.55028524719484,0.333301987907198,0 32.55026404083689,0.3333015943718188,0 32.55024689963962,0.3333014567147125,0 32.55022935939433,0.3333057533094806,0 32.55020782400434,0.3333056883437426,0 32.55019025765035,0.3333100010379754,0 32.55017267648738,0.333314322142946,0 32.55015508763584,0.333318645338218,0 32.55013747110457,0.3333229911332645,0 32.55011545150025,0.3333273987963364,0 32.5500973928492,0.3333361739814418,0 32.55007928255522,0.3333449860209163,0 32.55006114089898,0.3333538141636,0 32.55003858573764,0.3333627310276515,0 32.55002015247997,0.3333717967950974,0 32.55000169422923,0.3333808538586821,0 32.54997937292313,0.3333854520308607,0 32.54996579806003,0.333389981814677,0 32.54994764395803,0.3333987775256542,0 32.54991675055231,0.3334032345452464,0 32.54989503972612,0.3334032045780081,0 32.5498729271417,0.3334075889208151,0 32.54985080805925,0.3334119549117134,0 32.54982859252951,0.3334163986745934,0 32.54980681093384,0.3334164163781475,0 32.54978112415547,0.3334120125685289,0 32.5497467357464,0.3334076191205096,0 32.54972609060717,0.3333986355563579,0 32.54970167391348,0.3333852305300713,0 32.54967349367821,0.3333674162901504,0 32.54966169649564,0.3333584482779876,0 32.54964189634542,0.3333449914226298,0 32.54961533634616,0.3333181953447079,0 32.54960449199774,0.3333046825874957,0 32.54958352414533,0.3332733165887664,0 32.54957696355458,0.3332599619416111,0 32.54956328072555,0.3332377233748652,0 32.5495538188077,0.3332156278660915,0 32.54954433351686,0.3331936333182489,0 32.54954725669235,0.3331719757024258,0 32.54953770322939,0.3331501912664088,0 32.54953945792012,0.3331372612884736,0 32.54953408203832,0.3331156468051237,0 32.54952808653335,0.3330984196760952,0 32.54952262092716,0.3330769894740979,0 32.54951773952941,0.333051378346255,0 32.54951287501852,0.3330258601989549,0 32.54950728480169,0.3330047329339518,0 32.54950527049179,0.3329879133327231,0 32.54950842471266,0.332962816259278,0 32.54950696518582,0.3329419096774298,0 32.54950907693595,0.332925258814117,0 32.54951229405255,0.3329003313750183,0 32.5495187428494,0.3328837048281672,0 32.54952259024806,0.3328586578046905,0 32.54953004710237,0.3328378211776787,0 32.54953744405321,0.3328170695247348,0 32.54954350843003,0.332804660933254,0 32.54955099379635,0.3327839701738976,0 32.54955308098831,0.3327715552520471,0 32.54956481178353,0.3327509310602189,0 32.54957560705183,0.3327345557068596,0 32.54958631449358,0.3327182429914695,0 32.54960183949103,0.3326978691644675,0 32.54961629453605,0.3326856110224048,0 32.54963090093336,0.332669461320124,0 32.54964601755464,0.3326493322894628,0 32.54965179912097,0.3326372777018466,0 32.54966403114959,0.3326053498415517,0 32.54966450041604,0.332601377511021,0 32.54967492405495,0.3325815739891999,0 32.54968128659431,0.332561805050409,0 32.54969203507253,0.3325381785659945,0 32.5496937359376,0.3325224697335878,0 32.54969500622904,0.3325107061009278,0 32.54969754239769,0.3324872285446694,0 32.5496916477705,0.3324676876256163,0 32.54969018648623,0.3324443192376315,0 32.54968468166199,0.3324210177838433,0 32.54968298077414,0.3323978256400721,0 32.54968453871142,0.3323823982589006,0 32.54968978395314,0.3323708396390095,0 32.54970691449161,0.332359326345918,0 32.5497246318799,0.3323439624086028,0 32.54974147794493,0.3323362978568219,0 32.54975494615759,0.3323247688874212,0 32.54977197033486,0.3323170928033806,0 32.54979346995267,0.3323055930358123,0 32.5498064349033,0.3322979370167471,0 32.54982740318633,0.3322902921092646,0 32.54984434390624,0.3322826534118126,0 32.54986126726499,0.332275022402002,0 32.54987772996694,0.3322712128868754,0 32.54989774988837,0.3322712200629109,0 32.54992181395204,0.3322712242404712,0 32.54995403798472,0.3322712140384877,0 32.54997023347826,0.3322711993417287,0 32.54998642899869,0.3322711836968222,0 32.55000667023742,0.3322711643953621,0 32.55002687955157,0.3322711483405608,0 32.5500470351145,0.3322711384942686,0 32.55006315787544,0.3322711307215847,0 32.5500913429027,0.3322711206449352,0 32.55011137160153,0.3322711265001637,0 32.5501314209514,0.3322711295907343,0 32.55015962589627,0.3322711159814983,0 32.55017566212406,0.3322711186099881,0 32.55019557765291,0.3322711412375342,0 32.55021963871437,0.3322711444625885,0 32.55024349313621,0.3322711791041661,0 32.55027080589262,0.3322788295535484,0 32.55029050547605,0.3322826584683136,0 32.55031021778565,0.3322864897297803,0 32.55032956814037,0.3322941588777812,0 32.55034498833421,0.3323018251933144,0 32.55036042593451,0.332309500502308,0 32.55037957599575,0.332321032361435,0 32.55039501735995,0.3323287381962555,0 32.55040239825953,0.3323364532145588,0 32.55041732841232,0.3323518810039881,0 32.55042421777932,0.3323673391389868,0 32.55043544626202,0.3323789605394792,0 32.55043791303493,0.3323983936078436,0 32.55043629967902,0.3324178930033357,0 32.55043498205526,0.3324335437107528,0 32.55043364177884,0.3324492379076873,0 32.55043637983458,0.3324649695980642,0 32.55043492219703,0.3324807846348317,0 32.55044163318344,0.3324966424389026,0 32.55045279364094,0.3325085753253881,0 32.55045919015132,0.3325284951535809,0 32.55046630951621,0.3325404867164829,0 32.5504690536618,0.3325564832458388,0 32.55047152216439,0.3325765094528032,0 32.55047817999471,0.3325965691063136,0 32.55048121877029,0.3326125723886263,0 32.55048400710561,0.3326326157494826,0 32.55048680269115,0.3326527118249696,0 32.55049401946119,0.3326688228113585,0 32.55049293065129,0.3326849859980708,0 32.55049151016292,0.3327052722185834,0 32.55048980036036,0.3327296901750557,0 32.55048838065439,0.3327500953073553,0 32.55048304770083,0.3327664803604818,0 32.55048108155705,0.3327912663145279,0 32.55047910832329,0.3328161472707569,0 32.5504771271735,0.3328411241741468,0 32.5504751383376,0.3328661971163112,0 32.5504731424444,0.3328913683139499,0 32.55047140654084,0.3329164150787052,0 32.55046998775976,0.3329373316854908,0 32.55046461895698,0.332954110062622,0 32.5504634745671,0.3329709217606966,0 32.55046209311659,0.3329919397493815,0 32.55046101960497,0.3330087778359991,0 32.55046417763868,0.3330256416295286,0 32.55046709490193,0.3330467545191628,0 32.55047429920013,0.3330678993664904,0 32.55047751181604,0.3330848699420325,0 32.55048525113177,0.3330976193838979,0 32.55049263468672,0.3331147467358565,0 32.55049988374383,0.3331320810949631,0 32.55050716880618,0.3331494399739937,0 32.55051916486337,0.3331623833635467,0 32.55053123905027,0.3331752848311447,0 32.55054333262043,0.3331882067540318,0 32.55055518362821,0.3332054790635027,0 32.55056274004632,0.3332228133446551,0 32.55056599757564,0.3332402029679578,0 32.55057336240065,0.3332619279905957,0 32.55058535255042,0.3332792911469581,0 32.55058840959484,0.3333011619478731,0 32.55059597875596,0.3333187928152471,0 32.55059889796171,0.3333409909739271,0 32.55059746459897,0.3333632925420582,0 32.55059603970165,0.3333856619792865,0 32.55059888032183,0.333408196461345,0 32.55060201554745,0.333426306475204,0 32.55060925143435,0.3334489661687907,0 32.55061272172219,0.3334626104359522,0 32.55062030392948,0.3334808025532003,0 32.55063263220521,0.3334943804244049,0 32.55064025707009,0.3335126543210563,0 32.55065263433791,0.333526285329781,0 32.55066427953069,0.333549463919565,0 32.55067658506325,0.3335634206443603,0 32.55068418463784,0.3335820977099141,0 32.55070066165655,0.3336007745800046,0 32.55071275203724,0.3336195325435624,0 32.55072918230109,0.3336385877342805,0 32.55073706385142,0.3336530101131121,0 32.55075403963384,0.3336670476689666,0 32.55078510710856,0.3336711842507649,0 32.5508072025406,0.3336755475757323,0 32.55082482887431,0.3336799967556957,0 32.5508424615448,0.3336844474977242,0 32.55086035688659,0.3336841081378664,0 32.55088271530974,0.3336836837078411,0 32.5509005626504,0.3336834325393009,0 32.55092292100459,0.333678784834475,0 32.55094504968704,0.3336789292279738,0 32.55096323025547,0.3336693374901712,0 32.55099016534251,0.3336599792933742,0 32.55099936598678,0.3336505939978279,0 32.55101325719738,0.3336362296968288,0 32.55102736061447,0.333617009637541,0 32.55104588845666,0.3335976038153218,0 32.55105988793991,0.3335784800180536,0 32.55108199626378,0.3335739197112871,0 32.5511039143837,0.3335741301983706,0 32.55112178889824,0.3335647652367554,0 32.55113963120676,0.3335554520674612,0 32.55116182112596,0.333546203774924,0 32.55118396764576,0.3335369838694495,0 32.55119731824085,0.3335278785360441,0 32.55121939306594,0.3335188062236114,0 32.55124145067745,0.3335096839701757,0 32.55125046197132,0.3334959630535174,0 32.55126800905413,0.3334914875515046,0 32.55128134293261,0.3334778205469811,0 32.55129472511551,0.3334596127409957,0 32.55130379388571,0.3334368734957601,0 32.5513127727404,0.3334187336285607,0 32.55131312126116,0.3333960128511053,0 32.55130906980602,0.3333778853317361,0 32.55130942824326,0.3333553182532383,0 32.55130971289971,0.3333373178346008,0 32.55131013850504,0.3333104134923671,0 32.55130602361851,0.3332971316518211,0 32.5513063296272,0.3332751611824057,0 32.55131516008927,0.3332576268726572,0 32.55132820325291,0.3332444998924251,0 32.55134545861903,0.333235756104322,0 32.55137135958014,0.3332181592541714,0 32.55138000667741,0.3332093737501935,0 32.5513971941148,0.3332005758089941,0 32.55141008761402,0.3331918276688518,0 32.55142725067548,0.3331787967043436,0 32.55144011698661,0.3331658059133036,0 32.55145722029295,0.3331528234227106,0 32.55147427309923,0.333144199024253,0 32.55149556897102,0.3331355742252264,0 32.55151684298868,0.3331355110767911,0 32.5515338639118,0.3331354646494695,0 32.5515508789169,0.3331354242946698,0 32.55157639909017,0.3331353638929746,0 32.55159766390261,0.3331353133063425,0 32.55161470460479,0.3331395612485317,0 32.55164022585311,0.333139505508146,0 32.55165724023805,0.3331394769887763,0 32.55167425330553,0.3331394485215821,0 32.55169546896597,0.3331351377368005,0 32.55171235915208,0.3331265785830479,0 32.55172918146327,0.3331137861100776,0 32.55174599550545,0.3331010946600912,0 32.55176279532816,0.3330884711793198,0 32.55177963598547,0.3330800541157831,0 32.55180073954963,0.3330757687035055,0 32.55182191171087,0.3330757254353091,0 32.55184731433418,0.3330756652046178,0 32.55186424836221,0.3330756251630891,0 32.55189804881797,0.3330753821836792,0 32.55191495504037,0.3330753038243836,0 32.55193187994637,0.3330752634391347,0 32.5519486838201,0.3330709854755763,0 32.55196560401649,0.3330709454402137,0 32.55198269395621,0.3330752389058627,0 32.55199978133468,0.333079504322821,0 32.5520168788796,0.3330837723202695,0 32.55202991285152,0.3330923341587948,0 32.55203089394479,0.3331181180202845,0 32.55202762472663,0.3331440024915756,0 32.55202383809247,0.3331569453834303,0 32.55202462891052,0.3331785834466989,0 32.55202539405425,0.3332002320132666,0 32.55202580955336,0.3332131535524107,0 32.55202650352922,0.3332347357006028,0 32.55203148782921,0.3332563758839485,0 32.55203203800284,0.3332737003023249,0 32.55203689761307,0.3332910959226926,0 32.5520376638056,0.3333129618194791,0 32.55203825244182,0.3333305064929958,0 32.55204332827451,0.3333525122007724,0 32.55204393935402,0.3333701623495682,0 32.55204458684738,0.3333879339357941,0 32.55204562483132,0.3334148100594859,0 32.55204226919621,0.3334375882371144,0 32.55203435199641,0.3334558525497267,0 32.55202195592499,0.333469813648075,0 32.55200961226585,0.3334840433716763,0 32.55199268264946,0.3334936835566695,0 32.55198026617989,0.3335079828635801,0 32.55196364033638,0.3335270627414145,0 32.55194722296129,0.3335512241964367,0 32.55193888734679,0.3335609642462599,0 32.55192654541579,0.3335804270759132,0 32.55191854316125,0.3335998891252457,0 32.5519061109302,0.3336195079809059,0 32.55189803219231,0.3336390973384095,0 32.55189021300321,0.3336683024515459,0 32.55189088959799,0.3336877794747256,0 32.55189172496299,0.3337121986616324,0 32.55189234056891,0.3337315515605345,0 32.55189742247473,0.3337509315374048,0 32.55192497040575,0.3337747532491145,0 32.55194332562599,0.3337890562280056,0 32.55197562363779,0.3338176430904464,0 32.55199867656511,0.3338366087531242,0 32.55202149989347,0.3338503724771038,0 32.55205829518075,0.3338782322644553,0 32.5520676013552,0.3338876165062534,0 32.55209051621941,0.3339014575685133,0 32.55210909581603,0.3339199942594873,0 32.55212751947077,0.3339337356660659,0 32.55214576936976,0.3339427069130539,0 32.55215983041619,0.3339568488695692,0 32.55216993233029,0.3339853298951683,0 32.55217102809427,0.3340139990080059,0 32.55217158432242,0.3340283873965615,0 32.55216795678476,0.3340524201210816,0 32.55216875944251,0.3340718806554542,0 32.55216510089666,0.3340959652759381,0 32.55216119914657,0.3341151046728084,0 32.5521526804426,0.3341341583611994,0 32.55213959858752,0.3341576622849221,0 32.552126240278,0.3341717709727961,0 32.55212227405693,0.3341953085051687,0 32.55210877637757,0.3342047674314708,0 32.55208133169366,0.3342049846447736,0 32.55205396225968,0.3342055021830795,0 32.5520266960466,0.3342107790370328,0 32.55201310724242,0.3342158164626817,0 32.55199035606194,0.3342209849865357,0 32.55196759028065,0.334226147116289,0 32.55194960631258,0.3342409476390715,0 32.55192689515487,0.3342509893696976,0 32.55190865554533,0.3342561458896449,0 32.55189515736805,0.3342665675327689,0 32.55187235073425,0.3342721655031532,0 32.55184959616704,0.3342826442428607,0 32.55183579531873,0.3342828844775741,0 32.55181277072758,0.3342831719467218,0 32.55178513148552,0.3342834055529131,0 32.55176205942564,0.3342834506763414,0 32.55172052253489,0.3342832096135099,0 32.55168816114313,0.3342780544895395,0 32.55167893203589,0.3342779758929016,0 32.55165121221687,0.3342728643047576,0 32.55161895483081,0.3342729889945403,0 32.55160512679931,0.3342730243358245,0 32.55159123219104,0.3342583687572758,0 32.55157735846002,0.3342437567613658,0 32.55156809397618,0.3342243538864283,0 32.55154968342524,0.3342148360471139,0 32.55153128528526,0.3342005482235211,0 32.55150832259587,0.3342010060405919,0 32.55148535015633,0.3342010160145486,0 32.55147154236801,0.3342057630661248,0 32.55144856686219,0.3342056462938093,0 32.551425620598,0.3342053623197545,0 32.55141179071087,0.3342150709453398,0 32.55139330612527,0.3342297692047577,0 32.55137937039206,0.3342493330938238,0 32.55135633710037,0.3342537687444456,0 32.55133780583375,0.3342681266738053,0 32.55131470276906,0.3342731202246542,0 32.55129617346847,0.3342783456678969,0 32.5512637606726,0.3342838057843915,0 32.55124526539323,0.3342841134226209,0 32.55122221704682,0.3342795726698481,0 32.55118987873052,0.3342798101265977,0 32.55116679113078,0.3342798392711726,0 32.55114371740869,0.3342798664009214,0 32.55112545186543,0.3342701334413868,0 32.55110242041371,0.3342699889150235,0 32.55107018014363,0.3342697460791562,0 32.55105168382618,0.3342699674455957,0 32.55102855843872,0.3342702447180016,0 32.55101467998069,0.3342704106366042,0 32.55099141285932,0.3342755711336901,0 32.55096815359834,0.3342806423760272,0 32.55095890751454,0.3342806922205873,0 32.55093116638951,0.3342808440718127,0 32.55090327941959,0.3342858398702767,0 32.55088000128052,0.3342908172214501,0 32.55085208195239,0.3342958188317658,0 32.5508287750226,0.3343008022289494,0 32.55080506581912,0.3343156876671814,0 32.55079056667122,0.3343305611666746,0 32.55077163239577,0.3343405616111805,0 32.55075281758544,0.3343500967033092,0 32.55073401308762,0.3343595708974327,0 32.55071981700156,0.3343690865251287,0 32.55069595130342,0.3343883787626158,0 32.55068606921575,0.3344031134971687,0 32.55067612874183,0.3344179980649152,0 32.55066573575743,0.3344428559744448,0 32.55065997963801,0.3344677618713615,0 32.55065464651321,0.3344827479845752,0 32.5506486548309,0.3345083442605299,0 32.55063826143983,0.334528802299771,0 32.55061849263802,0.3345492671546749,0 32.55063593986169,0.3345748931720166,0 
					</coordinates>
				</LinearRing>
			</outerBoundaryIs>
		</Polygon>
		<atom:link rel="app" href="https://www.google.com/earth/about/versions/#earth-pro" title="Google Earth Pro 7.3.6.10201"></atom:link>
	</Placemark>
</Document>
</kml>
