<?xml version="1.0" encoding="UTF-8"?>
<kml xmlns="http://www.opengis.net/kml/2.2" xmlns:gx="http://www.google.com/kml/ext/2.2" xmlns:kml="http://www.opengis.net/kml/2.2" xmlns:atom="http://www.w3.org/2005/Atom">
<Document>
	<name>Kampala_Bwaise.kml</name>
	<StyleMap id="m_ylw-pushpin">
		<Pair>
			<key>normal</key>
			<styleUrl>#s_ylw-pushpin</styleUrl>
		</Pair>
		<Pair>
			<key>highlight</key>
			<styleUrl>#s_ylw-pushpin_hl</styleUrl>
		</Pair>
	</StyleMap>
	<Style id="s_ylw-pushpin">
		<IconStyle>
			<scale>1.1</scale>
			<Icon>
				<href>http://maps.google.com/mapfiles/kml/pushpin/ylw-pushpin.png</href>
			</Icon>
			<hotSpot x="20" y="2" xunits="pixels" yunits="pixels"/>
		</IconStyle>
		<LineStyle>
			<width>0.6</width>
		</LineStyle>
		<PolyStyle>
			<color>ffffae6f</color>
		</PolyStyle>
	</Style>
	<Style id="s_ylw-pushpin_hl">
		<IconStyle>
			<scale>1.3</scale>
			<Icon>
				<href>http://maps.google.com/mapfiles/kml/pushpin/ylw-pushpin.png</href>
			</Icon>
			<hotSpot x="20" y="2" xunits="pixels" yunits="pixels"/>
		</IconStyle>
		<LineStyle>
			<width>0.6</width>
		</LineStyle>
		<PolyStyle>
			<color>ffffae6f</color>
		</PolyStyle>
	</Style>
	<Placemark>
		<name>Bwaise Flood</name>
		<description>Bwaise Flood Area</description>
		<styleUrl>#m_ylw-pushpin</styleUrl>
		<Polygon>
			<tessellate>1</tessellate>
			<outerBoundaryIs>
				<LinearRing>
					<coordinates>
						32.56761859797103,0.3519446234604431,0 32.56761883384137,0.3519629742117014,0 32.56760117055046,0.3520088424596481,0 32.56758369148019,0.3520457623981866,0 32.56757522069812,0.3520735465654935,0 32.56753941559514,0.3521013493419625,0 32.56749448656882,0.3521291622031866,0 32.56746781126871,0.352157009750842,0 32.56743175762941,0.3521755544269303,0 32.56739546125372,0.3521848032028638,0 32.56734067553289,0.3521847460253102,0 32.56728568427098,0.3521754165631903,0 32.56724873157804,0.3521567866123148,0 32.56719333127408,0.3521288849196227,0 32.56716576005677,0.3521195952622,0 32.56711042020299,0.3520917487681183,0 32.56705508640682,0.352063894215417,0 32.56700909642583,0.3520453313471646,0 32.56698154988315,0.3520360520403561,0 32.56694468308352,0.3520174930178771,0 32.56690762142136,0.3519896612810194,0 32.5668705579878,0.3519618296155254,0 32.56684261031114,0.3519340049179266,0 32.56681446538691,0.3518969173969673,0 32.56679543319593,0.3518598449527015,0 32.56676710358659,0.3518135274372536,0 32.56674808791851,0.3517764762562732,0 32.56671996056848,0.3517394441953099,0 32.56670097247292,0.3517024351982113,0 32.5666725144975,0.3516469728715845,0 32.56666322773579,0.3516377326869595,0 32.56664428215978,0.3516007871479599,0 32.56661663003243,0.351582317756884,0 32.56656150927702,0.3515546117811567,0 32.56654296292324,0.3515361562244086,0 32.56650624762618,0.3515177027698472,0 32.56646953953471,0.3514992528575181,0 32.56643301834486,0.3514900277892979,0 32.56640505097124,0.351453146907717,0 32.56636801220099,0.3514162782827836,0 32.56633111987492,0.3513885956527442,0 32.5662669862768,0.3513609026036885,0 32.56622139302563,0.3513516565692474,0 32.56616661098826,0.3513332568370922,0 32.56614829559544,0.3513240543110631,0 32.56611166777078,0.3513056504576039,0 32.56607505078455,0.3512872520792445,0 32.56602920682911,0.3512596573781734,0 32.56599260697123,0.3512412678554888,0 32.56595601380455,0.3512228817972703,0 32.56590130673354,0.3512045226868648,0 32.56588302503128,0.351195418662138,0 32.56583741411894,0.3511769940195229,0 32.56580098345617,0.3511677950099001,0 32.56576442075994,0.3511494222719224,0 32.56571892900651,0.3511402250229346,0 32.56568251756625,0.3511310353757113,0 32.56564597662878,0.3511126704688973,0 32.56560037571236,0.3510943063800215,0 32.5655547826351,0.3510759458594332,0 32.56551825435884,0.3510575619738864,0 32.56546344434883,0.3510300036127028,0 32.56542689488963,0.3510116044968041,0 32.56537233840514,0.3510023565433601,0 32.56533593071762,0.3509931348586816,0 32.56529965498918,0.3509930647669343,0 32.56527218562339,0.3509746632180524,0 32.56523588668122,0.3509746279663952,0 32.56515425180582,0.3509744819894154,0 32.56510890806158,0.3509744084750898,0 32.56506378410261,0.3509926629845763,0 32.56503657475137,0.3509926153867429,0 32.5649913361685,0.3510017074966885,0 32.56495516526916,0.3510108158196757,0 32.56490085309449,0.3510198928222427,0 32.56486468382553,0.3510290124348901,0 32.56483747536178,0.3510289732538395,0 32.56479223101849,0.3510380488856077,0 32.56476502019632,0.3510379950205041,0 32.56471976733599,0.3510470826593087,0 32.56468348360607,0.3510470070884414,0 32.56463822320978,0.3510560864365256,0 32.56460202942336,0.3510651894941393,0 32.56456583067776,0.3510742755519797,0 32.56450250029414,0.3510924766986641,0 32.56449342785398,0.3510924531395283,0 32.56444817225753,0.3511015614147901,0 32.56440304076823,0.3511199350895332,0 32.56436683785527,0.3511290714246353,0 32.56432151647411,0.3511290539346563,0 32.56426715763326,0.3511290443744831,0 32.56421280985416,0.3511290455424622,0 32.56415844866769,0.3511290524630525,0 32.5641131152593,0.3511289796629274,0 32.5640677906952,0.3511289371783403,0 32.56402241796347,0.3511197293816833,0 32.56399523696899,0.3511197255788948,0 32.56396799090192,0.3511105214200041,0 32.56393168895497,0.3511013165230547,0 32.56388618121519,0.3510826951827593,0 32.56384083915018,0.3510644072926577,0 32.56380455915198,0.3510552524078732,0 32.56375923457657,0.3510460876984492,0 32.56373186179211,0.3510093289654472,0 32.56370455094968,0.3509817737938995,0 32.56367725271333,0.3509542351440818,0 32.56364996227018,0.3509267024367987,0 32.56362268156141,0.3508991797308402,0 32.56358635973734,0.3508716817826811,0 32.56355914852252,0.3508533477256074,0 32.56353191599477,0.3508259281996361,0 32.56350463417782,0.3507893037474136,0 32.56347740144329,0.3507618597725071,0 32.56344116674733,0.350734541586772,0 32.56339591523036,0.3507072700584843,0 32.56335973388848,0.3506891202079218,0 32.5633325850913,0.3506709310523705,0 32.56328740720569,0.3506619486327599,0 32.56324219888015,0.3506438053427558,0 32.5631879621504,0.350625686289788,0 32.56315180663264,0.3506166268200251,0 32.56310661449673,0.3506075909925747,0 32.56307047315914,0.3506076414476781,0 32.56303432346775,0.3506076857941186,0 32.5629891451282,0.3506077236090882,0 32.56294398825915,0.350616883734815,0 32.56289880639602,0.3506260538530188,0 32.56287169617921,0.3506352104654771,0 32.56283554286695,0.3506443761882395,0 32.56279938689317,0.3506444055438549,0 32.56275417515466,0.3506445049000175,0 32.56269993996046,0.3506354686919149,0 32.56263665857379,0.3506355563302583,0 32.56259145390856,0.3506356197327724,0 32.56255528883779,0.3506356699494394,0 32.56251010302455,0.350617550624798,0 32.56247394435219,0.3506085461211916,0 32.56242876492366,0.3505904088071519,0 32.56237457828284,0.3505722003553245,0 32.5623384545475,0.3505448873352646,0 32.5622842835884,0.3505267058894649,0 32.56225719197233,0.3505176148058914,0 32.56222109070473,0.3504994173118358,0 32.56218499537859,0.3504812227864823,0 32.56213983691683,0.3504721524719873,0 32.56210375179538,0.3504539623997827,0 32.56205860477235,0.3504448893920507,0 32.56202251783778,0.3504267011731077,0 32.56196838462051,0.3504085095107694,0 32.56195037437998,0.3503993888063969,0 32.56190525929899,0.3503902746444231,0 32.56185110043947,0.3503812025091827,0 32.56181497425464,0.3503722004436062,0 32.56176984966474,0.3503541228460335,0 32.56171573863688,0.3503360389408545,0 32.56167069304676,0.3503087724694381,0 32.56163456258492,0.3503088469284276,0 32.56158938275406,0.3503088528647838,0 32.56154423680051,0.3503088507996922,0 32.56149006144791,0.3503088488733921,0 32.56143593622964,0.3502997647108739,0 32.56139981804218,0.3502997596416967,0 32.56135474889872,0.3502906570758681,0 32.56128265919416,0.350272458986189,0 32.56122863437833,0.3502542664241187,0 32.56117447608509,0.350254263396859,0 32.56112944694654,0.3502451278181087,0 32.56108434914142,0.3502450943393103,0 32.56103917831164,0.3502541003704238,0 32.56095799162598,0.350254029518393,0 32.56093084810579,0.3502631249271566,0 32.56089475478638,0.3502631080918554,0 32.56084954950182,0.3502721832001651,0 32.56081318105144,0.3502994568959473,0 32.56078591800389,0.3503176462781269,0 32.56074962326201,0.3503358368967517,0 32.56072225670032,0.3503631438001811,0 32.5606859642249,0.3503813044546075,0 32.56064073770253,0.3503903768200136,0 32.56060445604755,0.3504085902470275,0 32.56057703355474,0.3504358825216767,0 32.56054952964843,0.3504723150436823,0 32.56053104714746,0.3505087677696702,0 32.5605124515645,0.3505543551289654,0 32.56051190388867,0.3505999947010774,0 32.56051157014798,0.3506273967742612,0 32.56048388647605,0.3506730697987585,0 32.56044714513406,0.3507187597953588,0 32.56042882659403,0.3507370401083356,0 32.56041027094204,0.3507736206100371,0 32.56039147042068,0.3508285227633914,0 32.56037289838913,0.3508651252175685,0 32.56034524215606,0.3509017592544721,0 32.56032665228194,0.3509384174733446,0 32.56032604516574,0.3509842729839783,0 32.56030755150476,0.3510117961972913,0 32.56027986264355,0.3510485044285949,0 32.5602522986436,0.3510760470333118,0 32.56019794287363,0.3510760145962952,0 32.56015278581372,0.3510668011859303,0 32.56011683253468,0.3510484100716651,0 32.56008088570603,0.3510300228517625,0 32.56004494858363,0.3510116395131632,0 32.56000913844954,0.350984063659849,0 32.55996446321038,0.3509473329397135,0 32.55994665640072,0.3509289771741844,0 32.55991105565725,0.3508922775557483,0 32.5598932637474,0.3508739330714222,0 32.55987578324054,0.3508372615477329,0 32.55984911338306,0.3508097577504946,0 32.5598316481754,0.3507731137230727,0 32.55980499644539,0.3507456308077186,0 32.55977835291729,0.3507181562542633,0 32.55975171807556,0.3506906907789814,0 32.5597250927114,0.3506632429340995,0 32.55968927911248,0.3506449395778534,0 32.55964460634031,0.3506174761053552,0 32.55960897383885,0.3505900408740497,0 32.5595733999388,0.3505625951943592,0 32.55951962628126,0.3505442524382764,0 32.55948372253462,0.3505350734386394,0 32.55943898416593,0.3505167431178142,0 32.55939427448837,0.350498416651183,0 32.55934032182211,0.3504892506465266,0 32.55929512045063,0.3504892801896375,0 32.5592591640131,0.3504801661502663,0 32.55921417095109,0.3504710586863717,0 32.55916899919671,0.3504710713230237,0 32.55913378383754,0.3504434894898018,0 32.55908957769989,0.3504159102023003,0 32.55904539247925,0.3503883453772996,0 32.55901017854552,0.3503608474872491,0 32.55897441539469,0.3503336849143712,0 32.55894811993856,0.3502972839502289,0 32.55892153418057,0.3502700530080182,0 32.5588863035194,0.3502336166296592,0 32.55886874527588,0.350215390919882,0 32.55884261253745,0.3501789913413302,0 32.55881610692958,0.3501517761373576,0 32.55878043401748,0.350133622796875,0 32.55875380375422,0.3501154617455743,0 32.55871837615271,0.350088226711907,0 32.55868273654264,0.3500700825487173,0 32.55865611557905,0.3500519327053689,0 32.5586207100514,0.3500247214181185,0 32.55858551452293,0.3499884506992778,0 32.55854112722597,0.3499612554173276,0 32.55851474986502,0.349934069283008,0 32.55846117685977,0.3499159468331337,0 32.55841682363975,0.3498887726754736,0 32.55837226975852,0.3498706600088155,0 32.55833650442798,0.3498616023923168,0 32.55830977145375,0.3498525332471318,0 32.55826509231834,0.3498434552863295,0 32.55823815679195,0.3498434342005886,0 32.55818491313413,0.3498162612554039,0 32.55814064494122,0.3497891019185196,0 32.55810537801068,0.3497619621967493,0 32.55807930493484,0.3497258048441287,0 32.55805281601835,0.3497077212609361,0 32.55802654720764,0.3496806125599332,0 32.55800049980516,0.3496444872975444,0 32.55797425440659,0.3496173989780322,0 32.55794823635226,0.3495812925451748,0 32.55792222944249,0.3495452001455722,0 32.55789601382859,0.3495181339757123,0 32.55786063989253,0.3495000785277931,0 32.55782548859204,0.3494730202788243,0 32.55779059407418,0.3494369566376542,0 32.55776398087077,0.349427927035764,0 32.55771970818765,0.3494098820992645,0 32.5577119069328,0.3493648702627644,0 32.55771258965095,0.34933787307941,0 32.55772266938276,0.3492929085570016,0 32.55772380613826,0.3492479569691955,0 32.55773386187986,0.3492030407595916,0 32.55775259543093,0.3491671327260779,0 32.55777133704008,0.3491312304160041,0 32.55779922540646,0.3490863748009937,0 32.55781774752689,0.3490594680576884,0 32.5578541102313,0.3490325823284409,0 32.55789024338183,0.3490146710594855,0 32.5579263720395,0.3489967622903166,0 32.55797098176805,0.3489967965936676,0 32.55800673240721,0.348996806970672,0 32.55803368518219,0.3489967855766457,0 32.55809539475212,0.3490059221033383,0 32.55812182176234,0.3490149415211081,0 32.55816642072694,0.3490149839077042,0 32.55820175041398,0.3490329513033013,0 32.55824635959593,0.3490329943156475,0 32.55828205015739,0.3490330288922762,0 32.55835366845113,0.3490330456139045,0 32.55840739077056,0.3490330580618931,0 32.55845233745787,0.349024098306836,0 32.5584702449099,0.3490241025775845,0 32.55852414174351,0.3490151450354653,0 32.55859638803966,0.3489971661770472,0 32.55863284283884,0.3489881021179378,0 32.55867895447655,0.3489699504598259,0 32.5586981579229,0.3489518203248602,0 32.55874445867151,0.3489425747574026,0 32.55878157931308,0.3489244544551472,0 32.55882689024902,0.3489154165680863,0 32.55886309452426,0.3489064124751244,0 32.5589173076563,0.3488884717912306,0 32.55897143420216,0.3488705498784772,0 32.55901638122265,0.3488615901695682,0 32.55906109994426,0.3488615920058152,0 32.55912348347368,0.3488705476267991,0 32.5591500981086,0.3488795090431125,0 32.55920380076062,0.3488795010537954,0 32.55924855230415,0.348879494543494,0 32.55930212160506,0.3488884329979898,0 32.55934694739429,0.3488884099190383,0 32.55942737090779,0.3488884227767823,0 32.55949884314918,0.3488884545586539,0 32.55954354176575,0.3488973653091009,0 32.55957961217373,0.348897290475616,0 32.55960665954196,0.3488972343777466,0 32.55965173205719,0.3488971408126351,0 32.5596877824297,0.3488970661912496,0 32.5597418847842,0.3488969356224659,0 32.55977770228948,0.3489058409691887,0 32.55981322809332,0.3489237255284292,0 32.55984858807664,0.3489327437924163,0 32.55989236007009,0.3489508505774372,0 32.55992784101345,0.3489687757868157,0 32.55997229633362,0.3489866928821153,0 32.56000772438517,0.3490046413560944,0 32.56003419399909,0.3490226005185502,0 32.56008768432,0.3490405103961873,0 32.56013209412656,0.3490673879743461,0 32.56016769253376,0.3490853050711528,0 32.56022107133444,0.3491032779794818,0 32.56024775841868,0.3491122691894705,0 32.56029219467408,0.3491302527837969,0 32.56032784035911,0.3491392504788548,0 32.56039017859769,0.3491572552756217,0 32.56045292575852,0.3491661580630246,0 32.56047981717607,0.3491661479162492,0 32.56051568888851,0.3491839737988925,0 32.56056948483021,0.34920179164838,0 32.56060542582945,0.34921065424218,0 32.56064138560443,0.3492284258727384,0 32.56067733311355,0.349246199374345,0 32.56072214514214,0.3492640171101655,0 32.56076719804123,0.3492638499219649,0 32.56080325776636,0.3492637020598857,0 32.56084821121618,0.3492635740309242,0 32.56089313694606,0.3492634658718689,0 32.56093801023619,0.3492634010014975,0 32.56098281414918,0.3492633641673887,0 32.56103657592623,0.3492633200442093,0 32.5610724150502,0.3492632906027365,0 32.56112631005828,0.3492720630262184,0 32.56118028229338,0.3492807659130583,0 32.5612162901993,0.3492895083065249,0 32.56126126002544,0.3492982268955466,0 32.56130623275084,0.3493069309795215,0 32.56135123437369,0.3493155908308986,0 32.56139608289902,0.3493154602753555,0 32.56146799378955,0.3493328927172338,0 32.56147695179509,0.3493328728434327,0 32.56152171943274,0.3493416973108258,0 32.56155739535202,0.349359581232776,0 32.56159307212869,0.3493685611226987,0 32.56166463404396,0.3494041074054355,0 32.56168252323,0.3494129936088718,0 32.56172703674519,0.3494310099339193,0 32.56178055053797,0.3494489368697635,0 32.56181623936138,0.3494668988186231,0 32.56186075363705,0.3494938885999144,0 32.56190552457713,0.349502701647566,0 32.56194092196479,0.3495211001821502,0 32.5619766305915,0.3495301330114559,0 32.56202117216375,0.3495483002300562,0 32.5620658813324,0.3495572828321834,0 32.56211922644057,0.3495847550612121,0 32.56216407564824,0.3495934411671295,0 32.56219086620773,0.3496025066413392,0 32.56222642181999,0.3496209999442223,0 32.5622709073272,0.349639638196333,0 32.56230640334211,0.3496585506513507,0 32.56233316494752,0.3496679069462121,0 32.56237797269532,0.3496771354864858,0 32.56241384726011,0.3496770458190295,0 32.56246755532623,0.3496865306756641,0 32.56250334882681,0.3496959023047542,0 32.56255710849902,0.3497053960588162,0 32.5626288743534,0.3497240637411838,0 32.56269171912663,0.349732982051834,0 32.56270968647534,0.3497329098905527,0 32.56275458594114,0.349741892192961,0 32.56279948023487,0.3497416390343237,0 32.56283540904087,0.3497321939587746,0 32.56287130434141,0.349722881005119,0 32.56292510664438,0.3497042873318598,0 32.56296087654142,0.3496850746185217,0 32.56300551297372,0.3496656767272118,0 32.56305014307927,0.3496557625705157,0 32.56309472903759,0.3496369925952094,0 32.56312148674538,0.3496277017427006,0 32.56317515775905,0.3496010599324854,0 32.56320208184959,0.3495925265502579,0 32.5632380955979,0.3495933733241229,0 32.56328327204174,0.3495947832465345,0 32.56331938424307,0.3495956236371043,0 32.56336441669637,0.3495962361411932,0 32.56340937154954,0.3495965443805284,0 32.56345436497758,0.3495969341002953,0 32.56350821696437,0.349597001561414,0 32.56354416608303,0.3495971219290915,0 32.56358009786512,0.3495972111834622,0 32.56363395252257,0.349588311776021,0 32.56367876025608,0.3495703344353995,0 32.56372358560029,0.3495613328565945,0 32.56375942397322,0.3495523236497403,0 32.56380415322431,0.3495342531618373,0 32.5638489280474,0.3495252067816977,0 32.56389372229413,0.3495161985472571,0 32.56393857988261,0.3495072821787168,0 32.56398360864103,0.3495164390958712,0 32.56402849643907,0.3495164945428453,0 32.56406445933072,0.3495255134027702,0 32.56410936846768,0.3495345260424388,0 32.56415414519581,0.3495344320996241,0 32.56419001583509,0.349543331175378,0 32.56423469518011,0.3495431553022275,0 32.56427043901153,0.3495519592246064,0 32.56431497217165,0.3495516531848974,0 32.56435942134001,0.3495602155657523,0 32.56442189823377,0.3495599539440903,0 32.56444866612654,0.3495687671020192,0 32.56450275936422,0.3495690590867535,0 32.56454815365675,0.3495695484504995,0 32.56459317649657,0.3495786414366073,0 32.56460218255511,0.34957867306352,0 32.56465617857798,0.3495877730534542,0 32.56470993683249,0.3495966567992997,0 32.5647456138055,0.3496054253619189,0 32.56479048936867,0.3496054632235919,0 32.56481737896082,0.3496233231153561,0 32.56486248634429,0.3496324586290923,0 32.56488956210218,0.3496415211368233,0 32.56494368548402,0.3496596225329824,0 32.56497982407852,0.3496687487489635,0 32.56501604867758,0.3496779391968952,0 32.56506137417869,0.3496961547209777,0 32.5650976430198,0.3497143059958928,0 32.56514294654491,0.3497324950264249,0 32.56517001725503,0.3497325910440862,0 32.56521534435915,0.3497507879455709,0 32.56525146105373,0.349759870603327,0 32.56527856562818,0.3497689304204905,0 32.56532378052194,0.3497870389890681,0 32.56536893164891,0.3497961487827148,0 32.56540511809638,0.3498052685761686,0 32.565450329226,0.3498144112949474,0 32.56548650683565,0.3498235194548018,0 32.56553173104479,0.3498416135827038,0 32.56557703381856,0.3498597672997055,0 32.56563152199375,0.3498869959794447,0 32.5656587040963,0.3498960896315965,0 32.56569490555369,0.3499051997107207,0 32.56573139945365,0.3499324158838081,0 32.56576805177943,0.3499686986761193,0 32.56580442764886,0.3499868778764284,0 32.5658320501856,0.3500231542490792,0 32.5658684740325,0.3500413529998068,0 32.56591384311096,0.3500505572453645,0 32.56594113868038,0.3500597126403862,0 32.56597765714191,0.3500779773409952,0 32.56601422111171,0.3500962713317195,0 32.5660598495106,0.3501056238666767,0 32.56609657306137,0.3501240103069859,0 32.56614177951049,0.3501331009854029,0 32.56617848930004,0.3501424908930099,0 32.56621657350277,0.3501616894343256,0 32.56627120845224,0.3501710175379697,0 32.56630794129126,0.350198379427936,0 32.56636110079514,0.3502157616841338,0 32.5664065989288,0.3502429680261523,0 32.56646056764054,0.3502518558736609,0 32.56647885935647,0.3502609949306591,0 32.56652476437547,0.3502704793611532,0 32.56655215575682,0.3502796573420585,0 32.56659768222675,0.3502888931050985,0 32.56663414576516,0.3502981010300761,0 32.56668842846066,0.3503071902661617,0 32.56671532975838,0.3503070824358722,0 32.56675143339898,0.3503160801968949,0 32.56679677380029,0.3503341846370413,0 32.56684227234031,0.3503434088858389,0 32.56687900664643,0.350361731878747,0 32.5669155772722,0.3503799759178015,0 32.56694297193329,0.3503981561220799,0 32.56698870176442,0.3504254760173435,0 32.56702547080359,0.3504528358447715,0 32.56705359615728,0.3504894230274721,0 32.56708136151727,0.3505078007381998,0 32.56710923578262,0.3505352560470844,0 32.56713708231179,0.3505626925703625,0 32.56717422675201,0.3505992897887427,0 32.56721143404533,0.3506359317381134,0 32.56723972994759,0.3506726564646996,0 32.56728576969197,0.3507001757550275,0 32.56732282052649,0.3507277286422212,0 32.56735980335763,0.3507552374002613,0 32.56739702164067,0.3507919111911427,0 32.56741564706851,0.3508102601129066,0 32.5674437790369,0.3508469259703964,0 32.56747140709235,0.3508652397844731,0 32.56749974400594,0.350902049009183,0 32.56752784207035,0.3509387090093999,0 32.56755560810457,0.3509661511428347,0 32.56758338107727,0.3509935995335653,0 32.56761121125779,0.3510210797605127,0 32.56763987686875,0.3510671477272969,0 32.56766856068468,0.3511132444814831,0 32.56768794471905,0.3511501760434863,0 32.56770733964456,0.3511871257987848,0 32.5677278324685,0.3512338399787896,0 32.56774788016244,0.351271247860909,0 32.56775915354645,0.3513088784664918,0 32.56777230884014,0.3513749582770408,0 32.56777375087233,0.3514031029198836,0 32.56777484428316,0.3514400994071994,0 32.56778476141609,0.3514678529080055,0 32.56777675088384,0.3515139200944566,0 32.56775901585235,0.3515414551751371,0 32.56776004088459,0.3515965890986197,0 32.56775121243398,0.3516239950494868,0 32.56773310961782,0.3516694213885364,0 32.56771433216538,0.3517052781161679,0 32.5676862670923,0.3517409768314718,0 32.56765945515127,0.3517776329239218,0 32.56764275407077,0.3518150738164893,0 32.56763520205845,0.35186165586042,0 32.5676087473893,0.3518986480407391,0 32.56757244889413,0.3519260115512551,0 32.56761859797103,0.3519446234604431,0 
					</coordinates>
				</LinearRing>
			</outerBoundaryIs>
		</Polygon>
		<atom:link rel="app" href="https://www.google.com/earth/about/versions/#earth-pro" title="Google Earth Pro 7.3.6.10201"></atom:link>
	</Placemark>
</Document>
</kml>
