<?xml version="1.0" encoding="UTF-8"?>
<kml xmlns="http://www.opengis.net/kml/2.2" xmlns:gx="http://www.google.com/kml/ext/2.2" xmlns:kml="http://www.opengis.net/kml/2.2" xmlns:atom="http://www.w3.org/2005/Atom">
<Document>
	<name>Kampala_Katwe.kml</name>
	<StyleMap id="m_ylw-pushpin">
		<Pair>
			<key>normal</key>
			<styleUrl>#s_ylw-pushpin</styleUrl>
		</Pair>
		<Pair>
			<key>highlight</key>
			<styleUrl>#s_ylw-pushpin_hl</styleUrl>
		</Pair>
	</StyleMap>
	<Style id="s_ylw-pushpin">
		<IconStyle>
			<scale>1.1</scale>
			<Icon>
				<href>http://maps.google.com/mapfiles/kml/pushpin/ylw-pushpin.png</href>
			</Icon>
			<hotSpot x="20" y="2" xunits="pixels" yunits="pixels"/>
		</IconStyle>
		<LineStyle>
			<width>0.6</width>
		</LineStyle>
		<PolyStyle>
			<color>ffffae6f</color>
		</PolyStyle>
	</Style>
	<Style id="s_ylw-pushpin_hl">
		<IconStyle>
			<scale>1.3</scale>
			<Icon>
				<href>http://maps.google.com/mapfiles/kml/pushpin/ylw-pushpin.png</href>
			</Icon>
			<hotSpot x="20" y="2" xunits="pixels" yunits="pixels"/>
		</IconStyle>
		<LineStyle>
			<width>0.6</width>
		</LineStyle>
		<PolyStyle>
			<color>ffffae6f</color>
		</PolyStyle>
	</Style>
	<Placemark>
		<name>Katwe</name>
		<styleUrl>#m_ylw-pushpin</styleUrl>
		<Polygon>
			<tessellate>1</tessellate>
			<outerBoundaryIs>
				<LinearRing>
					<coordinates>
						32.57799805148679,0.3046015644007258,0 32.5779548661449,0.3045583459603101,0 32.57791164506261,0.30451526983922,0 32.57786845090052,0.3044720824793759,0 32.57782527795794,0.3044288216306814,0 32.57779652010061,0.304385522907649,0 32.57775339398924,0.3043133812118224,0 32.57772459881234,0.3042702133515014,0 32.5777102545806,0.304198130819593,0 32.57766709638744,0.3041549087419053,0 32.5776385355344,0.3040681652430549,0 32.5775954433675,0.3039961188589633,0 32.57756671060589,0.3039385169035422,0 32.57753793486126,0.3038809812100843,0 32.57753801317546,0.3038089646509291,0 32.57752367598928,0.3037369982702327,0 32.57750932296519,0.3036794369351492,0 32.57748055182233,0.3036075276032322,0 32.57746615702901,0.3035643861411071,0 32.57743747347064,0.3034492709407642,0 32.57742324978135,0.3033629146435661,0 32.57739452488137,0.3032910086597888,0 32.57739461277588,0.3032047178929266,0 32.57738014203888,0.3031472289243171,0 32.57738008919777,0.3030753432841743,0 32.57738002549698,0.3029890700982885,0 32.57738003999556,0.302917170324126,0 32.57739461012009,0.3028452972820559,0 32.57739473278351,0.3027878132886777,0 32.57740926595162,0.3027303576036968,0 32.5774093483849,0.3026728974307309,0 32.57742376959586,0.3025866963438165,0 32.57740932836015,0.3025291787341001,0 32.57740926508095,0.3024572850183391,0 32.57740923052628,0.3023854001347189,0 32.57740925523257,0.3023279199963076,0 32.57740930962417,0.3022560972766843,0 32.57740936551735,0.3021842908276958,0 32.5774237946134,0.3021412362783574,0 32.57743824385955,0.3020551159045755,0 32.57743840263397,0.3019834603519727,0 32.57743851843062,0.3019117773960591,0 32.57743858435936,0.3018544097156584,0 32.57743869875755,0.301754038672373,0 32.57742436140177,0.3016966323222473,0 32.57742441083822,0.3016536273594123,0 32.57739572539185,0.3015531642049252,0 32.57738137325281,0.3015101006256029,0 32.57736702978783,0.301438318144007,0 32.57735265339841,0.3013808628676574,0 32.57733822623223,0.3012945899714404,0 32.577338200121,0.3012227449601181,0 32.57733836270658,0.3011656207574503,0 32.57733886977079,0.3010948422462567,0 32.57735332230416,0.3010806980695666,0 32.57738213026953,0.3010091973696643,0 32.57743979130375,0.3009237979944606,0 32.57748306287963,0.3008670682541451,0 32.57754126779275,0.3008265272281016,0 32.57759906602304,0.3007995434792281,0 32.57768540044457,0.3007583973700738,0 32.57774270102058,0.3007587828464985,0 32.57778562958821,0.3007589598178726,0 32.57785711157968,0.3008018739602727,0 32.57791431865517,0.3008163290358125,0 32.57797150167068,0.3008449591324047,0 32.57804295582617,0.3008878571438295,0 32.57810014594327,0.3009166113260929,0 32.57817165214114,0.300974616688518,0 32.57822881702822,0.3010325798892659,0 32.57825738373274,0.3010902822253733,0 32.57828592851884,0.3011479357337586,0 32.57831447021513,0.3012196307523777,0 32.57831446765511,0.3012768181491104,0 32.5783430064457,0.3013481313720582,0 32.57835727741463,0.301419401071186,0 32.57837154850738,0.3014764363366233,0 32.57841435110402,0.3015620941468158,0 32.57844286164621,0.3016479016703336,0 32.57847137939477,0.3017050286578444,0 32.57849994870223,0.3017904261193479,0 32.57854275259486,0.3018474955222792,0 32.57859980159381,0.3019189057139888,0 32.57862840177096,0.3019757785644488,0 32.57867131096749,0.3020183430539894,0 32.57872860754328,0.3020750234159179,0 32.57874306181719,0.3021175412727409,0 32.57880021612974,0.3021746550653433,0 32.57884305523933,0.3022175532876113,0 32.57890012130841,0.3022747730640626,0 32.57898578193783,0.3023319400922639,0 32.5790571744486,0.3023890832750074,0 32.57912853619992,0.3024319597845251,0 32.57919989007118,0.3024748312907109,0 32.57927115110679,0.3025177379310524,0 32.57934269939137,0.3025462311857015,0 32.57941425749301,0.3025747374164878,0 32.57951432713497,0.3025889911661477,0 32.57960018633246,0.3026175156680501,0 32.57968593536473,0.3026317920359434,0 32.57975740811737,0.3026460677373203,0 32.57978596386827,0.3026460718743799,0 32.57992865763781,0.3026603889413609,0 32.58001454088139,0.3026889282950022,0 32.58007181943517,0.3027031939131649,0 32.58014350702364,0.3027460242748128,0 32.58018686047834,0.3028174293964053,0 32.58020168311432,0.3028602771949052,0 32.58023103386967,0.3029174430782918,0 32.58027493910254,0.3029889633593964,0 32.58031868582066,0.3030462312022648,0 32.58036245684599,0.303117864780386,0 32.58040612476722,0.3031608904979177,0 32.58046467876687,0.3032183350070527,0 32.58052280519029,0.303247100579694,0 32.58058078221255,0.3032615184032478,0 32.58065324782054,0.3032759585721924,0 32.58072575843744,0.3032904078543296,0 32.58079789797602,0.3032904562716346,0 32.58082735460395,0.3033049096681382,0 32.58091468735716,0.3033050614650594,0 32.58101640706114,0.3033195760297862,0 32.58107458014154,0.3033340367913842,0 32.5811763428218,0.303334181606556,0 32.58124930256045,0.3033486969284536,0 32.58130826724195,0.3033776585716982,0 32.58136843219247,0.3033780058540293,0 32.58144347775777,0.3033928142588592,0 32.58151651689897,0.3034073602401259,0 32.58158885830825,0.3034073921307202,0 32.58166063808348,0.3034073486307542,0 32.58171805167633,0.3034073138958255,0 32.58179018933704,0.3034217382957367,0 32.58186267885397,0.3034506298362826,0 32.58192071841654,0.3034651007275579,0 32.58199320410262,0.3035084236022096,0 32.58203666061145,0.3035517249368002,0 32.58206561739028,0.3035805927954618,0 32.58212324081138,0.303638280996408,0 32.58216648480474,0.3036815529098543,0 32.58222406427923,0.303695955527597,0 32.58231035106477,0.3036959081129605,0 32.58238224883331,0.3036958683379983,0 32.58242545376952,0.3037102837090519,0 32.58249668097343,0.3037245459542046,0 32.58255354361121,0.3037676510256017,0 32.58258168517165,0.3038251827418882,0 32.58259528619222,0.3038970793874864,0 32.58262335570178,0.3039401480363082,0 32.58263699894206,0.3040120136520275,0 32.58265078643191,0.3040838893382499,0 32.58265040260348,0.304170212829769,0 32.58260819003879,0.3041993049904271,0 32.58255173714805,0.3042284669390248,0 32.58250910852352,0.3042718873722862,0 32.58246639943835,0.3043297130859034,0 32.58245169449563,0.3044016868899448,0 32.58245077670377,0.3044878343390106,0 32.58244938185417,0.3045593552850278,0 32.58244798986209,0.3046308258158492,0 32.58244659788249,0.3047022519864246,0 32.58244549825261,0.3047593682921838,0 32.58245863939115,0.3048307785516964,0 32.58245698293392,0.3049163320966106,0 32.58247062274673,0.3049878837966509,0 32.58248428275688,0.3050594270984596,0 32.58248382618886,0.3051167049443754,0 32.58249770944286,0.3051595776947555,0 32.58251135894119,0.3052310623257526,0 32.58252512016661,0.3052882180894894,0 32.58254001638479,0.3053603519255713,0 32.58254106811981,0.3054328216689878,0 32.58254327286753,0.3055203916141216,0 32.58255752999078,0.3055922261555086,0 32.58257176654357,0.30564966386924,0 32.582571894127,0.3057504117946341,0 32.58260071861687,0.3058223761506603,0 32.58261512248359,0.3058942989303238,0 32.58264394422007,0.3059518640003594,0 32.58265858746205,0.3060239580450658,0 32.58265866570462,0.3060815480085692,0 32.58265871499567,0.3061678775530464,0 32.58265876460217,0.3062398333128224,0 32.58265952369828,0.3063123425345389,0 32.58261663567153,0.3063557119651386,0 32.58255961653641,0.3063849133284133,0 32.58251713260448,0.3064286373137848,0 32.58248878161398,0.3064577778981865,0 32.58243199358289,0.3065160187045941,0 32.58237515308596,0.3065742537184412,0 32.58231828206215,0.3066325012658428,0 32.5822613901066,0.3066907704221383,0 32.58220428846133,0.3067200666138779,0 32.58214719598938,0.3067493929803228,0 32.58207581546099,0.3067788692304194,0 32.58201863387362,0.3067937478975895,0 32.58194720403321,0.3068088223046019,0 32.58189007439641,0.3068093819640529,0 32.58181875175965,0.3068246231678753,0 32.58174772621694,0.3068402371424805,0 32.58167694113926,0.3068561852199819,0 32.58160580714005,0.306857368219343,0 32.58156259631095,0.3068430403985755,0 32.58149041442419,0.3068141599212131,0 32.58140406854903,0.3067856087951884,0 32.58133243602852,0.3067574137249671,0 32.58126013012805,0.3067284088446607,0 32.58120239643812,0.3067139993106798,0 32.58113073813121,0.3066858087243802,0 32.58110191279628,0.3066714416294002,0 32.58098642218944,0.3066425910512344,0 32.58092856123765,0.3066135751435611,0 32.58088514063493,0.3065701161400034,0 32.58084174112747,0.306541125130785,0 32.58078387372962,0.30649765193935,0 32.58074046375812,0.3064542021609187,0 32.58068262318675,0.3064251997646482,0 32.58061032712141,0.3063817207117318,0 32.58055259277089,0.3063528663796305,0 32.58046605210892,0.3063241181860725,0 32.58037942300351,0.306295298019117,0 32.58030733958603,0.3062954108250247,0 32.58022119812099,0.306296269673736,0 32.58017795949589,0.306281950549135,0 32.58010611780909,0.306253807452163,0 32.58006268288074,0.3062102496746426,0 32.58000494815186,0.3061814032495102,0 32.57996138185389,0.3061376364801441,0 32.57988896828957,0.3060939151334349,0 32.5798448675507,0.306049076407349,0 32.57980034202453,0.3060033349213576,0 32.57975609253866,0.3059580760903401,0 32.57968328522158,0.3058988675816262,0 32.57962533414577,0.3058693438086318,0 32.57956758523316,0.3058402230807374,0 32.57950992404017,0.3058256823039002,0 32.57946676926588,0.3058113826619144,0 32.57939484986625,0.3057971711478742,0 32.57933732168699,0.3057829710035436,0 32.57927975180102,0.3057830768797479,0 32.5792077843818,0.3057832086908921,0 32.5791789945084,0.305783261133884,0 32.57907822401295,0.3057834463256756,0 32.57902068283419,0.305754925983995,0 32.57896310136919,0.305740688080443,0 32.57890553378169,0.3057121340962847,0 32.57886238084048,0.3056692407742267,0 32.57881921830373,0.3056263372918777,0 32.57877608035901,0.3055547447117646,0 32.5787471874683,0.3054967459503367,0 32.57870388345206,0.305438711150784,0 32.57866058427156,0.3053951517511061,0 32.57861733906191,0.3053516737826059,0 32.57858852877547,0.3052940640686337,0 32.5785453081858,0.3052508140888658,0 32.57847327551833,0.3052075371948976,0 32.57843005790878,0.3051642868765324,0 32.57837243804812,0.3051210264491357,0 32.57831481639209,0.3050921435991082,0 32.57827160423314,0.3050488811956866,0 32.57822839207217,0.3050056200430063,0 32.5782139677466,0.3049333741112032,0 32.57818517514168,0.3048755953757971,0 32.5781563912568,0.3048179521907773,0 32.57811317551024,0.3047748610325134,0 32.57806998118542,0.3047316277050646,0 32.57802678512136,0.3046883718794538,0 32.57799805148679,0.3046015644007258,0 
					</coordinates>
				</LinearRing>
			</outerBoundaryIs>
		</Polygon>
		<atom:link rel="app" href="https://www.google.com/earth/about/versions/#earth-pro" title="Google Earth Pro 7.3.6.10201"></atom:link>
	</Placemark>
</Document>
</kml>
