<?xml version="1.0" encoding="UTF-8"?>
<kml xmlns="http://www.opengis.net/kml/2.2" xmlns:gx="http://www.google.com/kml/ext/2.2" xmlns:kml="http://www.opengis.net/kml/2.2" xmlns:atom="http://www.w3.org/2005/Atom">
<Document>
	<name>Kampala_Kalerwe.kml</name>
	<StyleMap id="m_ylw-pushpin">
		<Pair>
			<key>normal</key>
			<styleUrl>#s_ylw-pushpin</styleUrl>
		</Pair>
		<Pair>
			<key>highlight</key>
			<styleUrl>#s_ylw-pushpin_hl</styleUrl>
		</Pair>
	</StyleMap>
	<Style id="s_ylw-pushpin">
		<IconStyle>
			<scale>1.1</scale>
			<Icon>
				<href>http://maps.google.com/mapfiles/kml/pushpin/ylw-pushpin.png</href>
			</Icon>
			<hotSpot x="20" y="2" xunits="pixels" yunits="pixels"/>
		</IconStyle>
		<LineStyle>
			<width>0.6</width>
		</LineStyle>
		<PolyStyle>
			<color>ffffae6f</color>
		</PolyStyle>
	</Style>
	<Style id="s_ylw-pushpin_hl">
		<IconStyle>
			<scale>1.3</scale>
			<Icon>
				<href>http://maps.google.com/mapfiles/kml/pushpin/ylw-pushpin.png</href>
			</Icon>
			<hotSpot x="20" y="2" xunits="pixels" yunits="pixels"/>
		</IconStyle>
		<LineStyle>
			<width>0.6</width>
		</LineStyle>
		<PolyStyle>
			<color>ffffae6f</color>
		</PolyStyle>
	</Style>
	<Placemark>
		<name>Untitled Polygon</name>
		<styleUrl>#m_ylw-pushpin</styleUrl>
		<Polygon>
			<tessellate>1</tessellate>
			<outerBoundaryIs>
				<LinearRing>
					<coordinates>
						32.568857114608,0.3519524732179226,0 32.5688863755323,0.3519250047033018,0 32.56894238515578,0.3518975306919224,0 32.56898841853363,0.3518793370484491,0 32.5690174772966,0.3518434076385451,0 32.56905481322396,0.3518164812847847,0 32.56908317108476,0.351789616529036,0 32.56911125178928,0.3517629366509018,0 32.56913952889861,0.3517361428607306,0 32.5691677742583,0.3517093788773636,0 32.56919649694901,0.3516737535624694,0 32.56923305575409,0.3516559257741898,0 32.56926169882809,0.351620379196633,0 32.56929868241534,0.3515937298893892,0 32.56930112692585,0.3515494662444722,0 32.56931187072047,0.3515141411796068,0 32.56934818305922,0.3514964793318785,0 32.56939239322409,0.3514964640590628,0 32.56941935477293,0.3514876435276758,0 32.56945510726489,0.3514788363047983,0 32.56949131514267,0.3514612315628723,0 32.56952756548919,0.3514435752553274,0 32.56957175688454,0.3514435328155975,0 32.56960667476135,0.3514523066802434,0 32.56963275222435,0.351461098510187,0 32.56967657568669,0.3514698426939006,0 32.5697297962589,0.3514696485446301,0 32.56976426870288,0.3514873290603189,0 32.56979822177873,0.3515139222405149,0 32.56982345346735,0.3515404907788497,0 32.56981313947285,0.3515757670867175,0 32.56981154225997,0.3516112095127562,0 32.56982759903688,0.3516467411327007,0 32.56986216485637,0.3516645726843879,0 32.56988827352505,0.3516735555172664,0 32.56994113523544,0.3516737872252342,0 32.56998510203088,0.351682680412791,0 32.57000293176493,0.3516826001716721,0 32.57006474461146,0.351691410430889,0 32.57010879882307,0.3517002523465907,0 32.57014332386058,0.3517268917405967,0 32.57016899551569,0.3517535671232207,0 32.57019436925263,0.3517891847031517,0 32.5702197773277,0.3518248504237753,0 32.57023631487403,0.3518605734957383,0 32.57027991654719,0.3518873627899001,0 32.57031498714971,0.351905183240934,0 32.57034117866007,0.3519230127413787,0 32.57038538523902,0.3519320405962025,0 32.57041209127598,0.3519320580775583,0 32.57043908497126,0.3519231039122743,0 32.57049303847667,0.3519052065972052,0 32.57052938095531,0.3518784491897042,0 32.57055672900822,0.3518517774853137,0 32.57060137880612,0.3518429076747546,0 32.57064617888576,0.3518338937048114,0 32.5706818553769,0.3518337452296112,0 32.5707265745279,0.3518247678649726,0 32.57077091677672,0.3518249083326638,0 32.57081511518367,0.3518252956428707,0 32.57086879360892,0.3518247839589,0 32.57091350342289,0.3518243574167357,0 32.57095816686807,0.3518239758039117,0 32.57099386500008,0.3518237048047232,0 32.5710385481258,0.3518232368211556,0 32.57107391847459,0.3518235414716215,0 32.57111830964563,0.3518235960996107,0 32.57115373104666,0.3518324270362396,0 32.57117994731958,0.3518591644651838,0 32.57119713103803,0.3518949073315161,0 32.57120557764232,0.3519217596139111,0 32.57122262489461,0.3519666269471246,0 32.57123094263195,0.3520025860846955,0 32.57121248802653,0.352038627358282,0 32.57119399381784,0.3520747392166493,0 32.57116641953512,0.3521111998052877,0 32.57114776705826,0.3521476610820999,0 32.57113823548447,0.3521750337543097,0 32.57112820046446,0.3522209490049434,0 32.57112694503518,0.3522673770357029,0 32.57115312844324,0.3522953427512843,0 32.57117965497901,0.3523137813486204,0 32.57119679720412,0.3523507931969533,0 32.5712049587258,0.3523966718344582,0 32.57121343959667,0.3524417256418139,0 32.57121301517061,0.3524778364296929,0 32.5712035450784,0.3525140529994848,0 32.57120309963208,0.3525502806704305,0 32.57123889246454,0.3525773680656208,0 32.57127457779188,0.3526048309874584,0 32.57129236599025,0.3526319476350492,0 32.57130997015773,0.352677279738318,0 32.57132765657364,0.3527136596773678,0 32.57135443589688,0.3527412053470523,0 32.57139033207713,0.3527598276887789,0 32.5714171098143,0.3527876193966594,0 32.57144416657054,0.3527968429200625,0 32.57148007144109,0.3528246008697586,0 32.57152516370777,0.3528431457103387,0 32.57156129790241,0.3528524898862292,0 32.57159747168895,0.3528617438262149,0 32.57163359402927,0.3528713525435607,0 32.57167891369543,0.3528713499197435,0 32.57173329098716,0.3528803451271188,0 32.57176952170943,0.3528891570525405,0 32.57179673903381,0.3528983616672879,0 32.57184202037064,0.3529075172282233,0 32.57187823463035,0.3529260431531054,0 32.57192357226933,0.3529353043385871,0 32.57196894194355,0.3529352939099132,0 32.57199613086446,0.3529445944068241,0 32.57202335524949,0.3529445795294492,0 32.5720777998027,0.3529445502480354,0 32.57213226824189,0.352953757397853,0 32.57217764307924,0.3529628274897137,0 32.5722139481453,0.3529627737502667,0 32.57231381461267,0.3529629921570691,0 32.57241371873025,0.3529722236800597,0 32.57245014897965,0.3529999288536649,0 32.57250466243947,0.3529997204508876,0 32.57254100191106,0.3529998002979527,0 32.57261386975834,0.3530098250123312,0 32.57265019776204,0.3530009875960333,0 32.57270477991113,0.3530012524936755,0 32.57275013537695,0.3530009143921457,0 32.57279544864537,0.3530004126307448,0 32.57283168852013,0.3530000114644462,0 32.5728588819693,0.3529997736204584,0 32.57292243586001,0.3529997228392068,0 32.57295884361085,0.3529999993983888,0 32.57298615403613,0.353000207548028,0 32.57303179931451,0.3530096015387846,0 32.57307731033991,0.3530188118441438,0 32.573113927495,0.3530284161903611,0 32.5731413690062,0.3530376952642261,0 32.5731868330604,0.3530377292063201,0 32.57322321717299,0.3530377735399505,0 32.57324138096446,0.3530377268557174,0 32.5733047004135,0.3530281417285174,0 32.57334075917666,0.3530186360659882,0 32.57338612245593,0.353018489257176,0 32.57343164166436,0.3530186960019449,0 32.57348616512438,0.3530187342544623,0 32.57356792760003,0.3530186657054992,0 32.57361338796249,0.3530187291588873,0 32.57365914615274,0.353028167552477,0 32.57372280864472,0.3530282564706264,0 32.57376860494419,0.3530376343589825,0 32.57381456829036,0.3530561586708809,0 32.57385111574834,0.3530652988224663,0 32.57389692279152,0.3530835183140938,0 32.57392459767723,0.35310178824724,0 32.57395257382808,0.3531293708442224,0 32.57398107224481,0.3531666454734583,0 32.57401811370698,0.3531853015999345,0 32.5740465721081,0.3532136360756989,0 32.57407548834359,0.3532515407741088,0 32.57410439911978,0.3532894266789488,0 32.57413279162481,0.3533175867413575,0 32.57414343922113,0.3533554604591129,0 32.57415437686041,0.3534027066011459,0 32.57414649471441,0.3534402654131016,0 32.57414794836779,0.3534870604778942,0 32.57414955004112,0.3535341836275657,0 32.57412330952324,0.3535630399719457,0 32.57410616470628,0.3535918413352054,0 32.5740804611411,0.3536396514818969,0 32.5740443016746,0.3536585122169429,0 32.57402655479134,0.3536775151475391,0 32.57397285260688,0.3537160058341156,0 32.57394611188778,0.3537355574214824,0 32.5739101722566,0.3537551945959613,0 32.57387409236965,0.3537746552283331,0 32.57383696293966,0.353764989379827,0 32.57378995281285,0.3537362718085161,0 32.57376129738248,0.3537071962212127,0 32.57371414671842,0.3536778272566002,0 32.5736763118805,0.3536397343107138,0 32.57364824655686,0.3536207946485793,0 32.57361991959356,0.3535924258227902,0 32.57358231134255,0.3535634798926436,0 32.57354474375037,0.3535346839037468,0 32.57351674293518,0.3535156999944685,0 32.5734702022516,0.3534872874355929,0 32.57344204830247,0.3534589492101919,0 32.57341391792182,0.3534306286380411,0 32.57338579000155,0.3534022636454603,0 32.57333937208973,0.3533738397881255,0 32.573311502275,0.3533549095351959,0 32.57327473841898,0.3533454793293456,0 32.57324791983029,0.3533737619083462,0 32.57322110074096,0.3534021096228602,0 32.5731940473427,0.3534210277976307,0 32.57315801026599,0.3534494301460502,0 32.57312180107785,0.3534683417879105,0 32.57307617248013,0.3534777724882548,0 32.57303029717735,0.3534775115919466,0 32.57299356437761,0.3534772746475579,0 32.57294768804825,0.3534769307207364,0 32.57289270514736,0.3534767079434306,0 32.57284686745236,0.3534764575548476,0 32.57281020184619,0.3534762570644226,0 32.57277368550822,0.3534856022795054,0 32.57272800202014,0.3534861384026447,0 32.57270040007793,0.3534677292227485,0 32.57266362973184,0.3534402689865093,0 32.57262695735509,0.3534221798427612,0 32.57259036248969,0.3534134282515024,0 32.57255355856555,0.3533854069262004,0 32.57251673625078,0.353357064745396,0 32.57247087900023,0.3533293294166432,0 32.57243422832034,0.3533016844346638,0 32.5723975674028,0.3532831576935183,0 32.57236082983421,0.3532545240769575,0 32.5723514954289,0.3532165074383727,0 32.57233305538657,0.3531787226508247,0 32.57230565791497,0.3531691980105465,0 32.57226000978886,0.3531501963391656,0 32.57221440741266,0.3531313911986566,0 32.57216884075687,0.3531126567222568,0 32.57212330552499,0.353093934854041,0 32.57208690114574,0.3530752319122126,0 32.57204141766299,0.3530753149492106,0 32.57199593736986,0.3530660599705192,0 32.57194136921485,0.3530660826364356,0 32.57189590079622,0.3530571013489127,0 32.57185039173452,0.3530575506155216,0 32.57182307639579,0.3530578127226185,0 32.57177756151654,0.3530581025992917,0 32.57173203732301,0.3530583925813717,0 32.57167742041076,0.3530585854880879,0 32.57164088302498,0.3530772445197018,0 32.57162227060951,0.3531239653124936,0 32.5715945818629,0.3531615170384568,0 32.57158516684369,0.353199010333531,0 32.57158475418486,0.3532459369942382,0 32.5715661601895,0.3532834753712745,0 32.571593315726,0.3533117900155141,0 32.57162050215503,0.3533401068092382,0 32.57160198436922,0.3533682930016185,0 32.5715651497914,0.3533964410471581,0 32.57151921522039,0.3534151848532762,0 32.57150071411959,0.3534340452297003,0 32.57144556471004,0.3534528256275847,0 32.57140870175105,0.353471674418268,0 32.57136264561247,0.3534905463103301,0 32.57131668903661,0.3534999512213783,0 32.57127085360477,0.3534998842718973,0 32.57122487441168,0.3535093018020317,0 32.57117873706864,0.3535281976493757,0 32.57113288058822,0.353528144637749,0 32.57110487442849,0.3535565850963757,0 32.57109503599756,0.3535945807767195,0 32.57107616092024,0.3536230982674611,0 32.57104773227043,0.3536706952930597,0 32.5710470358341,0.3537088570197175,0 32.57105554571152,0.3537470807210223,0 32.57105468108249,0.3537949188242049,0 32.5710539876951,0.3538332496153022,0 32.57104406626652,0.3538716194489632,0 32.57102490037571,0.353910035066034,0 32.57099665176866,0.3539388570123692,0 32.57097742974602,0.3539773589531812,0 32.57095817947523,0.3540159157709985,0 32.57093890375147,0.3540545252332148,0 32.57092866378859,0.3541029006712157,0 32.57094660940363,0.3541319948381107,0 32.57096438927772,0.3541708132907701,0 32.57099166807036,0.3541999909510863,0 32.57100928978889,0.3542486956343747,0 32.5710271385226,0.3542877108208974,0 32.57102605714843,0.3543462891077303,0 32.57102532702805,0.3543854189644141,0 32.57102441259438,0.3544344078710361,0 32.57102368035893,0.3544736604212708,0 32.57099513612321,0.354503061588596,0 32.57095724209683,0.3545324692866411,0 32.57091930890662,0.354561906210168,0 32.57088133413234,0.3545913790336924,0 32.57085266899052,0.3546209055278171,0 32.57082376463769,0.3546603447781481,0 32.57082266816078,0.3547098096671637,0 32.57082134900759,0.3547692631374977,0 32.5708204726769,0.3548089674949788,0 32.57081937597819,0.3548586762334021,0 32.57081849656437,0.3548985056673497,0 32.57082679525928,0.3549483979860347,0 32.57083554378215,0.3549783854855333,0 32.57085347661614,0.3550184549398239,0 32.57090032478763,0.3550286324523929,0 32.57094660328173,0.355068904374265,0 32.5709648550758,0.35509907509625,0 32.57096406826954,0.3551392745910316,0 32.57096288080963,0.3551996618080967,0 32.57096208659647,0.3552399880809615,0 32.57095223984286,0.3552601357319355,0 32.57092289820688,0.3553105202792864,0 32.57088443336882,0.3553406866966886,0 32.57084681196913,0.3553303972188404,0 32.5707995165188,0.3553301818548196,0 32.57076121324958,0.355350252430902,0 32.57070444926011,0.3553499922538492,0 32.57066661030042,0.3553497745810938,0 32.57062878332645,0.3553495608652102,0 32.5705815031875,0.3553492957589856,0 32.57054341489432,0.3553591956320836,0 32.57048640190717,0.355368992045045,0 32.57044857534813,0.3553687792140485,0 32.57039154733628,0.3553785772398916,0 32.5703442624595,0.35537826157266,0 32.57030617105977,0.3553880886400703,0 32.5702585888159,0.3553978954661136,0 32.57021099625731,0.3554077054946283,0 32.57017252559719,0.3554276850385678,0 32.57013403133084,0.3554476770306408,0 32.57009585138423,0.3554575582388291,0 32.5700586941794,0.355437088193348,0 32.5700215661785,0.3554166338840029,0 32.56999359082539,0.3554062708036541,0 32.5699477686041,0.3553656030196344,0 32.56990126329415,0.3553452051204423,0 32.56986424938198,0.3553248794374094,0 32.56982724572885,0.3553045684688093,0 32.56980008100073,0.3552743014865491,0 32.56976313749727,0.3552540268607183,0 32.56973602433744,0.3552238111768229,0 32.56970894168231,0.3551936274815917,0 32.56969168635082,0.3551535422410745,0 32.56966466416655,0.3551234161342988,0 32.56964744576394,0.3550834316728804,0 32.56963025193679,0.3550435472822569,0 32.56962285573113,0.3549938002137089,0 32.56960570272789,0.354954016136608,0 32.56959836867924,0.354904372214067,0 32.56957227488364,0.3548548416776665,0 32.56956454108845,0.3548153035294431,0 32.56954783142872,0.3547659241627579,0 32.5695401534328,0.3547264421845794,0 32.56952316431583,0.3546870182029185,0 32.56950619080754,0.3546476321511738,0 32.56947053344648,0.3546082899870261,0 32.56945314952834,0.3545788176634397,0 32.56941712726363,0.3545493656003704,0 32.56939935843404,0.3545297408485107,0 32.56936338989749,0.354500345119503,0 32.56932788556652,0.3544612630064612,0 32.56929196279916,0.3544319784209495,0 32.56926492564146,0.3544124972984443,0 32.56923838205134,0.3543832986373083,0 32.56919319756172,0.3543540982995837,0 32.56916620881697,0.3543346795381338,0 32.56913094161655,0.3542958264739638,0 32.56909572396024,0.3542569843736238,0 32.56906988094319,0.3542181278034628,0 32.56904407094433,0.3541793237466278,0 32.56901829626144,0.3541405717864239,0 32.56899255692252,0.354101871923126,0 32.56897559813107,0.3540728665471633,0 32.56896027843454,0.3540148726131538,0 32.56896345270385,0.3539570577839264,0 32.5689666224164,0.3538993459440214,0 32.56897743901686,0.3538705315077824,0 32.56898927559333,0.3538225468289866,0 32.56900063840556,0.3537842069210476,0 32.56898493293833,0.3537362636146505,0 32.56895889869907,0.3537075700039023,0 32.56893350107499,0.3536693587502465,0 32.5688987718496,0.3536402766494907,0 32.56887330424679,0.3536111655016941,0 32.56884787622738,0.3535732690069114,0 32.56882182299571,0.353536099885748,0 32.56881397648245,0.3534991438122566,0 32.56879663403772,0.3534714527196604,0 32.56879941379821,0.3534152855458971,0 32.56880134400109,0.3533778005952332,0 32.56880552537987,0.3533202945608329,0 32.56881830099683,0.3532723598012996,0 32.56882990409505,0.3532256629725581,0 32.56883211605383,0.3531881032750941,0 32.56883600180629,0.353131322218491,0 32.5688193347177,0.3530945686968811,0 32.56880268193497,0.3530578493332966,0 32.56877830912194,0.3530110858720856,0 32.56875283189491,0.3529830550991465,0 32.56872750147929,0.3529549410048396,0 32.56874680181902,0.352936335559049,0 32.56878475415607,0.352908457923607,0 32.56881306366938,0.3528899443367775,0 32.5688510103064,0.3528620935954221,0 32.56888779160462,0.3528528810527302,0 32.56891675544885,0.352824864157208,0 32.56894619722886,0.352787787689016,0 32.56898351760271,0.3527691699932595,0 32.56902096575301,0.3527505123570263,0 32.5690582427235,0.3527319808425069,0 32.56908659989455,0.352704583072342,0 32.5691148555775,0.3526772815409547,0 32.56913483559942,0.3526317949833822,0 32.5691463437924,0.3525858822632119,0 32.56914947548037,0.3525307192778019,0 32.56915192545687,0.3524849799601967,0 32.56915307008916,0.3524491422733496,0 32.56914495599782,0.3524222557860813,0 32.5691282120932,0.3523863826460456,0 32.56909332201258,0.3523680920155884,0 32.56907586116908,0.3523502719870509,0 32.56904095734073,0.3523146498152982,0 32.56901458530646,0.3522968119220157,0 32.56897997979101,0.3522697387354032,0 32.56894584577873,0.3522336620917096,0 32.56891139250767,0.3522065790356834,0 32.56888608598764,0.3521793792025568,0 32.56886059924524,0.3521523752077245,0 32.56884452752982,0.3521164305400125,0 32.56883763815107,0.3520803788392681,0 32.56884077169902,0.3520350214427458,0 32.56886131826382,0.3520073273167523,0 32.56889001084394,0.3519888142231347,0 32.568857114608,0.3519524732179226,0 
					</coordinates>
				</LinearRing>
			</outerBoundaryIs>
		</Polygon>
		<atom:link rel="app" href="https://www.google.com/earth/about/versions/#earth-pro" title="Google Earth Pro 7.3.6.10201"></atom:link>
	</Placemark>
</Document>
</kml>
