<?xml version="1.0" encoding="UTF-8"?>
<kml xmlns="http://www.opengis.net/kml/2.2" xmlns:gx="http://www.google.com/kml/ext/2.2" xmlns:kml="http://www.opengis.net/kml/2.2" xmlns:atom="http://www.w3.org/2005/Atom">
<Document>
	<name>Kasese_Kisanga.kml</name>
	<StyleMap id="m_ylw-pushpin">
		<Pair>
			<key>normal</key>
			<styleUrl>#s_ylw-pushpin</styleUrl>
		</Pair>
		<Pair>
			<key>highlight</key>
			<styleUrl>#s_ylw-pushpin_hl</styleUrl>
		</Pair>
	</StyleMap>
	<Style id="s_ylw-pushpin">
		<IconStyle>
			<scale>1.1</scale>
			<Icon>
				<href>http://maps.google.com/mapfiles/kml/pushpin/ylw-pushpin.png</href>
			</Icon>
			<hotSpot x="20" y="2" xunits="pixels" yunits="pixels"/>
		</IconStyle>
		<LineStyle>
			<width>0.6</width>
		</LineStyle>
		<PolyStyle>
			<color>ffffae6f</color>
		</PolyStyle>
	</Style>
	<Style id="s_ylw-pushpin_hl">
		<IconStyle>
			<scale>1.3</scale>
			<Icon>
				<href>http://maps.google.com/mapfiles/kml/pushpin/ylw-pushpin.png</href>
			</Icon>
			<hotSpot x="20" y="2" xunits="pixels" yunits="pixels"/>
		</IconStyle>
		<LineStyle>
			<width>0.6</width>
		</LineStyle>
		<PolyStyle>
			<color>ffffae6f</color>
		</PolyStyle>
	</Style>
	<Placemark>
		<name>Kasese_Kisanga</name>
		<styleUrl>#m_ylw-pushpin</styleUrl>
		<Polygon>
			<tessellate>1</tessellate>
			<outerBoundaryIs>
				<LinearRing>
					<coordinates>
						30.08310257849797,0.1809473383340645,0 30.08315079834991,0.1809110194723249,0 30.0831877429622,0.1808626090843339,0 30.08323591089204,0.1808263312758134,0 30.08327146149344,0.1808142508988793,0 30.08334257823724,0.1807784559885891,0 30.08339003485627,0.1807429265930291,0 30.08344857400834,0.1807196745778841,0 30.08350640750415,0.1807088132413149,0 30.08354126033549,0.1806974891226505,0 30.08359911560223,0.1806866226812197,0 30.0836339806719,0.1806752949677908,0 30.08370336530286,0.1806646528346807,0 30.08376126291962,0.180653778372914,0 30.0838076600977,0.1806426734042097,0 30.08385406765593,0.1806315664562023,0 30.08390048291847,0.1806204574766454,0 30.08395876275141,0.1805975545031038,0 30.08398299480497,0.1805501257618093,0 30.08403001171032,0.1805266848552025,0 30.08407778244271,0.1804791040303586,0 30.0841363510735,0.180467448304689,0 30.08419491719231,0.1804557935159187,0 30.08424155227171,0.1804560296108161,0 30.08431151040386,0.1804563844564138,0 30.08436955199451,0.180468632427109,0 30.08442786720279,0.1804689286532405,0 30.08448618762181,0.1804692252440735,0 30.08453335783006,0.180445553784313,0 30.0845800184451,0.1804457916505653,0 30.08463834792676,0.1804460859487888,0 30.08468477114533,0.1804582774893758,0 30.08473110986449,0.1804822188871284,0 30.08476551512122,0.1805181201044535,0 30.08481212035903,0.1805301041602559,0 30.08484655041737,0.1805660237128752,0 30.08489291928899,0.1805900189821126,0 30.0849277196829,0.1806021823985164,0 30.0849863029188,0.1806022075641772,0 30.08504488295744,0.1806022324691894,0 30.08508003179686,0.1806022465368123,0 30.08513917409336,0.1805781165443019,0 30.08517495681379,0.1805422229361883,0 30.08522264728268,0.1804943853844179,0 30.08525848150055,0.1804583795228324,0 30.08528285462689,0.1804219658752467,0 30.08533047219748,0.1803974244340455,0 30.0853785531489,0.1803488746434377,0 30.0854140685943,0.1803249616873839,0 30.08547341015888,0.1802770953042705,0 30.08549723959301,0.1802531439614715,0 30.08554512665605,0.1801932404516235,0 30.08555703099334,0.1801812755376274,0 30.08560462870753,0.1801334389340195,0 30.08562865552113,0.1801091137931931,0 30.08570067820929,0.1800361919313911,0 30.08572466276361,0.1800119074505558,0 30.08577259938164,0.1799633718774597,0 30.08579712565647,0.1799149727005217,0 30.08583291572612,0.1798788235477533,0 30.08585717195728,0.1798308992913002,0 30.08588141031119,0.1797830093782838,0 30.08590560615386,0.1797352052068429,0 30.08592964962433,0.1796876707768979,0 30.08595367816333,0.1796401656372094,0 30.08600094909182,0.1795926978623792,0 30.08602494071041,0.1795452478510379,0 30.08606034996188,0.1795096966930186,0 30.08608416231915,0.179462568345601,0 30.08611968510156,0.1794037557644505,0 30.08614347118619,0.179356673720728,0 30.08617878714391,0.1793097468848122,0 30.08620272064129,0.1792508879539656,0 30.08622651273293,0.1792038024721341,0 30.08626175838654,0.1791685035922731,0 30.08627392295432,0.1791329636109648,0 30.08632129020642,0.1790621877839832,0 30.08635668758996,0.1790150800005102,0 30.08639206401945,0.1789679993578428,0 30.08641629079675,0.1788971296578384,0 30.0864515337107,0.178861771236867,0 30.08647545554307,0.17881443701309,0 30.08652242092979,0.178767297250899,0 30.0865463000896,0.1787200332600384,0 30.08659320770501,0.178672959768389,0 30.086617042563,0.1786257650722713,0 30.08665218290478,0.1785905056449885,0 30.08667616948428,0.1785315577307507,0 30.08669956217349,0.1784966412443803,0 30.08673433004319,0.178473523319431,0 30.08676956305508,0.1784036830443919,0 30.08682762312623,0.1783572409163908,0 30.086874136259,0.1783107806009263,0 30.08692062986252,0.1782643402853527,0 30.08696720066759,0.1782062811837322,0 30.08701355711607,0.178171518195633,0 30.08704839177523,0.178136711433784,0 30.08710644694446,0.1780901125889521,0 30.08715274789428,0.1780668316605188,0 30.08722207943712,0.1780435684447621,0 30.0872567360811,0.1780319392852438,0 30.08731443042548,0.1780203228371756,0 30.08738371636607,0.1779970733737589,0 30.08744138088199,0.1779854830604636,0 30.08748741267203,0.1779856177321847,0 30.08755669008249,0.1779508788392809,0 30.08763759137104,0.1779042853853376,0 30.08768377763786,0.1778810028813363,0 30.08771850359502,0.1778460772489129,0 30.08777622243026,0.1778111810536369,0 30.08777658482011,0.1777413856919856,0 30.08777682523592,0.1776948946117678,0 30.08780010638291,0.1776368352700468,0 30.08782325554552,0.1776020271732843,0 30.08785793188168,0.1775556462301462,0 30.08789258365857,0.1775092956083912,0 30.08792721272438,0.1774629767667776,0 30.0879503467198,0.1774166825937182,0 30.08795052948705,0.1773704089605265,0 30.08796221979155,0.1773126157518494,0 30.08796248741465,0.1772433209285668,0 30.08796262087252,0.1772086993188476,0 30.08797438104867,0.1771279890876239,0 30.08797464124701,0.177058878720963,0 30.08798629528567,0.1770013437351645,0 30.08798650778493,0.1769438523235002,0 30.08796381896001,0.1768978835866531,0 30.0879526169048,0.1768404726674416,0 30.08792995686949,0.1767945712421048,0 30.08790726305637,0.176760162795418,0 30.08786175133368,0.1767257601315427,0 30.0878276733686,0.1766913807817469,0 30.08780502201743,0.1766570238085351,0 30.08778244125963,0.1766112446066275,0 30.08777127685888,0.1765655013530844,0 30.08777151796466,0.1765197942562727,0 30.08773769354497,0.1764512917200738,0 30.08771513851149,0.1764056964446158,0 30.0877040990072,0.176337364691272,0 30.08768157156951,0.1762918356799895,0 30.08767043297758,0.176246338707389,0 30.08765936357956,0.1761895059244701,0 30.08765967057879,0.1761327203396928,0 30.08762575514498,0.1760986514878972,0 30.0875918542976,0.1760645976393191,0 30.08758082480969,0.1760078966555959,0 30.08753552559617,0.1759852075291348,0 30.08750166953244,0.1759512033786318,0 30.08745647312278,0.1759172077709422,0 30.08743407693332,0.1758719216242677,0 30.08741165519917,0.1758266854238089,0 30.08738924138888,0.1757814724493022,0 30.08737838578217,0.175724933693667,0 30.08737881090493,0.1756572251785705,0 30.08739034554455,0.1756233993485694,0 30.08741326698254,0.1755783228532094,0 30.08745877025227,0.1755445445418561,0 30.08750408553552,0.1755445674649322,0 30.08754927998358,0.1755671270129659,0 30.08758315442073,0.1755896870810475,0 30.08762831432048,0.1756235341104933,0 30.0876621562904,0.1756573882233188,0 30.08770739862628,0.1756799758994173,0 30.08772987632748,0.1757251343700461,0 30.08777509791935,0.1757590320303901,0 30.08782037886199,0.1757816445182344,0 30.08787705090521,0.1757929756938707,0 30.08794507679964,0.1758043143712338,0 30.0879677274507,0.1758156317927905,0 30.08804704937357,0.1758495999981766,0 30.0881037623311,0.1758609410711647,0 30.08813771996051,0.1758949281414028,0 30.08817166342752,0.1759402766178722,0 30.08818292089768,0.1759856151411478,0 30.08821690273033,0.1760310254078707,0 30.08822820154771,0.1760650764171361,0 30.08825085282215,0.1761105175503297,0 30.08826213157666,0.1761673243662233,0 30.08828480993652,0.1762128322890474,0 30.08830751843137,0.1762469961210904,0 30.08833021186916,0.1763039381614235,0 30.08835293487947,0.1763495364234746,0 30.0883870577994,0.1764065914457838,0 30.08842120845435,0.1764636948164028,0 30.08843257576927,0.1765323493450194,0 30.08846678869157,0.1765667934728663,0 30.08848961001654,0.176612687769313,0 30.08850103056627,0.1766700567218556,0 30.08852388994505,0.1767275175179555,0 30.08852390000655,0.1767619778256346,0 30.08854678328396,0.1768080304438579,0 30.08858112745773,0.176854160371578,0 30.08860406483257,0.1769118091897881,0 30.08860409750643,0.1769463776004205,0 30.08863853229705,0.1770156543984986,0 30.08865003070723,0.1770502880204526,0 30.08867302017076,0.1770965380583462,0 30.08868456810287,0.1771543047971489,0 30.08870759504369,0.1772120877380562,0 30.08873063972266,0.1772699194951689,0 30.08875372271539,0.177339354864581,0 30.08876529104762,0.1773856594366678,0 30.08878841107517,0.1774552103732642,0 30.08879999961666,0.1775015901099078,0 30.08880006530945,0.177536338206593,0 30.08881170612423,0.1776059433178263,0 30.08882333527387,0.1776639980388727,0 30.08883497137153,0.1777220974060822,0 30.08885811806398,0.1777686787285639,0 30.08886975021588,0.1778152322834085,0 30.08889296065197,0.1778735871016696,0 30.08892778419132,0.1779437937343505,0 30.08895102388695,0.1779906447007336,0 30.08899746601168,0.1780610467176796,0 30.08904391770245,0.1781198220159625,0 30.08906718476321,0.1781550887793182,0 30.08911376023627,0.1782256850388055,0 30.08916039037474,0.1782963637261302,0 30.08919536953355,0.1783435530526416,0 30.08921878614925,0.1783907089261492,0 30.08925387927598,0.1784497397394545,0 30.08928887319454,0.178485272964489,0 30.08933556941619,0.1785326837708185,0 30.08938230186049,0.1785801373755025,0 30.08941737658737,0.1786157534496708,0 30.08945247375488,0.178651391824847,0 30.08948759328001,0.1786870533351895,0 30.08953436510498,0.1787228165612757,0 30.08954635185186,0.1787701929323906,0 30.08955834687635,0.1788176033771975,0 30.08957035046328,0.17886504810434,0 30.08958245446062,0.178924380580955,0 30.08958282268557,0.1789718183112096,0 30.08959494109735,0.1790312447760184,0 30.08961864119107,0.1790789272021707,0 30.08966579670642,0.1791387115468787,0 30.08968954494008,0.1791864766083424,0 30.08972490400794,0.1792225154351038,0 30.08977217980144,0.179270877937651,0 30.08981936152335,0.1793072721032953,0 30.08986658117028,0.1793436963384821,0 30.08991383879379,0.1793801496532318,0 30.08996113525692,0.179416632985493,0 30.08998487761354,0.1794409088735427,0 30.09003239854561,0.1794894977013215,0 30.09007979826166,0.1795260672289892,0 30.0901501678508,0.1795266437835162,0 30.09020872926569,0.1795268996492341,0 30.0902905877565,0.1795269379734241,0 30.09037244673668,0.179526976740146,0 30.09043091634687,0.1795270042257183,0 30.09048960031367,0.1795391006085417,0 30.09054853776239,0.1795516934669824,0 30.09061927387301,0.1795528092537608,0 30.09065465476566,0.17955336696682,0 30.09071364358625,0.1795542974731668,0 30.09077265586677,0.179555227800804,0 30.09083169264206,0.1795561585492898,0 30.0908905931177,0.1795568054877375,0 30.0909258049842,0.1795569574128949,0 30.09101971257934,0.1795573606626668,0 30.09109031690175,0.1795695691875393,0 30.09116093981233,0.1795817815159918,0 30.09123157945055,0.1795939960071697,0 30.09126690066322,0.1796059166048089,0 30.09132533579783,0.179617354590502,0 30.09136051494873,0.1796290556766763,0 30.09143087585655,0.1796524588630937,0 30.09147799610842,0.1796761304622571,0 30.09151318146835,0.1796878338373895,0 30.09157182397952,0.1796995732881228,0 30.09161983874912,0.1797361354665245,0 30.09166720818645,0.1797484706670327,0 30.09171493653994,0.1797729383903592,0 30.09178657550672,0.179809663275706,0 30.09183436468549,0.1798341621746892,0 30.09188290630582,0.1798829778810274,0 30.09191952010369,0.1799315265880622,0 30.09195604873573,0.17997996135908,0 30.09198051547045,0.1800162967760496,0 30.09202888532029,0.1800648500932108,0 30.09205369310106,0.1801133275852407,0 30.09210212717129,0.1801619545355933,0 30.0921269795693,0.1802105033019455,0 30.09215184935081,0.1802590877832395,0 30.09217673775709,0.1803077070157866,0 30.09218950418812,0.1803441645539221,0 30.09219140239181,0.1804170191561968,0 30.0921811522696,0.1804777266757619,0 30.09217055368156,0.1805262831810284,0 30.09214789722922,0.1805745045814275,0 30.09212534605116,0.1806229212451772,0 30.09210282436246,0.1806714307269721,0 30.09205651422486,0.1807197256721164,0 30.09201017938455,0.1807680461934097,0 30.09196382081693,0.1808163908838293,0 30.09192903620649,0.1808526672687888,0 30.091894237745,0.1808889569883864,0 30.09184723605194,0.1809129009321079,0 30.09181241151207,0.1809492128410219,0 30.09176567604812,0.1809854116428494,0 30.09171892402632,0.1810216221116148,0 30.09169540408313,0.1810336097088794,0 30.09163700132857,0.1810819592185526,0 30.09157857060242,0.1811303312296321,0 30.09151968341703,0.1811543756105655,0 30.09144957998923,0.1812031963346541,0 30.09140278707396,0.1812278463452582,0 30.0913441316364,0.1812525006287744,0 30.09132098746544,0.181277165576154,0 30.09127431724455,0.1813139979210667,0 30.09121577050255,0.1813508438115261,0 30.09116881888548,0.1813754144414166,0 30.09111022013113,0.1814122929451099,0 30.09106300907903,0.181424576748531,0 30.09100392924234,0.1814368556542903,0 30.09094463064649,0.1814368297075525,0 30.09087367702267,0.1814491068410658,0 30.09081426403278,0.1814487952165076,0 30.09074295529697,0.1814483669129816,0 30.09069542185968,0.1814480821414649,0 30.09064752102023,0.1814231824412873,0 30.09058794477806,0.1814105241717439,0 30.09057588817225,0.1813981523402367,0 30.09045679907851,0.1813728513299632,0 30.09038508512653,0.1813355571171526,0 30.09033730147046,0.1813107074391201,0 30.09031325942974,0.1812860070228496,0 30.09026551187956,0.1812611780376849,0 30.09021748676262,0.1812118261837864,0 30.09020548636353,0.1811994939515641,0 30.0901337438783,0.1811498153689801,0 30.09009773944514,0.1811126749496706,0 30.09004976939081,0.1810631922192228,0 30.09001355824175,0.1810016518375153,0 30.08998935166701,0.1809525146237629,0 30.08995320117819,0.180891084283245,0 30.08991720911905,0.1808419087915289,0 30.08988077087491,0.1807440420489897,0 30.0898207671025,0.1806460831216273,0 30.08979681406543,0.1806093741548163,0 30.08977276629723,0.1805605407002198,0 30.08974873707588,0.1805117454374733,0 30.08971293634622,0.1804628716781089,0 30.08970073438853,0.180414267505168,0 30.08965300253774,0.1803411441128167,0 30.08962906110273,0.1802925177666301,0 30.08960513778965,0.1802439286215193,0 30.08955780058922,0.1802072366948707,0 30.08952207774004,0.1801465378833984,0 30.08946267239925,0.1800496541202682,0 30.08941534445958,0.1799892048931213,0 30.0893796324694,0.1799048120622086,0 30.08934402201335,0.1798440787258555,0 30.08932014731501,0.1797834361347383,0 30.08930835158176,0.1797712837418235,0 30.08926103079597,0.179698534323802,0 30.08923723431107,0.1796380784467775,0 30.08923716242198,0.179626058630284,0 30.08918997008374,0.1795536025946423,0 30.08916626760246,0.1794934209961275,0 30.08915439332316,0.1794573615035651,0 30.08911911717528,0.1794091613581492,0 30.08907231624439,0.1793848461862691,0 30.08901392683298,0.1793724171434525,0 30.08895555986592,0.1793599924791992,0 30.08892050214016,0.1793358302822008,0 30.08885050913643,0.1793115440023972,0 30.08880384223654,0.1792873692072727,0 30.08874561631224,0.1792871288602813,0 30.08871075729369,0.179322961705496,0 30.0886758559897,0.1793468128315535,0 30.08861764147917,0.1793705743716253,0 30.0885827226036,0.1794064538996075,0 30.08852446150414,0.1794182210583824,0 30.08847784888385,0.1794420558109356,0 30.08841956343343,0.1794658484268783,0 30.08837291599911,0.1794897003197733,0 30.08833791297855,0.1795136098227191,0 30.0882795519983,0.179549465278288,0 30.08823285188686,0.1795733470760215,0 30.08817443788045,0.1796092336870289,0 30.08812777456836,0.1796090277811158,0 30.08805774316162,0.1796207689226774,0 30.08801103409755,0.1796326159601473,0 30.08797598597782,0.1796445170134455,0 30.08788249295609,0.1796801555827187,0 30.08784741820279,0.1797036574481743,0 30.08783559548419,0.1797394293311861,0 30.08782365173914,0.1797991837168216,0 30.08780003326724,0.1798588345826214,0 30.08779979836384,0.1799068059576664,0 30.08778786268136,0.179966438030157,0 30.08778770203756,0.1800023295366802,0 30.08779906349242,0.180074317327699,0 30.0877988532955,0.1801222417781641,0 30.08779859078387,0.1801821875223056,0 30.08779838033255,0.1802301752021039,0 30.0877980404063,0.1803023704100609,0 30.08779768300937,0.180374806647625,0 30.08779732560804,0.1804473172299276,0 30.08777358347005,0.1805075677190436,0 30.0877499513489,0.1805436458069711,0 30.08770279630595,0.1805915997260998,0 30.08766743567243,0.1806274223655173,0 30.08762040212737,0.1806510731803961,0 30.08758495053317,0.1806989824748092,0 30.08756134822567,0.1807229177642141,0 30.08751397778432,0.1807833506961375,0 30.08747831735169,0.1808438959163711,0 30.08745446991638,0.1808923925955003,0 30.08744226853146,0.1809531545809127,0 30.08740663178846,0.181001661502311,0 30.08739468579119,0.1810259568334471,0 30.08737058750427,0.1810989580349513,0 30.08737000849872,0.1811721652733775,0 30.08735768309397,0.1812335305931853,0 30.08735720016237,0.181282917742258,0 30.08732121923993,0.1813446065524927,0 30.08727361811295,0.1813817843527063,0 30.08720272121658,0.1813821474244331,0 30.08713181512712,0.1813825103920583,0 30.0870608984085,0.1813828735683253,0 30.08700179530151,0.1813831764409571,0 30.08695480564253,0.1813587832908783,0 30.08689601148313,0.1813344578414335,0 30.08683739524708,0.1812978341204362,0 30.08680226913199,0.18127340237231,0 30.08674375905494,0.1812365752810924,0 30.08669723253712,0.1811992395676266,0 30.08663897334257,0.1811618609567484,0 30.08659231692586,0.1811369147783872,0 30.08654568007558,0.1811119796476169,0 30.0864875290808,0.1810746669048407,0 30.08641744807748,0.1810496299312699,0 30.08634740563738,0.1810246064029054,0 30.08631263318548,0.180999795045714,0 30.08625415804229,0.1809871621588935,0 30.08619570000244,0.18097453406633,0 30.08612552578778,0.1809618430680088,0 30.08605511368541,0.1809614599124475,0 30.08598470988616,0.1809610635082063,0 30.08591459143582,0.1809483808515205,0 30.08585594156008,0.180948050480118,0 30.08582075491612,0.1809478536328392,0 30.08577384254575,0.1809475902319894,0 30.08571497908738,0.1809593898280235,0 30.08566818910198,0.1809588858781777,0 30.08560915882541,0.1809827016026773,0 30.08556181293358,0.1810066488611906,0 30.08551474419462,0.1810183695764717,0 30.0854787902507,0.1810546855383841,0 30.08541971740828,0.1810785192815747,0 30.0853720262972,0.1811147356613347,0 30.08531259283263,0.181139214216972,0 30.08526490439407,0.181163705589522,0 30.08521739979158,0.1811878404353327,0 30.08517017248224,0.1811997654822753,0 30.08513438853489,0.1812239584276492,0 30.08506338009886,0.1812479547457612,0 30.08503931273824,0.1812722305974251,0 30.08498028502935,0.1812841489697001,0 30.08495612491231,0.1813085671250875,0 30.08488603128549,0.1812958734240649,0 30.08482734315083,0.1812955272199489,0 30.08477896194853,0.1813443744671707,0 30.08475420205505,0.1813931100263214,0 30.08472950400439,0.1814417553467484,0 30.08470543918105,0.1814659513161788,0 30.08464557910584,0.1815142186987698,0 30.0845977383542,0.1815504064852177,0 30.08455021781221,0.1815743543834683,0 30.08449097653553,0.1815981664719685,0 30.08444343873562,0.1816221237437537,0 30.08439554246013,0.1816583442365891,0 30.08434798788213,0.1816823141122107,0 30.0843004217983,0.1817062859654091,0 30.08424077050466,0.1817423922099924,0 30.08418220842505,0.1817416830536912,0 30.0841225369915,0.1817777960657816,0 30.08406360573185,0.181789361120196,0 30.08402809394861,0.181801210868287,0 30.08396928488251,0.1818126061793192,0 30.08392264393851,0.1818117579050038,0 30.08386435906374,0.181810700924721,0 30.08379375628346,0.181810396930066,0 30.0837465627218,0.1818103784323445,0 30.08366397473405,0.1818103457616559,0 30.08361678089474,0.1818103263779916,0 30.08357076591854,0.1817853082719801,0 30.08349999175034,0.1817852808635035,0 30.0834652067785,0.1817727708724705,0 30.08339505129434,0.1817602508766646,0 30.08336090018414,0.1817352607006667,0 30.0833038573954,0.1816977470323003,0 30.08324583204264,0.1816849055281246,0 30.08320018062795,0.1816596806470576,0 30.08314156231791,0.1816593115909821,0 30.08307251835308,0.1816339549522006,0 30.08301392747679,0.1816335874602976,0 30.08296731817227,0.1816329822311025,0 30.08291053882279,0.1816071770461573,0 30.08286485986076,0.181593878696491,0 30.08279710463239,0.1815556253684947,0 30.08275197318213,0.1815301470202035,0 30.08269535676314,0.1815044178328404,0 30.08265078366991,0.1814667827261587,0 30.08262875844646,0.1814418852784668,0 30.08257110288512,0.1814174231001453,0 30.08251393041122,0.1813808386447453,0 30.08245626746692,0.1813564524114835,0 30.08240983760005,0.1813442547099007,0 30.08233994328046,0.1813320509646544,0 30.08230579891424,0.1813076901552163,0 30.08229459752115,0.1812955151687093,0 30.08222572726401,0.1812590656639098,0 30.08219195651253,0.1812227681146386,0 30.08214600111855,0.1811985700254072,0 30.08214743156299,0.1811623141526821,0 30.08218497059447,0.1811019363552939,0 30.08222154072869,0.1810657385167412,0 30.08226980750589,0.1810295606826045,0 30.08230587681067,0.1810054520938863,0 30.08235411716926,0.1809693114555349,0 30.08240186791118,0.1809452253716332,0 30.08243835362037,0.180909097130553,0 30.08248652504466,0.1808729897272231,0 30.08253378027237,0.1808609692423427,0 30.08258102857197,0.1808489510493386,0 30.08263989894888,0.1808370078128174,0 30.08268645713169,0.1808372611629784,0 30.08274465950389,0.1808375771995241,0 30.08277873171241,0.1808618370354045,0 30.08283653038018,0.1808741936501868,0 30.0828822771391,0.1808985305526403,0 30.08292845832361,0.1809108309420117,0 30.08297422973414,0.1809351719932269,0 30.08302106985668,0.1809351912703276,0 30.08306744543312,0.1809473249964751,0 30.0831142894334,0.1809473442734668,0 30.08310257849797,0.1809473383340645,0 
					</coordinates>
				</LinearRing>
			</outerBoundaryIs>
		</Polygon>
		<atom:link rel="app" href="https://www.google.com/earth/about/versions/#earth-pro" title="Google Earth Pro 7.3.6.10201"></atom:link>
	</Placemark>
</Document>
</kml>
