<?xml version="1.0" encoding="UTF-8"?>
<kml xmlns="http://www.opengis.net/kml/2.2" xmlns:gx="http://www.google.com/kml/ext/2.2" xmlns:kml="http://www.opengis.net/kml/2.2" xmlns:atom="http://www.w3.org/2005/Atom">
<Document>
	<name>Kasese_Kikoga.kml</name>
	<StyleMap id="msn_ylw-pushpin">
		<Pair>
			<key>normal</key>
			<styleUrl>#sn_ylw-pushpin</styleUrl>
		</Pair>
		<Pair>
			<key>highlight</key>
			<styleUrl>#sh_ylw-pushpin</styleUrl>
		</Pair>
	</StyleMap>
	<Style id="sh_ylw-pushpin">
		<IconStyle>
			<scale>1.3</scale>
			<Icon>
				<href>http://maps.google.com/mapfiles/kml/pushpin/ylw-pushpin.png</href>
			</Icon>
			<hotSpot x="20" y="2" xunits="pixels" yunits="pixels"/>
		</IconStyle>
		<BalloonStyle>
		</BalloonStyle>
		<LineStyle>
			<width>0.6</width>
		</LineStyle>
		<PolyStyle>
			<color>ffffae6f</color>
		</PolyStyle>
	</Style>
	<Style id="sn_ylw-pushpin">
		<IconStyle>
			<scale>1.1</scale>
			<Icon>
				<href>http://maps.google.com/mapfiles/kml/pushpin/ylw-pushpin.png</href>
			</Icon>
			<hotSpot x="20" y="2" xunits="pixels" yunits="pixels"/>
		</IconStyle>
		<BalloonStyle>
		</BalloonStyle>
		<LineStyle>
			<width>0.6</width>
		</LineStyle>
		<PolyStyle>
			<color>ffffae6f</color>
		</PolyStyle>
	</Style>
	<Placemark>
		<name>Kasese_Kikoga</name>
		<styleUrl>#msn_ylw-pushpin</styleUrl>
		<Polygon>
			<tessellate>1</tessellate>
			<outerBoundaryIs>
				<LinearRing>
					<coordinates>
						30.19371444672224,0.254626119582911,0 30.19370739284526,0.2546046671123141,0 30.19368606655918,0.2545689434782196,0 30.19367893387426,0.2545332639483832,0 30.19368607077267,0.2545047189371604,0 30.19370034309871,0.2544904469133522,0 30.19373602519055,0.2544690385256905,0 30.19375743422962,0.2544476297734882,0 30.19380025296098,0.254426221151031,0 30.19382879814221,0.2544048123985412,0 30.19387161566372,0.2543691313098358,0 30.19390729833862,0.2543477230799018,0 30.19395011572032,0.2543263143289903,0 30.19397152463912,0.2543120418628901,0 30.19400720583819,0.2543049053176445,0 30.194035750701,0.2542906332683981,0 30.19406429645874,0.2542763605416926,0 30.19409997698306,0.2542692237356504,0 30.19413565824216,0.2542692233712029,0 30.1941713393138,0.2542692228503002,0 30.19420702063764,0.254269222746199,0 30.19424270128573,0.254276358093686,0 30.19427838298089,0.2542763577287214,0 30.19431406360653,0.2542834935449871,0 30.19433547232962,0.2542834932842306,0 30.19437115302602,0.2542977649687864,0 30.19439256199477,0.2542977647600715,0 30.19444251527899,0.2543120358971513,0 30.19447105983694,0.2543191712961776,0 30.19450674054347,0.2543263072941929,0 30.19454955770567,0.2543120346702284,0 30.19457823013406,0.2542834162389981,0 30.19460690000584,0.2542619363164525,0 30.19462840127648,0.2542333404287598,0 30.19464990053341,0.254226150948084,0 30.19467856464358,0.2541975403164761,0 30.19469988961843,0.2541690470683136,0 30.19471403822739,0.2541405753274595,0 30.19472815863228,0.2541049819908474,0 30.19473517381039,0.2540765045179688,0 30.19475650796296,0.2540408646791345,0 30.19477078045745,0.2540123207898309,0 30.19478505280911,0.2539909128208108,0 30.19479932542376,0.2539552329070301,0 30.19481359822184,0.2539266889134928,0 30.19483500665257,0.2538910089998345,0 30.1948564149234,0.253869600874447,0 30.19487782388239,0.2538481928531896,0 30.19489923175554,0.2538267846755858,0 30.1949206405756,0.2538053769148581,0 30.19494204893333,0.253783968997712,0 30.19498486518111,0.2537696963233596,0 30.19502054621164,0.253762560298569,0 30.19502768226777,0.2537696964531901,0 30.19505622661308,0.25378396764205,0 30.19509190694902,0.2537982396644415,0 30.19513472339831,0.2538125111134537,0 30.19517040314589,0.2538196465119513,0 30.19519894771927,0.2538339180912741,0 30.19522035596477,0.2538553257473022,0 30.19524178365681,0.2538624508709686,0 30.19527042714203,0.2538766652478617,0 30.19530622725876,0.253890864255799,0 30.19534202495819,0.2538979270308879,0 30.19537066030752,0.2538978688379555,0 30.19541360730414,0.2538977813143367,0 30.19545655073159,0.2538905607365634,0 30.19548517672904,0.2538833693855242,0 30.19550664424451,0.2538761931430172,0 30.19553526579434,0.2538618700930045,0 30.19557819322024,0.2538617852274996,0 30.19559965555526,0.2538546104442178,0 30.19564257545166,0.2538545258916963,0 30.19567833721953,0.2538615871046326,0 30.19568548999748,0.253840178878957,0 30.19571400791109,0.2538187891994028,0 30.19573534284874,0.2537974354335124,0 30.19575665917143,0.2537689612706298,0 30.19577082572924,0.253733365798782,0 30.19577791859887,0.2537191260730217,0 30.19579920110471,0.2536764046546129,0 30.19581339057968,0.2536479209558979,0 30.19582756206982,0.2536123130039716,0 30.19582746704054,0.2535767012877896,0 30.19582742892533,0.2535624557127625,0 30.19583446917919,0.2535268392413729,0 30.19584862558178,0.2534840943222755,0 30.19585566707719,0.2534484696177606,0 30.19586270835319,0.2534128413601242,0 30.19586261564545,0.2533772095796897,0 30.19586250409144,0.2533344465414758,0 30.19586237768128,0.2532988224921581,0 30.19586215445428,0.2532560953356225,0 30.19586912633024,0.2532276128250764,0 30.19588321892611,0.2531991324577028,0 30.19589738839968,0.253184897849737,0 30.19592569521473,0.25314929484758,0 30.19594695743198,0.2531279324446511,0 30.19596822361943,0.2531065658737516,0 30.19598945871959,0.253078065350917,0 30.1960178605477,0.2530566961695155,0 30.19605336024544,0.2530281952716784,0 30.19608174111182,0.2529996813272335,0 30.19611019328072,0.2529854317957091,0 30.1961385870388,0.2529569073525779,0 30.19615988667833,0.2529355088166495,0 30.19619555031216,0.252914088135835,0 30.19621696283604,0.2528998016436645,0 30.19625979185203,0.2528712265226755,0 30.19630978604106,0.2528497936838447,0 30.19634548638328,0.2528283595941767,0 30.19637406721766,0.252821214810599,0 30.19640264784862,0.2528140694538702,0 30.19643116522924,0.2527711956990433,0 30.19645256242168,0.2527426103645193,0 30.19647396054019,0.2527140225287413,0 30.19650251101216,0.2526782825868056,0 30.19652396121943,0.2526496829929412,0 30.19653826099298,0.2526210835034242,0 30.19655250248228,0.2525924897430051,0 30.19657388501253,0.2525710440174966,0 30.19659526985531,0.252549596416088,0 30.196616669355,0.2525209940861223,0 30.19663812353149,0.2524995395322251,0 30.19666675067353,0.2524852365904674,0 30.19668820489401,0.2524637824533658,0 30.19671683079238,0.2524494806579058,0 30.19673113350893,0.2524351780995464,0 30.19677405984544,0.2524065751526229,0 30.19679552248163,0.2523922735620009,0 30.19682411784375,0.252356517696214,0 30.19684556243097,0.2523279120283911,0 30.1968670075109,0.2522993058914866,0 30.1968812932982,0.252270696546235,0 30.1968884283074,0.2522492378418486,0 30.19690271533242,0.252220626464259,0 30.19691699510313,0.2521848593352305,0 30.19693844325944,0.2521562485474178,0 30.1969742105145,0.2521276444628615,0 30.19699567345672,0.2521133445261581,0 30.19702428758745,0.2520918931343411,0 30.19704573667733,0.2520632820467031,0 30.19706719198718,0.2520418266745268,0 30.19709579317977,0.2520060629492855,0 30.1971172608394,0.251984617501595,0 30.19714589056461,0.2519631835846123,0 30.1971602041878,0.2519274377337256,0 30.19716736052392,0.2518988385428539,0 30.19718880969414,0.2518773792950399,0 30.19721021993652,0.251855867997848,0 30.19723163328282,0.2518343526367057,0 30.19726019966066,0.2518128268629272,0 30.19728877165727,0.2517912962569199,0 30.19732452360811,0.2517769521244387,0 30.1973531275298,0.2517626138322848,0 30.19738888232789,0.2517411043357788,0 30.19741033080644,0.2517195923118986,0 30.19743178213567,0.2516980775523335,0 30.19746040126644,0.2516909052540168,0 30.19747470915841,0.251683732694975,0 30.19751048399088,0.2516693868474861,0 30.19756057781074,0.251662213637245,0 30.197596361835,0.2516622134550282,0 30.19761783220962,0.2516622135072296,0 30.19766077331641,0.2516622305335943,0 30.19767508734501,0.2516622473461657,0 30.19773949183877,0.2516623226251585,0 30.19776811386566,0.2516480277604096,0 30.19778957890097,0.2516408895029745,0 30.19783250386249,0.2516409406968079,0 30.19786111557921,0.2516481384892896,0 30.19789687725105,0.2516553436332308,0 30.19793263879026,0.2516482235436351,0 30.19796125214986,0.2516267700876485,0 30.19800417970325,0.2515981452921459,0 30.19802564515921,0.2515909822461017,0 30.19804711826454,0.2515694919084686,0 30.19808290585409,0.2515408364140916,0 30.19811154139249,0.2515121785485797,0 30.19814017969496,0.2514835182339368,0 30.19814018422912,0.2514763531811516,0 30.19814733981908,0.2514405778308831,0 30.19815449008793,0.2514191230212901,0 30.19816879086667,0.2513619047732222,0 30.19818309092905,0.2513261533247227,0 30.1981830901613,0.2512903787848955,0 30.19819738949026,0.2512546292664752,0 30.1982045391884,0.2512260232707063,0 30.19821168861645,0.2511974179001467,0 30.19824028449084,0.2511616987713641,0 30.19825458179579,0.2511331089865759,0 30.19826173020614,0.2511045065344623,0 30.19826887874782,0.2510830586567813,0 30.19827602699393,0.2510473030630616,0 30.19828317470937,0.2510187025650299,0 30.19828317521353,0.2509900871848177,0 30.19829747066127,0.2509543490528878,0 30.19829747023068,0.2509328875698829,0 30.19831176531146,0.2508828438583524,0 30.19832605973692,0.2508542624896761,0 30.1983475004823,0.2508185461316237,0 30.19836179348592,0.2507899675119228,0 30.19838323185128,0.25076856065495,0 30.19841181407318,0.2507471723671335,0 30.19843324952505,0.2507400730178411,0 30.19847611629086,0.2507115716581549,0 30.19850469115534,0.2506830372185149,0 30.19854040612348,0.2506616747566267,0 30.19856183353625,0.2506474283827764,0 30.19859038245138,0.2506189352696945,0 30.19862605073888,0.2506048051941571,0 30.1986546300463,0.2505905520017403,0 30.1986904300009,0.2505761534317009,0 30.19872623385856,0.2505760558065767,0 30.19876920312731,0.25057593879628,0 30.19880501447765,0.2505758411910494,0 30.19884799375968,0.2505757241972588,0 30.19888381382766,0.2505541704224218,0 30.19891247263994,0.2505254817295077,0 30.19895546503742,0.2504895972421519,0 30.19897696317929,0.2504680766041526,0 30.19901996369132,0.2504393388095093,0 30.19905580119094,0.2504106186839111,0 30.19907730533135,0.2503890925353023,0 30.19909881158,0.2503604112001545,0 30.19912748794342,0.2503317056041192,0 30.19914899666295,0.2503030199960194,0 30.19917050696167,0.2502814880240507,0 30.19919201866191,0.2502456436468819,0 30.19921353133174,0.2502097972113336,0 30.19921353149814,0.2501740195981574,0 30.19922070316632,0.250145373470732,0 30.19922787482257,0.2501095709452593,0 30.19922787497213,0.2500594813174806,0 30.19922787505924,0.2500237028705268,0 30.1992278752844,0.249995079727422,0 30.19922070422026,0.2499593274954981,0 30.19922067171636,0.2499236050491098,0 30.19921342395575,0.2498879861963779,0 30.19920620715579,0.2498666274455473,0 30.19919179098653,0.2498310423662673,0 30.19918456100324,0.2498025617205246,0 30.19918450070667,0.2497740562130452,0 30.19916298008441,0.249767013176774,0 30.19915575200167,0.2497385384779857,0 30.19916293561532,0.2497027168280035,0 30.19916293584701,0.2496669513586552,0 30.19916293612867,0.2496383388737611,0 30.19917011976463,0.249609667706816,0 30.19917011977812,0.2495810545184743,0 30.1991773036726,0.2495452279178881,0 30.19918448800026,0.2495094000145963,0 30.19919167247962,0.2494807244703615,0 30.19919885743759,0.2494377398958421,0 30.19919885741697,0.2494019704921231,0 30.19921322776502,0.249373227472368,0 30.19923478526507,0.2493444176676206,0 30.19926353267856,0.2493226948572794,0 30.19927790763908,0.2493010987970355,0 30.19929228408891,0.2492795010107605,0 30.19932823075809,0.2492577033312047,0 30.19935702805004,0.2492359004364033,0 30.19938570948105,0.2492143282299598,0 30.19942153233975,0.2491999450236326,0 30.1994430052016,0.2491999449621829,0 30.19947881151695,0.2491927533136745,0 30.1995146187105,0.2491855610625887,0 30.19955040759404,0.2491855609197511,0 30.1995861962305,0.2491855600604819,0 30.1996219854033,0.2491855595071682,0 30.19967211005745,0.2491783672557066,0 30.19971507816076,0.2491711748412616,0 30.19973657261038,0.2491639826416052,0 30.19977956383976,0.2491495976430103,0 30.1998225127338,0.249149596913261,0 30.19982969310556,0.2491424046353473,0 30.19983199240982,0.2490777996168902,0 30.19986061630116,0.2490420057114522,0 30.19986778576678,0.249013371493052,0 30.19985344754087,0.2489918939458416,0 30.19983194001144,0.2489704137062844,0 30.19980326017523,0.2489560906894415,0 30.1997674084566,0.2489417649280769,0 30.19974589474509,0.248934600974957,0 30.19971003719813,0.2489202730147645,0 30.19968138432064,0.2489131110062383,0 30.19965990259413,0.2489131106414776,0 30.19961694016218,0.2489131107715065,0 30.19958113821757,0.2489131105368393,0 30.19955966958657,0.2489202725711464,0 30.19951670775896,0.2489202729353185,0 30.19948091962073,0.248927434917135,0 30.19943795791199,0.2489274344735127,0 30.19940931695015,0.2489274348897303,0 30.19935205878127,0.2489345971110731,0 30.19932347976115,0.2489346030403722,0 30.1992591868527,0.2489346166291341,0 30.19922347309253,0.2489346239237909,0 30.19920918903693,0.2489346266542277,0 30.19916633870749,0.2489346358873587,0 30.19912351246759,0.2489418039777002,0 30.19910212872989,0.2489561259435096,0 30.19906645144137,0.2489632905505375,0 30.19903797133452,0.2489632997349578,0 30.19899529646981,0.2489704719519746,0 30.19897398283849,0.2489776356850991,0 30.19893132629335,0.2489848041002817,0 30.19889579547155,0.248991968949812,0 30.19886027332001,0.2489991315337902,0 30.19879640471289,0.2490206021068158,0 30.19874677946526,0.2490420609364388,0 30.19868998248955,0.2490492153784432,0 30.19863297791659,0.2490563653324645,0 30.19859018798637,0.2490706593296962,0 30.19853301364823,0.2490706592787207,0 30.19850447449567,0.2490778061209063,0 30.1984616428028,0.2490849522990072,0 30.19843305685187,0.2490849524294444,0 30.19839022883664,0.2490920984249095,0 30.19836169393765,0.2490992441336747,0 30.19833321235238,0.249113535016712,0 30.19831198188687,0.2491421131092831,0 30.1982907549321,0.2491706865319861,0 30.19829091113639,0.2491921134189575,0 30.19827688519814,0.2492278192584087,0 30.1982627041866,0.2492420995518094,0 30.19823408515523,0.2492849619187965,0 30.19821257395403,0.2493063985544982,0 30.19819823234107,0.2493206904462201,0 30.1981624035766,0.2493492759817746,0 30.19814088826956,0.2493707164705761,0 30.19812654383376,0.2493850112154196,0 30.19808380271138,0.2493992854289888,0 30.1980553404677,0.2494135598388367,0 30.19801976461034,0.2494206865650965,0 30.19799130690761,0.2494349583044147,0 30.19795540018013,0.2494421255047678,0 30.19792658399006,0.249449299189543,0 30.19788335191041,0.2494564895893054,0 30.19785452445614,0.2494636662064067,0 30.1978040660829,0.2494637213545878,0 30.19777522603677,0.2494637529355292,0 30.19772474344676,0.2494566598438997,0 30.19768867572079,0.2494495496854128,0 30.19765260103824,0.2494424380556681,0 30.19762373484456,0.2494353175146611,0 30.19756599057593,0.2494282241940595,0 30.19752988999473,0.2494211083065739,0 30.19749378225999,0.2494139902315324,0 30.19745766762726,0.2494140240758549,0 30.19742887680687,0.2494068874150802,0 30.19740011862366,0.2494069007240861,0 30.19738570294309,0.2493997562106663,0 30.19734255845873,0.2493997757184643,0 30.19730656502275,0.2493926406658072,0 30.19727069693062,0.2493854927271937,0 30.19724922828807,0.2493854926886519,0 30.19721341266085,0.2493783401513654,0 30.19717759568906,0.249371187652898,0 30.19713465856516,0.249371187614406,0 30.19709884101186,0.2493640349204789,0 30.1970630218233,0.2493568818225841,0 30.19703439670363,0.2493568818814403,0 30.19698426474181,0.2493497288029263,0 30.19694844315185,0.2493425755026281,0 30.19691977793573,0.2493354222088727,0 30.19687679880898,0.2493282686414805,0 30.19684097515415,0.2493211149241168,0 30.19680515108244,0.2493139610633908,0 30.19678364027993,0.2493068069975748,0 30.19673350018739,0.2492996528889889,0 30.19670478918311,0.2492853440539131,0 30.19666896157275,0.2492781894372454,0 30.19663313410328,0.2492710346853293,0 30.19659729201165,0.2492495664395717,0 30.19656159286225,0.2492280928280278,0 30.19652593917241,0.2492137753147478,0 30.19649735576535,0.2491923045847952,0 30.19645454834396,0.2491708324979768,0 30.19642596702028,0.24914936289492,0 30.19639743103544,0.2491350495577713,0 30.1963901841406,0.2491135820352607,0 30.19636866931666,0.2490849572938588,0 30.19635421915627,0.2490491752449021,0 30.1963540821285,0.2490277039715303,0 30.19634674245584,0.2489919168821349,0 30.19633940212398,0.2489561264317204,0 30.19633215256043,0.2489346514577463,0 30.19633187753609,0.2488916958836863,0 30.19632462811123,0.2488702178090608,0 30.19631728531414,0.2488344177184307,0 30.19630994274013,0.2487986150483721,0 30.1963025994975,0.2487628088871935,0 30.19629530145765,0.2487341627307905,0 30.19629507045437,0.2486983478553655,0 30.19628772545726,0.2486625336171957,0 30.19628749350122,0.2486267117593078,0 30.19628726231779,0.2485908862017365,0 30.19627998512151,0.2485550704620649,0 30.19627998494519,0.2485264278857849,0 30.19628709931218,0.2484977793049477,0 30.19628709910699,0.2484476541450846,0 30.19629421374866,0.2484190042615439,0 30.19629421328661,0.2483975217820935,0 30.1963155585056,0.2483402130919289,0 30.19632978979083,0.248311553373559,0 30.19635133935249,0.2482757591864998,0 30.1963658450925,0.2482471489317337,0 30.19638034875633,0.248218540865751,0 30.19640201264517,0.2481899353011784,0 30.19642367436725,0.2481613323421855,0 30.1964524941571,0.2481327317021846,0 30.19647410765342,0.2481112823166096,0 30.19649580820555,0.248075536884459,0 30.1965174186028,0.2480540914333461,0 30.19654631805136,0.2480112039839998,0 30.19657517009867,0.2479754687985581,0 30.19660397655409,0.247946883310435,0 30.19661127418617,0.2479254498552804,0 30.19664732967776,0.2478825811419607,0 30.19669046496774,0.2478468530285238,0 30.19671926002995,0.2478182779106383,0 30.19674805401265,0.2477897051150162,0 30.19676968902603,0.2477611346774019,0 30.19678412507243,0.2477397083800415,0 30.19679856044495,0.2477182831509998,0 30.19682023236695,0.2476825776539159,0 30.19683474635404,0.2476468758698333,0 30.19686356903894,0.2476111776817705,0 30.19687096565192,0.2475683443169054,0 30.19688547525769,0.2475326536592322,0 30.19690705658636,0.2475112415628584,0 30.19693535101194,0.2474681899363417,0 30.19694938315109,0.2474466125497544,0 30.19697753018668,0.2474177937080701,0 30.19699864641624,0.2473961750505588,0 30.19704096613191,0.2473672748919675,0 30.19706917455583,0.2473456108216391,0 30.19709742618804,0.2473311184821671,0 30.19713273155863,0.2473094103545464,0 30.19716808205062,0.2472948745830577,0 30.19719635497277,0.2472803721887733,0 30.19720336823196,0.2472659765931729,0 30.19725287951429,0.2472441771732062,0 30.19728822502141,0.2472224450275617,0 30.19732395348792,0.2472152345114124,0 30.19735275362226,0.2472009844885451,0 30.19738874827248,0.2471939181759863,0 30.19743193859605,0.2471653838494259,0 30.19747512312683,0.2471440156955827,0 30.19751830240418,0.2471298118589566,0 30.19754708486012,0.2471155688725545,0 30.19758306064221,0.247094186798174,0 30.19760464369667,0.2470870870688418,0 30.19764780700218,0.2470657289730712,0 30.19768377200172,0.2470515122583807,0 30.19771254161482,0.2470515958221665,0 30.197755691296,0.2470302430943395,0 30.19778445520706,0.2470231682297177,0 30.19781321573006,0.2470160936258845,0 30.19784916412031,0.2470233587112262,0 30.19788510867735,0.2470234646386389,0 30.19794979985837,0.2470236546517205,0 30.19799996656857,0.2470237024229307,0 30.19803560951708,0.2470307560013235,0 30.19807125667503,0.2470306522456315,0 30.19810690706401,0.2470305482816132,0 30.19814256150545,0.2470304445261679,0 30.19817108748877,0.2470232025200127,0 30.19819961595618,0.2470231190468298,0 30.19823528000431,0.2470158554559654,0 30.19827094626514,0.2470014309874521,0 30.19829234819141,0.246979887403636,0 30.19832088631971,0.2469654810808848,0 30.19835656168463,0.2469367306879641,0 30.19839224057132,0.2469151375775668,0 30.19842078606149,0.2468864038190189,0 30.19845647203097,0.2468576448543668,0 30.19849216161885,0.2468360460378349,0 30.19851357695815,0.2468144901563444,0 30.19854213348761,0.2467929104493978,0 30.19856355140571,0.2467713518840138,0 30.19858497065081,0.2467426287152824,0 30.19859925138746,0.2467139283684151,0 30.19862067332861,0.2466780383159119,0 30.19863495481768,0.2466350074068552,0 30.1986635206405,0.2465847603416572,0 30.19869209009606,0.2465488407736917,0 30.19872066037229,0.2465129150420605,0 30.19874213464405,0.2464913951705844,0 30.19875650529442,0.2464627898478219,0 30.19877083481345,0.2464484607976834,0 30.1987852255706,0.2464127194940363,0 30.19880675955847,0.2463769528462602,0 30.19882825218257,0.2463554610689106,0 30.19885692815025,0.2463196683798103,0 30.19887844052847,0.2462910407370189,0 30.19889995221462,0.246262413094073,0 30.19892862693458,0.2462266227889512,0 30.19895009845572,0.2462122661078874,0 30.19897157150894,0.2461979096613852,0 30.19900024591814,0.2461621191737329,0 30.19902173769114,0.246140627995079,0 30.19904321076596,0.2461262698284707,0 30.19908615807635,0.2460975540424168,0 30.19910763305828,0.2460831957716428,0 30.19914341940191,0.2460616423742394,0 30.19917204262177,0.2460472521733447,0 30.19919351916123,0.2460328925735585,0 30.19922932558122,0.2460042031934229,0 30.19925796784576,0.2459826781301229,0 30.19928657934921,0.2459754198209787,0 30.19932235708968,0.2459609953709336,0 30.19935097194409,0.2459537350816217,0 30.19938688177605,0.2459395828693739,0 30.19942995827126,0.2459397753247183,0 30.19945867317898,0.2459399032983722,0 30.19957117811049,0.2459018242943959,0 30.19961514823565,0.2458682253896295,0 30.19964808459764,0.2458346655736451,0 30.19970334928599,0.2458455944346335,0 30.1997475166258,0.2458454222069515,0 30.19979168824847,0.2458452501421743,0 30.19983586219078,0.245845077976394,0 30.19989108623164,0.2458448628723242,0 30.19993513530329,0.2458112795151423,0 30.19997932272923,0.2457888978459597,0 30.20001263141596,0.2457555808688328,0 30.20005723516359,0.245733519437437,0 30.20011309319885,0.2457226852659145,0 30.20014657029335,0.2457228201251477,0 30.20019120559598,0.2457230005039626,0 30.20024699310449,0.2457232260574897,0 30.20029161911976,0.2457234060652236,0 30.20034739615059,0.2457236305572935,0 30.20039196094109,0.2457348665503324,0 30.20042536939667,0.2457460568020813,0 30.20048102930721,0.2457683921176857,0 30.20051438270465,0.2457906368920804,0 30.20058124023723,0.245801958354619,0 30.20062584279869,0.2458021347469807,0 30.20068153888052,0.2458134104902462,0 30.2007261217456,0.2458135766936263,0 30.20081528478099,0.245813923725814,0 30.20085986882329,0.2458141002192664,0 30.20091559286661,0.245814321789636,0 30.20096016701886,0.2457923074096046,0 30.20100473870216,0.2457702948168747,0 30.20104930511408,0.2457593781918118,0 30.20111615056194,0.245759647052987,0 30.20116071021047,0.2457820129864184,0 30.20118298872384,0.2458153817634302,0 30.2012277082111,0.245860089769728,0 30.20127243674485,0.2459048055136401,0 30.20130597755125,0.2459383376094372,0 30.20136178326462,0.2459719505552423,0 30.2013842677434,0.2460276936308043,0 30.20139561771286,0.2460833858033021,0 30.20139583524347,0.2461390315029037,0 30.20138483572759,0.2461723745857634,0 30.20137392399676,0.246227971283848,0 30.20136301255095,0.2462835632137776,0 30.20136318799325,0.2463280642960228,0 30.20136340807069,0.2463836868045154,0 30.2013636275029,0.2464393022262926,0 30.20138605607806,0.246483862018181,0 30.20140840095626,0.2465283451986177,0 30.20143054214906,0.2465726629062618,0 30.20146366796733,0.2466058086207997,0 30.20149679604785,0.246638955533887,0 30.20150783933895,0.2467054279303702,0 30.20150784076549,0.246738681923295,0 30.20150784218895,0.2468162738783426,0 30.20149679982675,0.2468717291579886,0 30.20149680034116,0.246916066911852,0 30.20148575858645,0.2469715209406836,0 30.20144159166399,0.2470048995699802,0 30.2014195090897,0.2470492965151578,0 30.20139728352173,0.247093589706354,0 30.20136390083611,0.2471267489859794,0 30.20133076801437,0.2471711670044798,0 30.20130868555265,0.2472155614858084,0 30.20128651819418,0.2472598952818464,0 30.20126435087324,0.247304228764621,0 30.20125326741401,0.2473374793200191,0 30.20122001671714,0.2474039798049197,0 30.20122001758408,0.2474704811234817,0 30.2012200184823,0.247525898680057,0 30.20125327094497,0.247581316966089,0 30.2012865235242,0.2476367354604135,0 30.20133085882095,0.2476921530687646,0 30.20135302763546,0.2477254034666894,0 30.20135302847684,0.2477919046808516,0 30.20136411118258,0.2478362389973404,0 30.2013862744525,0.2478805701703507,0 30.20139727289066,0.2479026924717037,0 30.20144139638316,0.2479580051735326,0 30.20148561008218,0.2479911947764971,0 30.20154098738094,0.2480022556112046,0 30.20156307543949,0.248024382966527,0 30.20161830006899,0.248057534898434,0 30.20166248235205,0.2480796240655448,0 30.20175085854733,0.2480794603150112,0 30.20180610140698,0.2480904458700168,0 30.20186134933493,0.2481014322066201,0 30.20191660348702,0.2481013309768859,0 30.20198291503749,0.2481012096370418,0 30.20203818060703,0.2481011081989853,0 30.20206028858178,0.2481010675613413,0 30.20211564567535,0.2481121059418917,0 30.20216015006127,0.2481565474211856,0 30.20219352464908,0.2482009652242494,0 30.20222689946767,0.2482342919429545,0 30.20226027070758,0.248278704925358,0 30.20229364029736,0.248312026823483,0 30.20232700729108,0.2483564346726593,0 30.20233812984552,0.2483675408341247,0 30.20239373573385,0.2484341547264987,0 30.202438217181,0.248478571587777,0 30.20246045693274,0.2484896915106093,0 30.20252716837231,0.2485452216550814,0 30.202571629362,0.2485674518843504,0 30.20260485556615,0.2485896080612414,0 30.20266043707795,0.2485896855423099,0 30.20271601120149,0.2485897629878151,0 30.20277163825073,0.248578787420481,0 30.20283813221317,0.2485566106504041,0 30.20288235699353,0.2485565479348036,0 30.20294870109164,0.2485342838295437,0 30.20300399398807,0.2485342043063681,0 30.20305929269338,0.2485341247051793,0 30.20311459758752,0.2485229583126922,0 30.20318097019985,0.2485339497743393,0 30.20325841532768,0.2485449263087123,0 30.20331373787714,0.248567022905441,0 30.20335795563494,0.2485891082701989,0 30.20341324748476,0.248611181267775,0 30.20347960270587,0.2486443247309955,0 30.20354606564523,0.2486886319785268,0 30.20361257600698,0.2487107870134004,0 30.20366797665238,0.2487440222221674,0 30.20370123522729,0.2487551008599123,0 30.20375665967418,0.2487772586690526,0 30.20381212277639,0.2487772586952661,0 30.20385647520544,0.2487883381271903,0 30.20391192225128,0.2487994174679112,0 30.20401175795043,0.2487994177533654,0 30.20405611498223,0.2488104974844658,0 30.2041448578879,0.2488104976909178,0 30.20416702314698,0.2488215707348564,0 30.20422241872239,0.2488215054716491,0 30.20428889955793,0.2488214275259087,0 30.2043443068227,0.248821362471422,0 30.2043997199058,0.2488212971564092,0 30.20444405504776,0.24882124564441,0 30.20447730880891,0.2488212062417518,0 30.2045327350481,0.2488211414216697,0 30.20457708007514,0.2488210891541546,0 30.20464360487257,0.2488210109744127,0 30.20468796849662,0.2488098736594483,0 30.20474341632271,0.2488098083186533,0 30.20479887743779,0.2487986562104985,0 30.20486543887096,0.2487985963121828,0 30.20489873785429,0.2487985963651489,0 30.20497643729115,0.2487985967312555,0 30.20502083711827,0.2487985963412279,0 30.20507633627022,0.2487985966804984,0 30.2051207532926,0.248798642921541,0 30.20516516922803,0.2487986966734692,0 30.20524288079509,0.2488098611762803,0 30.20532057868909,0.248832096767186,0 30.20539827227006,0.2488543308985413,0 30.2054537656648,0.2488654661014851,0 30.20548705658988,0.2488876483307698,0 30.20556473975638,0.2488876697567585,0 30.20560912912874,0.2488876205910106,0 30.20565352124566,0.2488875708521067,0 30.20573121519441,0.2488764104408267,0 30.20577561391911,0.2488652869557362,0 30.20582000888076,0.2488430880567346,0 30.20586440995511,0.2488319633206564,0 30.2059199094344,0.2488097518691955,0 30.20595321139969,0.2487986392159275,0 30.20601981619327,0.248776413387864,0 30.20607531902404,0.2487542004895905,0 30.2061419394964,0.2487430452415492,0 30.20620856528253,0.2487318889900346,0 30.20628627751342,0.2486985711851929,0 30.20634181892873,0.2486985005573398,0 30.20639738257939,0.2486762007933794,0 30.2064418501351,0.2486649958241311,0 30.20648630632084,0.2486316121123027,0 30.20650853121676,0.2486093748424455,0 30.20655299397072,0.2485759859209349,0 30.20657523308077,0.2485426241311089,0 30.20663086067059,0.2485091470962918,0 30.20666424246394,0.2484646233682608,0 30.2067198883114,0.2484200254124082,0 30.20676441058927,0.2483754512922805,0 30.20682007704901,0.2483419457258838,0 30.20685348209159,0.2483085064461625,0 30.20690916622749,0.2482638771072471,0 30.20695361336526,0.2482194325039384,0 30.20702028251792,0.2481749862410583,0 30.20705361733264,0.2481305406291483,0 30.20707584011308,0.2481194285950118,0 30.20712026622593,0.2480750113823308,0 30.20718679078907,0.2480418656652927,0 30.2072644122519,0.2480198350330298,0 30.20728656313305,0.2479977019792861,0 30.20734200255596,0.247986722091012,0 30.20739741688285,0.2479646577559457,0 30.20749715427592,0.2479315998345577,0 30.2075525864383,0.2479317097102284,0 30.20759688956918,0.2479096316334296,0 30.2076523936863,0.2478985492713707,0 30.20771898303706,0.2478763793818821,0 30.20775229702151,0.2478652744618264,0 30.20781892501649,0.2478430649342702,0 30.207863343533,0.2478319597535407,0 30.20789665794724,0.2478319595453675,0 30.20795218164846,0.2478208545206179,0 30.20799660064642,0.2478208544163369,0 30.20804101956682,0.2478097495477143,0 30.20809654316434,0.2477875398103016,0 30.20814096215393,0.2477764349934017,0 30.20820758878586,0.2477653287170664,0 30.20825200819243,0.2477320151008378,0 30.2083186361806,0.2476987026841028,0 30.20837415922894,0.247676492948479,0 30.20841857770072,0.2476542837334486,0 30.20846299704248,0.2476320742056825,0 30.208518519987,0.2476209691815688,0 30.20857404300737,0.2476098642614311,0 30.20861846164729,0.2476209681398668,0 30.2086628794287,0.24764317693886,0 30.20870729815352,0.2476653852165254,0 30.2087627997254,0.2476654008499046,0 30.20879604913205,0.2476765542254609,0 30.20886247754188,0.2476767015707317,0 30.20889562236511,0.2476546176102726,0 30.20896200381942,0.2476436891099087,0 30.20901730876153,0.2476327350821856,0 30.20907264201229,0.2476328595064379,0 30.20910580417802,0.2476218587947206,0 30.20918325607734,0.2476220337603937,0 30.20923857238651,0.2476221591228481,0 30.20930494440733,0.2476223092873603,0 30.20934918811584,0.2476224092231484,0 30.20941562107002,0.2476336073783599,0 30.20948240619333,0.2476445784248856,0 30.2095270406053,0.2476222281567342,0 30.20956045990271,0.2476221516889314,0 30.2096049804459,0.2476331743049276,0 30.2096606029879,0.2476552977252529,0 30.20969390318376,0.2476885970616172,0 30.20972711872703,0.2477441446744782,0 30.20974931884026,0.2477663440927705,0 30.20978257514603,0.2478107658474659,0 30.20981587450222,0.2478440640370538,0 30.20984917359984,0.2478773624348354,0 30.20990488663954,0.2478994513323835,0 30.20996061137569,0.247921539439485,0 30.2100051948953,0.2479436516646078,0 30.21001634130188,0.2479880347237107,0 30.21001634111225,0.2480324400242961,0 30.20998290187426,0.2480658065549431,0 30.20996060977864,0.2481102513876977,0 30.20993831826443,0.2481546941617717,0 30.20988283077745,0.2481657877528646,0 30.20983851376231,0.2481879499251265,0 30.20979411017788,0.2481879504978318,0 30.20974974786741,0.2481990321044821,0 30.20970538494911,0.2482101140496683,0 30.20966106228396,0.2482322785404667,0 30.20960577943982,0.2482432759154266,0 30.20955058793083,0.2482764334945091,0 30.2094732593404,0.2483095600781484,0 30.20941800874864,0.2483316425415809,0 30.20936275122756,0.2483537278325935,0 30.20932962257928,0.2483758510901469,0 30.20926335575708,0.248420104720427,0 30.20921914580922,0.2484422179530533,0 30.20915278547733,0.2484643009199555,0 30.20911967249812,0.2484975293543246,0 30.20908655504703,0.2485307618934826,0 30.20904228838754,0.2485417926843434,0 30.20896493664524,0.248586043166248,0 30.20890957723716,0.2486192886679021,0 30.2088763710354,0.2486414544421384,0 30.20879890251442,0.2486968772296375,0 30.20873240585848,0.2487301361390015,0 30.20867701757056,0.2487633993610588,0 30.20862162294793,0.2487966662705472,0 30.20856628129399,0.2488410285431957,0 30.20852177549199,0.2488632790556291,0 30.20846613191734,0.2488966550341406,0 30.20843275230903,0.2489189004612755,0 30.20839937366464,0.2489411458101099,0 30.20835490690131,0.2489856116450364,0 30.20829926824472,0.2490189836621128,0 30.20825486971063,0.2490634229618769,0 30.20819939163954,0.2491078482130134,0 30.20814381854793,0.2491523107605393,0 30.20809924786876,0.2491968160279837,0 30.20804353988787,0.2492524423618699,0 30.20801011851724,0.2493080467286927,0 30.20796555851825,0.2493525401162315,0 30.20793214203599,0.2494081373432679,0 30.20788758870812,0.2494526231742226,0 30.20785417638811,0.2494859855407614,0 30.20782068060473,0.2495193682127905,0 30.20776482679365,0.2495527813111054,0 30.20773129607375,0.2495861645477765,0 30.20767550976707,0.2495973325994541,0 30.20761969391096,0.2496307239182491,0 30.20757517178825,0.2496529597111469,0 30.207519672551,0.2496862737676813,0 30.20746418990279,0.2497084778028647,0 30.20740868530619,0.249741794881614,0 30.20735317842098,0.2497751131067355,0 30.20730877808237,0.2497973239076303,0 30.20726437643795,0.2498195356465953,0 30.20723108227814,0.2498306392320788,0 30.20718669268582,0.2498417403248111,0 30.20712008049696,0.249875062102115,0 30.20706456023655,0.2499083878311218,0 30.20702014839117,0.2499306045726813,0 30.20695361741462,0.249963921665101,0 30.20690922125175,0.249986140251845,0 30.20686474882369,0.2500083659485636,0 30.20682028990816,0.2500417014497824,0 30.20676470773864,0.2500750365237214,0 30.20670912858102,0.2501083705550245,0 30.20665355182772,0.2501417027100245,0 30.2066202186226,0.2501750353027503,0 30.2065646442736,0.2502083656853405,0 30.2065201833035,0.2502305844743482,0 30.20647567507943,0.2502750121375388,0 30.20644229571168,0.2503083286131308,0 30.20639779600716,0.2503305277414329,0 30.20635330324626,0.2503527233262615,0 30.20631993816127,0.2503860264621185,0 30.20627545828011,0.2504082144394925,0 30.20624210391392,0.2504415100712246,0 30.20618653930812,0.250474798395229,0 30.20615321089202,0.2505080985945803,0 30.20610877627425,0.2505302884417645,0 30.20606434411942,0.2505524766731124,0 30.20603102343329,0.250563565255189,0 30.20589775856754,0.2505968120542679,0 30.20585334380897,0.2505856912499668,0 30.20579783126771,0.2505856667078899,0 30.20576452571384,0.2505856519827029,0 30.20569792220291,0.2505745234985206,0 30.2056424252927,0.2505744993215266,0 30.20559803139692,0.2505744803134456,0 30.2055314476807,0.2505633578099197,0 30.20547595268462,0.2505522826929628,0 30.20542045992973,0.2505522887230645,0 30.20536496919498,0.2505522886717879,0 30.20529838014881,0.2505522887245802,0 30.20525398344971,0.2505411951721632,0 30.20520959071126,0.2505411951201773,0 30.20515409423499,0.2505301014110485,0 30.20509859136913,0.2505079133151302,0 30.20504309165764,0.2504968185632523,0 30.20499869131132,0.2504857238635658,0 30.20495428854769,0.2504746289552223,0 30.20489878637348,0.2504635336816169,0 30.20485439016065,0.2504635338367813,0 30.20481001439541,0.2504524265768332,0 30.20471020718831,0.250452393981767,0 30.20465471042525,0.2504523967069643,0 30.2046102363044,0.2504524254049794,0 30.20454351236585,0.2504524683234812,0 30.20448789650888,0.2504525039766471,0 30.20444339520472,0.2504525327815738,0 30.20438775787824,0.2504525684370199,0 30.20432097933318,0.2504526115167985,0 30.20427647829769,0.2504415278211866,0 30.20423197105753,0.2504304426667284,0 30.20417629355634,0.250430476345271,0 30.20410946532921,0.250430517059651,0 30.20406490406473,0.250430543943983,0 30.20402033543237,0.2504305707247834,0 30.20397575943212,0.2504305978188685,0 30.2039201769026,0.2504306020898501,0 30.20386461925839,0.2504306022986974,0 30.20380906135541,0.2504306020903609,0 30.20377572682672,0.2504306022985784,0 30.20372016868299,0.2504083798403582,0 30.20367572250819,0.2503972682460659,0 30.20363127589494,0.2503972683496029,0 30.20358683089037,0.2503861569636023,0 30.20354238388327,0.2503861569628452,0 30.20348682641916,0.2503750458887958,0 30.20344238022939,0.2503750456809012,0 30.20337571068767,0.2503750453695623,0 30.2033423764212,0.2503750453702379,0 30.20329792955997,0.2503639338814064,0 30.20322014832921,0.2503639341947776,0 30.20317570253419,0.2503528232264089,0 30.20312014495645,0.250341712049592,0 30.20307569892909,0.2503306004557247,0 30.20303125197563,0.2503083775805905,0 30.20297569417038,0.2502972665073526,0 30.20293124751318,0.2502861552256299,0 30.20289791303966,0.2502750437355029,0 30.20287568923134,0.2502750437350806,0 30.2027979077322,0.2502639325564115,0 30.20274235028898,0.2502528209635908,0 30.20268679218612,0.2502417096836022,0 30.20265345621678,0.2502305979862252,0 30.20257567501048,0.2502194869145251,0 30.20252011683312,0.2502083755296025,0 30.20246455846366,0.2501972643528806,0 30.20240900032039,0.2501972642486981,0 30.20236460897929,0.250219485019082,0 30.20233140827104,0.250230590952478,0 30.20227609030012,0.2502528018891922,0 30.20222081505356,0.250286117116296,0 30.20217658762696,0.2503083232670237,0 30.20213232966005,0.2503194203337376,0 30.20208815870564,0.2503416181547827,0 30.20203305768712,0.2503638006282502,0 30.20198900069243,0.2503859835304163,0 30.20194495323505,0.2504081616393636,0 30.20190087675912,0.2504192366029326,0 30.20182344395028,0.2504192129432877,0 30.20179025530769,0.2504192035407755,0 30.20174600611271,0.2503969890803905,0 30.20170175994794,0.2503858768323,0 30.20163539837515,0.2503747600884363,0 30.20159116245134,0.2503636497169802,0 30.20153587050334,0.2503636363396749,0 30.20148058529239,0.2503636229629189,0 30.20143636259281,0.2503747104505111,0 30.2013921417269,0.2503857973642836,0 30.20132581699461,0.2504079726710864,0 30.20129265862005,0.2504412522944215,0 30.20124844909875,0.2504745261269657,0 30.20120424363618,0.2505077970406653,0 30.20117109238499,0.2505410698888141,0 30.20110479537375,0.2505632318546036,0 30.20104955270583,0.2506075836595341,0 30.20102745787531,0.250618667045988,0 30.200972223583,0.250663012964259,0 30.20090594974839,0.2506962561418318,0 30.20086177254663,0.2507184159845615,0 30.20081759741931,0.2507516657413538,0 30.20077342738043,0.2507738215191812,0 30.20074030121415,0.2508181634897159,0 30.20074030072557,0.2508514357855172,0 30.20071811781056,0.2508957975451719,0 30.20069583378062,0.2509401771077237,0 30.20065126489526,0.2510067594532762,0 30.20061783609843,0.2510511535680496,0 30.20059554861117,0.2510844491836302,0 30.20053980052185,0.2511288777480945,0 30.20050604669711,0.2511622541425424,0 30.20047228803513,0.2511956364009572,0 30.20042737314672,0.2512179410289086,0 30.20040485781412,0.2512402031262855,0 30.20035992837519,0.2512625159710039,0 30.20029251626004,0.2512959938556452,0 30.20023638168911,0.2513183364413297,0 30.20021395710176,0.2513405890133641,0 30.20013545495931,0.2513740761385538,0 30.20010180237407,0.2513852557886347,0 30.20002356551229,0.2514297914996106,0 30.19999042153504,0.2514408557678305,0 30.19991309343978,0.2514851744857982,0 30.19986891186224,0.2515073245977822,0 30.19980264475766,0.2515405460591149,0 30.19974742876854,0.2515737788225691,0 30.19969221720793,0.2516070080682659,0 30.19963701299735,0.2516402342653341,0 30.19960389175017,0.2516734884606389,0 30.19955973442796,0.2517178245387799,0 30.19952661874625,0.2517510736789588,0 30.19950454237348,0.2517954372343925,0 30.1994935035011,0.251828717656102,0 30.19947142862114,0.2518730779803185,0 30.19942728118567,0.2519174006125525,0 30.19940520892379,0.2519617568196717,0 30.19935017289124,0.2520171080583804,0 30.19930654185346,0.2520612619570182,0 30.19926285736164,0.2520943304249302,0 30.19921905512286,0.252105244757747,0 30.19919718787581,0.252116237526894,0 30.19903182060887,0.2522324940986043,0 30.19898744022863,0.2522547654806327,0 30.19894306914101,0.2522770289939419,0 30.19893198121231,0.2522881236874628,0 30.19885436895054,0.2523103583328786,0 30.19879893924121,0.2523325718525763,0 30.19876568378277,0.2523658510344297,0 30.19875459823167,0.2523991119043633,0 30.1987102607522,0.2524545623535149,0 30.19867701120153,0.2524878351770907,0 30.19866592791682,0.2525432564057401,0 30.19863267792682,0.2525765063485632,0 30.19863267776787,0.2526097563944938,0 30.19861051267385,0.2526430146653759,0 30.19858835560015,0.252698459310505,0 30.19855511201581,0.2527428028751544,0 30.19852187185668,0.2527760616309759,0 30.19849971253934,0.2528203964559933,0 30.19846647547096,0.252853651355693,0 30.19843324031567,0.2528869043790076,0 30.1983889299428,0.2529423190822997,0 30.19836677627508,0.2529755643042506,0 30.19834462274831,0.2530309688239487,0 30.19833352875227,0.2530863655210316,0 30.1983113547412,0.2531196045682074,0 30.19827808943785,0.2531750083652489,0 30.1982559119751,0.253208253249447,0 30.19823372304245,0.2532636658026912,0 30.19820046021212,0.2532969162112685,0 30.19816718271209,0.2533523379368501,0 30.19810066948224,0.2533745085534955,0 30.19805632226316,0.2533855961565225,0 30.19801197266577,0.2533966841765805,0 30.19796763670944,0.2533966841242118,0 30.19791220001659,0.2534077726675975,0 30.19790111580658,0.2534077727198302,0 30.19781242402794,0.2534188616285367,0 30.19776808564989,0.2534188616809884,0 30.19772374876167,0.2534188617333864,0 30.1976904949978,0.2534188616814828,0 30.19760181999398,0.2534188617858888,0 30.19753531305411,0.2534188617854607,0 30.19749097489449,0.2534188617329311,0 30.19745769636843,0.253429951160748,0 30.19739113328647,0.2534521313712834,0 30.19734681451709,0.253463210592943,0 30.19729143390559,0.2534853717205101,0 30.19724712657667,0.253507534064728,0 30.197180682252,0.2535296881961063,0 30.19713637945669,0.2535518482469781,0 30.19710314440294,0.2535740114399294,0 30.19705886134952,0.2535850821842223,0 30.1970144762013,0.2536626787347301,0 30.19697014153536,0.2537070126554419,0 30.1969369093041,0.2537291739197786,0 30.19685938201177,0.2537734897877421,0 30.19681508752943,0.2537956430886852,0 30.19677077585198,0.2538288851224429,0 30.19674861042537,0.2538510504799302,0 30.19670427815613,0.253895381064313,0 30.19667103075564,0.2539286293803017,0 30.19662671961416,0.2539618694136833,0 30.19659349341465,0.2539840265934929,0 30.19654928208328,0.25402831073821,0 30.19651632589925,0.2540725207740987,0 30.19648335716541,0.2541056495628835,0 30.19645039569392,0.2541387703681673,0 30.19640650707346,0.2542050499902189,0 30.19637356505337,0.2542381485006339,0 30.19632960691882,0.2542601445669813,0 30.19629668359415,0.2542932277465403,0 30.19625274742651,0.2543152099153358,0 30.19620879829767,0.2543261291494091,0 30.1961536237933,0.254348191267701,0 30.19608734968622,0.2543591994984248,0 30.19605423015263,0.2543591633904544,0 30.19597692866907,0.254370157457075,0 30.19591064052952,0.2543701120721767,0 30.19586625867822,0.2543701611583692,0 30.19577745638458,0.2543813381126223,0 30.19572193439398,0.2543924801218519,0 30.19566643687714,0.2543925423072919,0 30.19562200292608,0.2544036734329796,0 30.19555557496151,0.2544147486223551,0 30.19551146133889,0.2544257545172329,0 30.19546731883492,0.254425704122446,0 30.19539014510589,0.2544477243680274,0 30.1953791127883,0.254447712082084,0 30.19530192023129,0.2544586752827504,0 30.1952578310465,0.2544696760970333,0 30.19520257326472,0.2544696506133457,0 30.19514728183822,0.2544807030717101,0 30.19509199165323,0.2544917553216463,0 30.19504772923899,0.2544917551659478,0 30.19499243655238,0.2545028083646352,0 30.19494802112661,0.2545249935318097,0 30.19491470702183,0.2545361004907218,0 30.1948480727707,0.2545472507579546,0 30.19479253810956,0.2545694550171568,0 30.19473699721722,0.2545916617778806,0 30.19468145034638,0.2546028024387798,0 30.1946258978698,0.25461394435053,0 30.19458145188185,0.2546250723299805,0 30.19451491177938,0.2546472526552086,0 30.19447063234778,0.2546693921524082,0 30.19441528314372,0.2546915314933165,0 30.1943599337329,0.2547247402694799,0 30.19431565156469,0.2547468795577909,0 30.19427137147613,0.2547690190034079,0 30.1942270920437,0.2548022280412197,0 30.19417174136995,0.2548354372872502,0 30.19412746205332,0.254868646428891,0 30.19409425114038,0.2549018553099529,0 30.19404996133358,0.2549350690281842,0 30.19401646081707,0.2549683884060686,0 30.19398295668756,0.2550017113283166,0 30.1939494469029,0.2550350385244127,0 30.19391588553751,0.2550794620160959,0 30.19387129529243,0.2551017258740599,0 30.19382669839376,0.2551239910898067,0 30.19378204721309,0.2551573555197355,0 30.19373738759188,0.2551907242239878,0 30.19370390141821,0.2552129797274497,0 30.19367039329316,0.255246323734683,0 30.19363716180422,0.2552906307681178,0 30.1936039310273,0.2553238608086471,0 30.19357069889842,0.2553681675294788,0 30.19353746844952,0.2554124744585735,0 30.19351531690263,0.2554567865889619,0 30.19350423813219,0.2555010927908878,0 30.19349316022631,0.2555564758814945,0 30.19347100611283,0.2556007826044712,0 30.19345992832472,0.2556450889107024,0 30.19343777136629,0.2557004705426536,0 30.19342669229725,0.2557558534251248,0 30.19341561466452,0.255789084300986,0 30.19340453693993,0.2558333909193465,0 30.19337130506545,0.2558666218988763,0 30.19336022617587,0.255944159601772,0 30.19332699379646,0.255988467470472,0 30.19330483899726,0.2560216973561059,0 30.19326052915319,0.256077082530254,0 30.19323839175406,0.2561213832121569,0 30.19319415673811,0.2561545682818563,0 30.19316098769156,0.256176685472021,0 30.19310616984404,0.2562096103378662,0 30.19305136273009,0.256253602505755,0 30.19300752564237,0.2562755018361267,0 30.19296369597689,0.256286325319637,0 30.19291987320482,0.2562860751458015,0 30.192865105258,0.2563079040524333,0 30.19278844793447,0.2563185331472125,0 30.19274465267941,0.2563293483478475,0 30.19268974565976,0.2563512632252762,0 30.19263465547936,0.256362203151162,0 30.19256862752836,0.2563620102398893,0 30.19252461341592,0.2563618819278915,0 30.19246967775013,0.256328487929377,0 30.1924144159414,0.2563173922619983,0 30.19237028392913,0.2562952002482039,0 30.19233722033475,0.2562730080261582,0 30.19228196170402,0.2562619134527213,0 30.19224903370255,0.2562175331250248,0 30.19222717221559,0.2561731558202007,0 30.19220531247126,0.2561287824761722,0 30.19218324348558,0.2560734412802597,0 30.19217218164653,0.2560181276599404,0 30.19218324675282,0.2559738760237125,0 30.19221643736023,0.2559406867885871,0 30.19224962886763,0.2558964349437525,0 30.19228304433848,0.2558742133012359,0 30.19231662940985,0.2558408617068614,0 30.19235007856649,0.2558296906149302,0 30.19240590818098,0.2557962899917272,0 30.19243948013827,0.2557629496553987,0 30.19249507063346,0.2557517688460277,0 30.19253893428427,0.2557298047207725,0 30.19258280236364,0.2557078376772045,0 30.19263755279171,0.2556970052954902,0 30.19269231354502,0.2556861710384227,0 30.19273612688063,0.2556752958868406,0 30.19279055203159,0.2556646057677843,0 30.19283410416493,0.2556427717266309,0 30.19287766769793,0.2556209322673031,0 30.19291034668978,0.2555879465904933,0 30.19295392733218,0.25556609650199,0 30.1929866201095,0.2555330987365217,0 30.19303021884389,0.2555112372895504,0 30.19307382973814,0.2554561499720125,0 30.19310650174958,0.2554231482447073,0 30.19313907448233,0.2553901755464976,0 30.19317196840248,0.2553570806452747,0 30.19320515696681,0.2553238661198557,0 30.19321623506809,0.2552906360795494,0 30.19324946666352,0.2552352527837745,0 30.1932716216091,0.2551909459596546,0 30.19328269887181,0.2551466391350049,0 30.19328270044685,0.2550801798879448,0 30.19330485481067,0.2550358729597272,0 30.1933270097033,0.2549915659267026,0 30.19336024066194,0.254947259935738,0 30.19338263530324,0.2549028742920695,0 30.19341608318744,0.2548917277492807,0 30.19346076620976,0.2548583795274248,0 30.19350533500452,0.2548472187897974,0 30.19354995438479,0.2548249686361095,0 30.19358338617525,0.2548138275664337,0 30.19363917276034,0.2547804764079164,0 30.19368377361025,0.2547582344375072,0 30.19370617831484,0.2547249403544922,0 30.19373980264441,0.2546694632536313,0 30.19375097484033,0.2546583630310005,0 30.19371444672224,0.254626119582911,0 
					</coordinates>
				</LinearRing>
			</outerBoundaryIs>
		</Polygon>
		<atom:link rel="app" href="https://www.google.com/earth/about/versions/#earth-pro" title="Google Earth Pro 7.3.6.10201"></atom:link>
	</Placemark>
</Document>
</kml>
