<?xml version="1.0" encoding="UTF-8"?>
<kml xmlns="http://www.opengis.net/kml/2.2" xmlns:gx="http://www.google.com/kml/ext/2.2" xmlns:kml="http://www.opengis.net/kml/2.2" xmlns:atom="http://www.w3.org/2005/Atom">
<Document>
	<name>Kasese_Ibanda.kml</name>
	<StyleMap id="msn_ylw-pushpin">
		<Pair>
			<key>normal</key>
			<styleUrl>#sn_ylw-pushpin</styleUrl>
		</Pair>
		<Pair>
			<key>highlight</key>
			<styleUrl>#sh_ylw-pushpin</styleUrl>
		</Pair>
	</StyleMap>
	<Style id="sh_ylw-pushpin">
		<IconStyle>
			<scale>1.3</scale>
			<Icon>
				<href>http://maps.google.com/mapfiles/kml/pushpin/ylw-pushpin.png</href>
			</Icon>
			<hotSpot x="20" y="2" xunits="pixels" yunits="pixels"/>
		</IconStyle>
		<BalloonStyle>
		</BalloonStyle>
		<LineStyle>
			<width>0.6</width>
		</LineStyle>
		<PolyStyle>
			<color>ffffae6f</color>
		</PolyStyle>
	</Style>
	<Style id="sn_ylw-pushpin">
		<IconStyle>
			<scale>1.1</scale>
			<Icon>
				<href>http://maps.google.com/mapfiles/kml/pushpin/ylw-pushpin.png</href>
			</Icon>
			<hotSpot x="20" y="2" xunits="pixels" yunits="pixels"/>
		</IconStyle>
		<BalloonStyle>
		</BalloonStyle>
		<LineStyle>
			<width>0.6</width>
		</LineStyle>
		<PolyStyle>
			<color>ffffae6f</color>
		</PolyStyle>
	</Style>
	<Placemark>
		<name>Kasese_Ibanda</name>
		<styleUrl>#msn_ylw-pushpin</styleUrl>
		<Polygon>
			<tessellate>1</tessellate>
			<outerBoundaryIs>
				<LinearRing>
					<coordinates>
						30.06552234865179,0.3388979280407068,0 30.06544567073979,0.3388545144730775,0 30.06529460741934,0.3388194183554977,0 30.06519311545365,0.338778948417543,0 30.06506936161381,0.3387092631418344,0 30.06501851336856,0.3386341079718775,0 30.06506366013444,0.3384981337867273,0 30.06508842473385,0.3383576076473638,0 30.06511112439706,0.3382208979419026,0 30.0651820354174,0.3381356320893062,0 30.06522927302392,0.3380788362710494,0 30.06532365378174,0.3379653517739825,0 30.06539435815223,0.3378803347577788,0 30.06541780671958,0.3377151849663343,0 30.06551387538319,0.3375713851296527,0 30.06560970443918,0.3375099525557886,0 30.06570547259494,0.3374485594948349,0 30.06580122228684,0.3374145353191251,0 30.06589689034705,0.3373531991485591,0 30.06596843938422,0.3372937769556628,0 30.066088018844,0.3372856629201237,0 30.06623159947552,0.3372759195946378,0 30.06630342947825,0.3372710444809551,0 30.06639946212083,0.3372918251826585,0 30.06654329712709,0.3372820750242765,0 30.06663924252218,0.3372755709784872,0 30.06678353798408,0.337265197750092,0 30.06685602128562,0.3372593880859657,0 30.0670015041704,0.3372469544325974,0 30.06707410494871,0.3372410377969825,0 30.06724356261621,0.3372272333289815,0 30.06738818521113,0.337188508823604,0 30.06745943152959,0.337128850210938,0 30.06752916823335,0.3370156037291926,0 30.06760027097612,0.3369560875438518,0 30.06769473536249,0.3368678860183916,0 30.06778908716197,0.3367797881199602,0 30.0678591784496,0.3366937760186792,0 30.06795414647948,0.3366325251649427,0 30.06800077106143,0.3365752884372926,0 30.06809561788965,0.3365141241195059,0 30.0682133905329,0.3363964596279952,0 30.06828571135745,0.336390567604159,0 30.06847664429288,0.3362932511172713,0 30.06854827240937,0.3362601813502862,0 30.06864312516518,0.3361983107591218,0 30.06878569220278,0.3361335071365986,0 30.0688578534477,0.336127887781178,0 30.06892910650237,0.336095495746121,0 30.06904750048421,0.3360326154042667,0 30.06918987454841,0.3359678946237254,0 30.06923597489007,0.3359107330007295,0 30.06935311680334,0.335821317527683,0 30.06944712070922,0.3357607193068531,0 30.06951784802281,0.3357290467508752,0 30.06963587178727,0.3356664801088893,0 30.06977738778605,0.3356031095004915,0 30.06987218828055,0.3355694970425509,0 30.0699416891004,0.3355114295306759,0 30.0700578505066,0.3354234890719576,0 30.07017523023895,0.3353618531916902,0 30.07031655144303,0.3352984091587087,0 30.07040981041755,0.3352386703048971,0 30.07057311668546,0.3351489228447409,0 30.07066422324542,0.3350650699862963,0 30.07078108609268,0.3350042995874173,0 30.07087396594687,0.3349451949827112,0 30.07104076050715,0.3349050478214934,0 30.07117938450279,0.3347864460606477,0 30.07129678784926,0.3347226080201645,0 30.07138999762813,0.3346611397765262,0 30.07148445736582,0.3346269970487487,0 30.07158042605809,0.334619389440397,0 30.07167132800746,0.3345341019565442,0 30.07174001617879,0.3344760139805035,0 30.07183195132861,0.3343851043684267,0 30.07192529556851,0.3343209235997357,0 30.07201850638523,0.3342568352208145,0 30.07211094909712,0.3341963312138991,0 30.07220319903626,0.3341363894176326,0 30.07227513535372,0.3341297491276982,0 30.07239295309791,0.334094325500468,0 30.07251253113454,0.33408539810893,0 30.07268005386796,0.3340728955467305,0 30.07277583756396,0.3340657447545935,0 30.07289363045386,0.3340312324995526,0 30.073013460741,0.3340222792423223,0 30.07310937489991,0.3340151142149789,0 30.07317720826192,0.3339586059151232,0 30.07326908752026,0.3338989255537718,0 30.0733829617073,0.3338098534074631,0 30.07352274068793,0.333745097143881,0 30.07361656370361,0.3337106933702259,0 30.07370599429695,0.3336260267976206,0 30.07379970537967,0.3335921407930258,0 30.07391959460182,0.3335814885645717,0 30.07403948864425,0.3335715109606319,0 30.07413771189932,0.3335899031721282,0 30.07423602907029,0.3336083118857419,0 30.07433210875178,0.3336006422830046,0 30.07442822775402,0.3335929690436635,0 30.07452438059519,0.3335852926868442,0 30.07464220601623,0.3335496030780065,0 30.0747143550442,0.3335438399287001,0 30.07481058620536,0.3335361533755783,0 30.07490685392031,0.3335284641224109,0 30.07500315599163,0.3335207708143529,0 30.07512356302642,0.3335108973919497,0 30.07524657871761,0.3335267664531639,0 30.07537233282811,0.3335687717698065,0 30.07547147874723,0.3335867301770684,0 30.07557070755766,0.3336047034093099,0 30.07569418269947,0.3336206471230747,0 30.07583918376642,0.3336083727377955,0 30.07588475347365,0.3335781048403954,0 30.07604286361379,0.3334601760529043,0 30.07615546910772,0.333373879936143,0 30.07622222704616,0.3333158674352418,0 30.07635571799229,0.3332007752326433,0 30.07640113195203,0.3331710757082923,0 30.07650742133736,0.3330329391079642,0 30.0765952425271,0.3329484520495991,0 30.07665884452277,0.3328659334033834,0 30.07672236643746,0.3327835200700863,0 30.07680693696989,0.3326737958605165,0 30.07682508680675,0.3326208855291463,0 30.07693353153389,0.3325095494169987,0 30.07706586199152,0.3323964954822488,0 30.07712900810074,0.3323150015898753,0 30.07719226963531,0.3322342213010597,0 30.07727947070362,0.3321515487976864,0 30.0773695666473,0.3320938370838795,0 30.07745362735422,0.3319864395915609,0 30.07754622216963,0.3319525265676776,0 30.07763559638878,0.3318933916465833,0 30.07779969736063,0.3318525572658622,0 30.0778683965338,0.3318212715185263,0 30.07800892533953,0.331783697919276,0 30.07811892488519,0.3316980054110518,0 30.0781810896213,0.3316169818735946,0 30.07824641974467,0.3315609362598307,0 30.07833236485157,0.3314779905324501,0 30.07839757598302,0.331422050162755,0 30.07852785322198,0.3313102961737192,0 30.07861350518965,0.331227688882972,0 30.07877069306265,0.3311388626222704,0 30.07890050318992,0.3310276099223554,0 30.07898244539184,0.3309207547805748,0 30.07909159094984,0.3308366946179369,0 30.07915647185766,0.3307816141189758,0 30.07926219934733,0.330673507787269,0 30.07937110168341,0.3305898036383327,0 30.07942887050916,0.3304860950644639,0 30.07951719794524,0.3304290031285582,0 30.07957823505911,0.3303497962101983,0 30.07968674508655,0.330266432061221,0 30.07974414373238,0.33016319997593,0 30.07980494019727,0.3300842869658313,0 30.07986566897064,0.3300054631081359,0 30.0799465345912,0.3299005026662993,0 30.08000710512664,0.3298218850268805,0 30.08009130467094,0.3297412240491242,0 30.0801754138051,0.3296606467990733,0 30.08028314602209,0.3295780541394137,0 30.0803471420555,0.3295238940434269,0 30.08043122571096,0.3294437836892326,0 30.08056613066173,0.3293833111019779,0 30.08065389884959,0.329327390412907,0 30.08078545730432,0.3292435677951611,0 30.08084937877591,0.3291897889246146,0 30.08093643800871,0.3291334260953023,0 30.08098368738069,0.3291290841255659,0 30.08107920713943,0.3289753864897268,0 30.0811660510948,0.3289191620009942,0 30.08126501245606,0.3287896431238348,0 30.0813714297736,0.3287076974427354,0 30.0814344613454,0.3286538390134125,0 30.08152100063586,0.3285978419611716,0 30.08156811371967,0.3285934845225213,0 30.08167036701096,0.3284881367477336,0 30.08178028330139,0.3284300670769572,0 30.08186660806415,0.3283742144914414,0 30.08192937957456,0.3283206122262933,0 30.08201933060409,0.3282881901532081,0 30.08212508589171,0.328206776998786,0 30.08223043617243,0.3281252408972684,0 30.0822968445712,0.3280951488166944,0 30.08242960448545,0.3280349903706581,0 30.0825235609266,0.3280261840857565,0 30.08266038011812,0.3279895089113778,0 30.08270320760106,0.3279616516843271,0 30.08286347735089,0.3279227852573898,0 30.08295324673967,0.3278905359639699,0 30.08301527121333,0.3278370886533726,0 30.08307724959404,0.3277836817550888,0 30.08313067630787,0.3276836072042607,0 30.08320745856197,0.3275814916228898,0 30.08326069095232,0.3274817471960295,0 30.08334136059013,0.3274030922471425,0 30.08336656548468,0.327282589360779,0 30.08339598117653,0.3271854632090012,0 30.0834717652786,0.3270839440152554,0 30.08352893651211,0.3270081170559436,0 30.08357843121217,0.3268868253302809,0 30.08367848204696,0.3267841635880682,0 30.08378248878832,0.3267044612138416,0 30.08386304788134,0.3266270277993003,0 30.08396686225244,0.3265474811871922,0 30.08407450269658,0.3264906731364592,0 30.08415377162028,0.326413052946342,0 30.08426082311507,0.3263561767260378,0 30.08434478085571,0.3263016479529969,0 30.0844241303583,0.3262243740866989,0 30.08453118154402,0.3261677180675078,0 30.08461493711771,0.3261133250544334,0 30.08474033314042,0.3260317644959622,0 30.08483765175816,0.3259298195616002,0 30.08493945368827,0.3258506638031111,0 30.08499024302962,0.3257534964329374,0 30.08502715794754,0.3257038522884488,0 30.08510089837347,0.3256046870346911,0 30.085169835072,0.3254832061538279,0 30.08522540210839,0.3254092081646696,0 30.08528100342632,0.3253353200015351,0 30.08541024501931,0.325277139804179,0 30.08551636309122,0.3252212359181452,0 30.08558092009352,0.3251921755960342,0 30.08569617183911,0.325180959051896,0 30.08578375332495,0.3251496624928716,0 30.08585291438709,0.3251429292272134,0 30.0859725472799,0.325040266575468,0 30.08602761272804,0.3249667333247748,0 30.08605959847294,0.3248955301697352,0 30.08616020215084,0.3248176047172652,0 30.08625739753842,0.3247178576441148,0 30.08631295462541,0.3246448141080976,0 30.08641445358899,0.3245673554033566,0 30.08649739681967,0.3245142582127358,0 30.08655276434921,0.3244414071026684,0 30.08660353065163,0.3243466325142713,0 30.08665877969451,0.3242739526114053,0 30.08673692242638,0.3241990977014059,0 30.08676432437323,0.3241068719746086,0 30.08683621635809,0.3240101365470511,0 30.08689010281803,0.323937690093402,0 30.08693477344241,0.3238217077377105,0 30.08696145532933,0.3237299979497709,0 30.08701056140863,0.323636146361537,0 30.08703255270441,0.3235230252803917,0 30.08708152592487,0.3234294975531004,0 30.0871304151522,0.3233361136778654,0 30.08717922838508,0.3232428748051773,0 30.08725494754408,0.3231690653300243,0 30.08736682622406,0.3231577124148229,0 30.08740775555341,0.3232417361875237,0 30.08742633797217,0.3233281611201218,0 30.08740009819918,0.3234192713041588,0 30.08739626146111,0.323508242398275,0 30.08741953631381,0.3236167934905734,0 30.08744778183705,0.3237473492472715,0 30.08746680557594,0.3238345698048777,0 30.08736765989473,0.3239114419257338,0 30.0873140511404,0.3239838777312241,0 30.08734211200347,0.3241152459383562,0 30.08728880884462,0.3241879787817374,0 30.08723066603927,0.3242388169694623,0 30.08712731246701,0.3242943016256749,0 30.08704645968362,0.3243475311863125,0 30.08699287119166,0.3244205480334666,0 30.08693912198346,0.3244936409508066,0 30.08688388510327,0.3245666033391442,0 30.08681014899864,0.3246639995478219,0 30.086754781675,0.3247371325127749,0 30.08672700981539,0.324830270820684,0 30.08666237775049,0.3248591858031444,0 30.08657438174135,0.3250036770543069,0 30.08651468898679,0.3250549926943357,0 30.08646011272834,0.3251287492708985,0 30.08638724389836,0.3252272288778589,0 30.08630952204767,0.3253034639272082,0 30.08625471518898,0.3253775145751017,0 30.08617682423579,0.3254539280630143,0 30.08611722113258,0.325505689346266,0 30.08606218039025,0.3255799700050144,0 30.08600736447381,0.3256544122984463,0 30.08599840796753,0.3257243402640498,0 30.08594816696973,0.3258215621052732,0 30.08589784329151,0.3259189443827923,0 30.08589344867413,0.3260118656372394,0 30.08586602019794,0.3261072578739446,0 30.08581085941189,0.3261823793415876,0 30.08583874379411,0.3263189951214532,0 30.08586203414939,0.3264331056376542,0 30.08594535774042,0.3264947222049385,0 30.08604249771057,0.3265083114159189,0 30.08614052585193,0.3265221888118301,0 30.08630892121133,0.3265294034363364,0 30.08644920475637,0.3265159445752459,0 30.08654761665642,0.3265298931700366,0 30.08666828440053,0.3265412193834722,0 30.08680628809834,0.326526992109501,0 30.08692633976733,0.3265381052032602,0 30.08704134603872,0.3265262483023039,0 30.08713862236921,0.3265397868966867,0 30.08719515502396,0.3265810988832821,0 30.08731319103986,0.3266867713400091,0 30.08739825847448,0.3267489500903568,0 30.0874640053645,0.3268362017882493,0 30.08748306144359,0.326971032068731,0 30.08744744832238,0.3270436070595821,0 30.08741453404589,0.327138574542283,0 30.08735458408196,0.3272132191583691,0 30.08726800546073,0.3272676419663563,0 30.08717927751664,0.3272999265021839,0 30.08706888039489,0.3273137798779636,0 30.086962574704,0.3273505929466071,0 30.08685196249959,0.3273644841504903,0 30.08674092177591,0.327378261777277,0 30.08669369718026,0.3273827040765475,0 30.0865581480242,0.3274197737416442,0 30.08644762767756,0.3274552178760847,0 30.08633228103758,0.3274674128534895,0 30.08622164960029,0.3275028839385534,0 30.08611056762397,0.3275382156201797,0 30.0859939540736,0.3275499379866594,0 30.08587599562273,0.3275610813197513,0 30.08580523569979,0.3275677666856593,0 30.08566433402508,0.3275813874762571,0 30.08559415579072,0.3275883133835341,0 30.08550509147056,0.3276208109875132,0 30.08541599649554,0.3276533198385715,0 30.08530793571224,0.3277114424105916,0 30.08519091140891,0.327722987053461,0 30.08508273551129,0.3277811525824705,0 30.08494666693059,0.3278183338545684,0 30.08481483492334,0.3278788240189933,0 30.08470624932399,0.3279370028906628,0 30.08456867852128,0.3279735401920376,0 30.08442151972964,0.3280831196413457,0 30.08433215955972,0.3281158537629322,0 30.08422378766798,0.3281744750980919,0 30.08414305747973,0.3282543188583799,0 30.08399138755353,0.3283409602071556,0 30.08389090158972,0.3284467183606858,0 30.0837391059272,0.3285337100966221,0 30.0836346687627,0.328616485196625,0 30.08352113550193,0.3286516322840548,0 30.08343537533712,0.3287082323022453,0 30.08334532554983,0.3287411276479078,0 30.08323541226398,0.3287997705744494,0 30.08312517320594,0.3288582629155286,0 30.08303853041128,0.3289145520034032,0 30.0829084653249,0.3289990502927932,0 30.08282168802024,0.3290554264239725,0 30.08276682280724,0.3291574165758241,0 30.08271187226631,0.3292595648395029,0 30.08261330074768,0.3293901860149508,0 30.08255414648807,0.3294687476055035,0 30.08249544704081,0.329547832925623,0 30.08243647007983,0.3296268387743951,0 30.08238115387971,0.3297297869100148,0 30.08236928589629,0.3298042468099369,0 30.08233364791459,0.3298810847049436,0 30.08225436738167,0.3299867270641431,0 30.08222254383209,0.3300879596758609,0 30.08220268149396,0.3301144365627611,0 30.08210717102536,0.3302712292541441,0 30.08201577996093,0.3303046446786621,0 30.08195596072822,0.3303843555197845,0 30.08186786684293,0.3304416249411998,0 30.08178349309553,0.3305231832037944,0 30.08172293349861,0.3306025716080125,0 30.08168238876256,0.330655390845808,0 30.08160915588584,0.3308103452995431,0 30.08157251591892,0.3308879957073606,0 30.08151957556186,0.3310171217062909,0 30.08148699878916,0.3311200047046172,0 30.08143021211929,0.331225125598449,0 30.08139360547576,0.3313035578001036,0 30.08132888355623,0.3313593398063204,0 30.08122349832969,0.3314689522476107,0 30.08111825653559,0.3315791046198089,0 30.08102979168488,0.3316380294692201,0 30.08094125315945,0.3316969975416411,0 30.08080782563253,0.3317848428232779,0 30.08069460123701,0.3318455444960139,0 30.08058130733387,0.3319062810173541,0 30.08046445444596,0.3319423656420174,0 30.08037173270943,0.3319763081683246,0 30.08030310470803,0.332008054033804,0 30.08011752062561,0.3320759833989123,0 30.07998009254781,0.3321395460133997,0 30.07986308267976,0.3321757561427213,0 30.07972577044242,0.332239845399656,0 30.07963666595505,0.3322996195132064,0 30.07952329851505,0.3323615962268283,0 30.07941317570026,0.3324485467530128,0 30.07933048566079,0.3325585063134112,0 30.07926837658724,0.3326410972906544,0 30.07918542735494,0.3327513412773879,0 30.07910218044847,0.3328614273231388,0 30.07899116345883,0.332948493384191,0 30.07888338168846,0.3330610780620668,0 30.07882076911622,0.3331442829922901,0 30.07873048730187,0.333204372817664,0 30.0786677257701,0.3332877901102286,0 30.07863248766101,0.3333946376462713,0 30.0785905284514,0.3334503397017861,0 30.07853406463732,0.3335851557786637,0 30.07849526227907,0.3336666328612295,0 30.07846288727336,0.3337994413700963,0 30.07839951293774,0.3338832319714446,0 30.07833917869729,0.3339925886755897,0 30.0782479241192,0.3340528428701512,0 30.07815978313369,0.334138876448924,0 30.07806838123244,0.3341992364438649,0 30.0780045116544,0.3342832199996483,0 30.07794056666193,0.3343673010396169,0 30.07782467357707,0.3344306418474458,0 30.07775749060932,0.3344891030425641,0 30.07764122686798,0.3345517134459486,0 30.07754945589144,0.3346125323641012,0 30.07745761782643,0.3346733950195375,0 30.07736265798512,0.3347081964107061,0 30.07717266521257,0.3347778241705303,0 30.077053121592,0.3348148271328638,0 30.07693355427348,0.3348518359192083,0 30.07691199958568,0.3348801622880936,0 30.0767433487401,0.334921540490693,0 30.07667562805396,0.3349804150063077,0 30.07646648425447,0.3351050773916084,0 30.07632520349368,0.3351720295720527,0 30.07618665335684,0.3352657324087825,0 30.07604511180998,0.3353329401230482,0 30.07597150970838,0.3353399424886171,0 30.0758269993827,0.3353800765862677,0 30.07567970569709,0.3353931942510897,0 30.07553245074572,0.3354063081663572,0 30.0753607082183,0.3354214748405024,0 30.07525997729879,0.3354034104874213,0 30.07515931521441,0.3353853619870255,0 30.07505872814325,0.3353671182149485,0 30.07490912536499,0.3353511753213104,0 30.07475969664111,0.3353352514613255,0 30.07466180232814,0.335342278097963,0 30.07451504622181,0.335352811829964,0 30.07439282227573,0.3353615835038786,0 30.07424625929334,0.3353719315050228,0 30.0740998031059,0.33538149533441,0 30.0739778651569,0.3353885183800454,0 30.07378320309529,0.3353944298310861,0 30.07361527521311,0.3354281152498801,0 30.07351800445043,0.3354347864704237,0 30.07339869709787,0.3354683414562415,0 30.07328161988628,0.3355271142875084,0 30.07318659937644,0.3355596051175432,0 30.07307165207127,0.3356441285424945,0 30.07300090565862,0.3356750135204926,0 30.0729077120832,0.3357359452858436,0 30.07278945645118,0.3358046327303948,0 30.0726729245632,0.33590044380828,0 30.07255420395991,0.3359699861299648,0 30.07246059713068,0.3360308817129657,0 30.07236709506361,0.3360907134100277,0 30.07227141961141,0.3361257156440822,0 30.07220010053053,0.336158693985264,0 30.07210631123622,0.336219689788169,0 30.07196292057342,0.3362892196913316,0 30.0718684604686,0.3363531387438829,0 30.07177389925298,0.3364171251148525,0 30.07165469302034,0.3364839418204994,0 30.0715853060043,0.3365411631326048,0 30.07146703674478,0.33660243932116,0 30.07137124044143,0.3366361545896508,0 30.0712998691904,0.3366678271045747,0 30.07117950137336,0.3367041007138072,0 30.07108120274103,0.3367149161289274,0 30.07098462432291,0.3367518707807228,0 30.07086231049344,0.3367628624213962,0 30.07074024021981,0.3367729639829087,0 30.07059544943565,0.336811269354276,0 30.07044904372945,0.3368233755453803,0 30.07032850475653,0.336860205557846,0 30.07025798004846,0.3369204703986626,0 30.07016007337717,0.336929623204096,0 30.07004048397892,0.3369945151667169,0 30.06994529386475,0.3370571706405501,0 30.06985002744146,0.3371198767337826,0 30.0697552988185,0.3371806690113354,0 30.06966078179585,0.3372406632526557,0 30.06956696737659,0.3373292099403669,0 30.06949627848311,0.3373887951520776,0 30.06940092282239,0.3374509535287975,0 30.06928239337833,0.3375417396273214,0 30.06918687959065,0.3376040057758778,0 30.06911743831194,0.3376898816435294,0 30.06904496321787,0.3377235982628333,0 30.06895224745389,0.3378379526757702,0 30.06883342007617,0.3379287315417919,0 30.06873798888744,0.3379900017763733,0 30.06866849987284,0.338075335714853,0 30.06857435064061,0.3381629597822862,0 30.06845530468018,0.338253471560153,0 30.0683840605324,0.3383131597763619,0 30.06826347004302,0.3383774925691241,0 30.06819092429747,0.3384105318352545,0 30.06807230379235,0.33849932806545,0 30.06795109962105,0.3385351963743492,0 30.06787887688051,0.3385672653920287,0 30.06773456818985,0.3386310996360882,0 30.06761349229096,0.338666647495646,0 30.06746797703366,0.3387040034962976,0 30.06734692679608,0.3387395449840537,0 30.06725304288799,0.3387961992155275,0 30.06713405605435,0.3388270980760746,0 30.06701348712173,0.3388327332234353,0 30.06691875226735,0.3388624717326223,0 30.06682228935383,0.3388672541765499,0 30.06667610351126,0.3388778542179404,0 30.06658032299316,0.3389100934919234,0 30.06648293484344,0.3389171500288237,0 30.06636104482746,0.3389263877385062,0 30.06624072635588,0.3389609468434633,0 30.06614314590569,0.3389685960781643,0 30.06602120915246,0.3389781533319208,0 30.06589896129984,0.3389883686606689,0 30.06575104308586,0.3390031054267427,0 30.06565242891351,0.3390129311502202,0 30.06552234865179,0.3388979280407068,0 
					</coordinates>
				</LinearRing>
			</outerBoundaryIs>
		</Polygon>
		<atom:link rel="app" href="https://www.google.com/earth/about/versions/#earth-pro" title="Google Earth Pro 7.3.6.10201"></atom:link>
	</Placemark>
</Document>
</kml>
