<?xml version="1.0" encoding="UTF-8"?>
<kml xmlns="http://www.opengis.net/kml/2.2" xmlns:gx="http://www.google.com/kml/ext/2.2" xmlns:kml="http://www.opengis.net/kml/2.2" xmlns:atom="http://www.w3.org/2005/Atom">
<Document>
	<name>Kasese_Mubuku.kml</name>
	<StyleMap id="m_ylw-pushpin">
		<Pair>
			<key>normal</key>
			<styleUrl>#s_ylw-pushpin</styleUrl>
		</Pair>
		<Pair>
			<key>highlight</key>
			<styleUrl>#s_ylw-pushpin_hl</styleUrl>
		</Pair>
	</StyleMap>
	<Style id="s_ylw-pushpin">
		<IconStyle>
			<scale>1.1</scale>
			<Icon>
				<href>http://maps.google.com/mapfiles/kml/pushpin/ylw-pushpin.png</href>
			</Icon>
			<hotSpot x="20" y="2" xunits="pixels" yunits="pixels"/>
		</IconStyle>
		<LineStyle>
			<width>0.6</width>
		</LineStyle>
		<PolyStyle>
			<color>ffffae6f</color>
		</PolyStyle>
	</Style>
	<Style id="s_ylw-pushpin_hl">
		<IconStyle>
			<scale>1.3</scale>
			<Icon>
				<href>http://maps.google.com/mapfiles/kml/pushpin/ylw-pushpin.png</href>
			</Icon>
			<hotSpot x="20" y="2" xunits="pixels" yunits="pixels"/>
		</IconStyle>
		<LineStyle>
			<width>0.6</width>
		</LineStyle>
		<PolyStyle>
			<color>ffffae6f</color>
		</PolyStyle>
	</Style>
	<Placemark>
		<name>Kasese_Mubuku</name>
		<styleUrl>#m_ylw-pushpin</styleUrl>
		<Polygon>
			<tessellate>1</tessellate>
			<outerBoundaryIs>
				<LinearRing>
					<coordinates>
						30.11175996384116,0.2774096327282939,0 30.11182592911728,0.2772749271081855,0 30.11195860739806,0.277174594010264,0 30.11212463163322,0.2770745050061155,0 30.11225852320123,0.2770075121863633,0 30.11235907394688,0.2769402349900676,0 30.11245935646216,0.2768052372745969,0 30.11249255042561,0.2767038026571185,0 30.11252545969442,0.2765346370636108,0 30.11259228858335,0.2764333071740915,0 30.1126252071232,0.2762641150183838,0 30.11265731838277,0.2760952208142178,0 30.11265631570497,0.2759938251426334,0 30.11272185930834,0.2758590144497395,0 30.1127870244201,0.275690370066375,0 30.11285260772189,0.2755554652271658,0 30.11295220500321,0.2754544639122357,0 30.11301783901748,0.275319479837848,0 30.1131174901325,0.2752184086727978,0 30.11321643784024,0.2750835914472058,0 30.11341611808167,0.2749491728496697,0 30.11351518171286,0.2748142361955258,0 30.11361432742351,0.2746452333740573,0 30.11371511159296,0.2745436369962206,0 30.11378204765309,0.2744079707885941,0 30.11381525971563,0.2742721963480059,0 30.11388300293674,0.27410225724561,0 30.11398465075998,0.2739663387361815,0 30.11401854564622,0.2738643442663973,0 30.11405244999519,0.2736943237929298,0 30.11412021592971,0.2736263737199872,0 30.11412023993449,0.2734563096500401,0 30.11422190848485,0.2732863505044751,0 30.1142896957072,0.2731503647333579,0 30.11435748176733,0.2730143741647583,0 30.11445797177005,0.2729126870560513,0 30.11452446469378,0.272776953794548,0 30.11455746479267,0.2726751064327056,0 30.11465725075023,0.2724714142097649,0 30.11472404704724,0.2723695632510893,0 30.11479060536498,0.272233702183946,0 30.11485718094251,0.272097808572776,0 30.11492379160723,0.2719278264101757,0 30.11502590872861,0.2718256961953767,0 30.11512825697936,0.2717235336165287,0 30.11526464432286,0.2716213747641905,0 30.11536684687844,0.2715873206453602,0 30.11553513288773,0.2715194962881602,0 30.11556818758407,0.2714174690448019,0 30.11556731877502,0.271247304682496,0 30.1156005771766,0.2711111562871836,0 30.11570278637051,0.2709068174816004,0 30.11576984121644,0.2707365945844574,0 30.1158703277487,0.270634515770348,0 30.11593616820073,0.2704642885619176,0 30.11596874674321,0.2703280484865463,0 30.116035641885,0.2702258485042155,0 30.11610221239926,0.2700895436952603,0 30.11616824293518,0.2698850210157844,0 30.11623508909506,0.2697827273995241,0 30.116300500096,0.2695780524902824,0 30.11636758730905,0.2694415846468808,0 30.11643438207778,0.2693050683427327,0 30.11646665882168,0.2691343684919798,0 30.11646667724776,0.2689979025169808,0 30.11646670110472,0.2688273206213371,0 30.11650081796507,0.2686567346072793,0 30.11653401610485,0.2684519043726674,0 30.11660172223134,0.2683153423867143,0 30.11670361856175,0.2681787755917011,0 30.11677133741334,0.2680421900358626,0 30.11687309254116,0.2678714494031236,0 30.11697492261363,0.2677006981413674,0 30.11704246219456,0.2675298855117216,0 30.11710971267444,0.2673931072643225,0 30.11717700361842,0.2672904444976829,0 30.11724359256584,0.2671192826789637,0 30.11731045609845,0.2669822896706402,0 30.11737734253232,0.2668452583459993,0 30.11744424455092,0.2667081889908587,0 30.11751091604189,0.2665368310905933,0 30.11757789983237,0.2663996855323502,0 30.11764504201081,0.2662625594451701,0 30.11771202689049,0.2660569742314168,0 30.11774532702954,0.2659199028237505,0 30.11777883173465,0.2658170672655527,0 30.11784623420485,0.2656799128220259,0 30.11791326926723,0.2654741632392333,0 30.11798051544214,0.2653026480390182,0 30.11801385980949,0.2651654362834832,0 30.11808113096511,0.2649938484101422,0 30.11814866067883,0.2648565614380903,0 30.11821841156962,0.2647205012747963,0 30.11825236652129,0.264583555478722,0 30.11831854610682,0.2643769792990548,0 30.11838597625272,0.2642052880105246,0 30.11841964566275,0.2641022949756167,0 30.11848721908748,0.2638964174844451,0 30.1185554947581,0.2637252014424397,0 30.11865809316219,0.2635198739785362,0 30.11872650059071,0.2634171911011235,0 30.11879407695842,0.2632796406500475,0 30.11886149358925,0.2631419268941075,0 30.11896354271802,0.2630387220171076,0 30.11899735540505,0.262901453866655,0 30.11906554557556,0.2627642771147061,0 30.11913385859798,0.2626272066344768,0 30.11916743669902,0.2624554675710993,0 30.11923508409303,0.2623177557928315,0 30.11926915407408,0.2621806388306179,0 30.11933748430448,0.2620435257895245,0 30.119439982911,0.2618720879879936,0 30.11950759675996,0.261734219362814,0 30.11960861039735,0.2615268915676935,0 30.11967597847961,0.261388622070465,0 30.11977745113338,0.2612501141579721,0 30.11987910746264,0.2610774814035717,0 30.11987903250686,0.2610431223467615,0 30.11998084305315,0.2609048007920101,0 30.11994574535147,0.2606638575998453,0 30.12001303848263,0.2604565732383338,0 30.12008068091213,0.2602839355424431,0 30.12011445578329,0.2601803818003498,0 30.12014812278266,0.2600423710413119,0 30.12021580444341,0.259869633349859,0 30.12021536991996,0.2597318266583754,0 30.12028299041672,0.2595246202105132,0 30.12031700937029,0.259455591897397,0 30.12038512835139,0.259249000900819,0 30.12041907003973,0.2590768371084459,0 30.12048719831649,0.2590074460531161,0 30.12055520325619,0.258800581780036,0 30.12065739751067,0.2586620761635512,0 30.12072553043275,0.258558265135913,0 30.12079357411978,0.2583513007600361,0 30.12086169591784,0.2582130666317483,0 30.12089567215424,0.2581094287824446,0 30.12096355174435,0.2579019915442194,0 30.12096280392405,0.2576945292496072,0 30.12106481637218,0.2575552245666002,0 30.12109835630311,0.2573819144199864,0 30.12120067160792,0.2573117402972099,0 30.12126882077569,0.2571731836677982,0 30.12137161612955,0.2571038923893205,0 30.12150869509925,0.2568969754507515,0 30.12154296621817,0.256896777875773,0 30.12171429799718,0.256689634166367,0 30.12181708519443,0.2566202171564707,0 30.12198836075898,0.2564470418626379,0 30.1220911420002,0.2563431219812948,0 30.12215966920403,0.2562738311139409,0 30.12229630323712,0.2562028089936557,0 30.12243279341526,0.2560624856105764,0 30.12260452485883,0.2558556912807899,0 30.12274110251817,0.2556808471657729,0 30.1227750689704,0.2556107433046842,0 30.12294579949657,0.2554691500978526,0 30.12304847313111,0.2553642813099727,0 30.12322006785028,0.2552594887193829,0 30.12335749779836,0.2551554336497084,0 30.12352926735268,0.2550854426102629,0 30.12356363849274,0.2550508402792797,0 30.123769875163,0.254843204158094,0 30.12397606439349,0.2547729059249184,0 30.12414794769796,0.2546685209906865,0 30.12431959460517,0.2545631128243684,0 30.12449161360893,0.2544589765702854,0 30.12469780250548,0.2543190481685771,0 30.12480091158138,0.2542489832563055,0 30.12493841135597,0.2541785071398872,0 30.12507594352174,0.2541080152807781,0 30.1251791081052,0.2540723592964663,0 30.12541995580439,0.2539661691386579,0 30.12555742374965,0.2538606246626879,0 30.12569500343646,0.253788871652858,0 30.12576384987458,0.253753579589833,0 30.12597050581413,0.2536484652840071,0 30.12607390467444,0.2536138332474638,0 30.12624617029005,0.2535783466735294,0 30.12641846094208,0.2535425770864121,0 30.12655631460051,0.2535415718457018,0 30.12672865214228,0.253505795583447,0 30.12683206937874,0.2534705147493134,0 30.12700446680561,0.2534348974787542,0 30.12721135586258,0.2534338830501272,0 30.12734929620285,0.2534667658457024,0 30.12752175902559,0.2535677123677921,0 30.12765975724015,0.2536694638054467,0 30.12776319341583,0.2537759946393047,0 30.12790105208633,0.2539179741033102,0 30.12800439844338,0.2540244134038482,0 30.12814212338665,0.2541319354274014,0 30.12803860921564,0.2542380712101828,0 30.12793509500843,0.2543797771772161,0 30.12779727133564,0.2544143924710808,0 30.12765941637547,0.2545201900435926,0 30.12748717055568,0.2545545541764064,0 30.12734938171563,0.2546247405865352,0 30.12721160933086,0.2546945976429432,0 30.12710826876264,0.2547287155273572,0 30.12693606260357,0.2548321921348694,0 30.12679827286823,0.2549007550401922,0 30.12659149865961,0.2549683677504893,0 30.12641935429911,0.2550731033537394,0 30.12624725527763,0.2551779678567248,0 30.12607519437015,0.255282811555646,0 30.12604088447353,0.2553530524589394,0 30.12579998352646,0.255388371824704,0 30.12555937917206,0.2554950457491094,0 30.12535358179673,0.2556378494872406,0 30.1252162730087,0.2557088501580231,0 30.12511352115403,0.2558149575690623,0 30.12494182399588,0.2558855166192406,0 30.12477018493238,0.2560249053545959,0 30.12459866049416,0.2561643242933909,0 30.12446182959265,0.2562708935299368,0 30.12435899240339,0.2563409402650736,0 30.12418846379889,0.2565527173639053,0 30.12408602082129,0.2566583294525944,0 30.12398362098636,0.2567638990099447,0 30.12388090635972,0.2568681626474025,0 30.12381243719194,0.2569719948770518,0 30.12370937025048,0.2570405365657795,0 30.12357204183456,0.2571780201157137,0 30.12350362386083,0.2573162473561446,0 30.12343494562064,0.2573849183855798,0 30.12333273465275,0.2575590774670167,0 30.1231955276422,0.2576280913856083,0 30.12305830699601,0.2577313928802842,0 30.12298977620891,0.257800423903248,0 30.1228867096041,0.2579718889495129,0 30.12288708019399,0.2581101888583108,0 30.12274913861208,0.2582115684623969,0 30.12268066424302,0.2583493644998257,0 30.12261219861943,0.2584871484398324,0 30.12261307596625,0.2585921919574518,0 30.12258056389042,0.2588022889936981,0 30.12258207139817,0.2589772542774844,0 30.12254803736924,0.2591150937851845,0 30.1225486136031,0.2592877957203938,0 30.12251474449175,0.2594258946657507,0 30.12251560499985,0.2595992113233623,0 30.12251633162029,0.2597035804480057,0 30.12251777921072,0.2599122263291159,0 30.12255318459922,0.2600516163368082,0 30.12269162326407,0.2601572828901766,0 30.12282944690084,0.2601932356067851,0 30.12300031358983,0.2602266832790837,0 30.12306872253646,0.2602607319853332,0 30.12327412362692,0.2602947930917063,0 30.12341136141629,0.2603981200826683,0 30.12348017663002,0.2605358699293656,0 30.12351465648515,0.2606391680348925,0 30.12354929071613,0.2608113043465933,0 30.12368647099814,0.2609145710728382,0 30.12372083177749,0.2609490244361045,0 30.1237556813389,0.2611902160010564,0 30.1237560282303,0.2613279524764291,0 30.12375655012065,0.2615345072712949,0 30.12372268997974,0.2616722064960081,0 30.1236546369616,0.2618099039761793,0 30.12362088304749,0.2619819487430046,0 30.12362150687954,0.2621543136910113,0 30.12362230529911,0.2623269723070484,0 30.12369151006996,0.2624653854747586,0 30.1237606829847,0.262603738802516,0 30.12379578336262,0.2627422590313627,0 30.12376251211505,0.2628807111446557,0 30.12366070365413,0.2629844958119309,0 30.12355894025062,0.2630882494052845,0 30.12345727711893,0.2632262294781424,0 30.12335539910558,0.2633295905887894,0 30.12328796368734,0.2634674990308234,0 30.12322055801371,0.263605349300758,0 30.12311920636518,0.2637433338056889,0 30.12305188951085,0.2638469904456525,0 30.12295045143767,0.2639505395372226,0 30.12284905360558,0.264054049222688,0 30.12271318771937,0.2641229082681,0 30.12257695505121,0.264191287370404,0 30.12247519701873,0.2642941847511707,0 30.12233878810956,0.2643623198640406,0 30.12220198793353,0.2643959446020986,0 30.12206549544834,0.2644640109233931,0 30.12192955126001,0.2645667196993797,0 30.12186142246137,0.2646008643375869,0 30.12169280472182,0.2648070774417294,0 30.1215905110278,0.2649092804460391,0 30.12148745788526,0.2649767648304905,0 30.12138490056956,0.2650787599245437,0 30.12131717049837,0.2651813676759219,0 30.12118112344643,0.2653179246005419,0 30.1211134151942,0.2654205068003784,0 30.12104603535082,0.2655573703741294,0 30.12087528550202,0.265761598501518,0 30.12073806237787,0.26586326696172,0 30.12063594016555,0.2659996735903978,0 30.12053332705186,0.2660676331542095,0 30.1203616742386,0.2661010526110966,0 30.12018962452201,0.2661001964073044,0 30.12001776717645,0.2661335843329649,0 30.11988077601487,0.2662015040307257,0 30.11970952035518,0.2662352573560876,0 30.11950414210018,0.266303133268369,0 30.11933314520258,0.2664052776679169,0 30.11919725537507,0.266507863500233,0 30.11909594537096,0.2666106144315087,0 30.11895920219282,0.2666787188822136,0 30.11889275320543,0.266815807583958,0 30.11875647650798,0.2669522641962436,0 30.11865415522829,0.2670886628040498,0 30.11855238722501,0.2672593357938099,0 30.1184506318734,0.2674299846988212,0 30.11834831915395,0.2675663698501117,0 30.11831553296956,0.2676690008349894,0 30.11824803729201,0.2678055357512437,0 30.11814759044951,0.2679763784611106,0 30.11808194556974,0.2681472894128125,0 30.11805108710395,0.2683182293198434,0 30.1180549881722,0.2684891641075142,0 30.11798811660966,0.2686595815919244,0 30.11799139111816,0.2688642339509114,0 30.11795779811406,0.2689663769012826,0 30.11792530614834,0.2691366676581912,0 30.1179299008082,0.2693411244619643,0 30.11793630135279,0.2696134416272489,0 30.11794008316303,0.2697834518875963,0 30.11797689006494,0.2698514332535903,0 30.11798187040442,0.2701569972716196,0 30.1179840850375,0.2702927025876621,0 30.11795119317117,0.2704623297491153,0 30.11788324696978,0.2705980642980295,0 30.11778010160501,0.27073390239188,0 30.11763846818245,0.2709041400229955,0 30.11753580084395,0.271006097231633,0 30.117364645248,0.2711760579915594,0 30.11722710521683,0.271346111195789,0 30.11712396469613,0.2715161450281358,0 30.11702025297434,0.2716523294822175,0 30.1169181192692,0.2718222591576559,0 30.11681572391507,0.2719582767876154,0 30.11671325490649,0.2720603257355996,0 30.11664615873233,0.2721960813693655,0 30.11654430025672,0.2723319891061314,0 30.11637103226291,0.2724686344828356,0 30.11623305360783,0.2726051008787878,0 30.11623381377745,0.2726729131037865,0 30.11609764481533,0.2728089392745174,0 30.11596147270928,0.2729449704479026,0 30.11589416784875,0.2730807740621368,0 30.11579282816988,0.2732505680275579,0 30.11572554197487,0.2733863312915064,0 30.11565826072799,0.2735220775596289,0 30.11559098774579,0.2736578108942944,0 30.1154902743278,0.2738273357125507,0 30.11542160720032,0.2739974899788428,0 30.11535523096287,0.2741668583306877,0 30.11535895035245,0.274369384132882,0 30.1152924728048,0.2745726595011654,0 30.11526028257256,0.274741794480665,0 30.11519284421527,0.2748774421107052,0 30.11516083209487,0.2750464323498798,0 30.1151282596568,0.275181663536291,0 30.11513110768723,0.275350172904039,0 30.11509912037745,0.27551900174815,0 30.1150317331489,0.2756545242488895,0 30.11499976843652,0.2758232723897969,0 30.11493240079044,0.2759587517229943,0 30.11486517212898,0.2760941959395913,0 30.11476419382906,0.2762634292448556,0 30.11469709220538,0.2763987509063979,0 30.11463032563593,0.2765678094042022,0 30.11459742384949,0.2767029558959435,0 30.11449649105451,0.2768721032223923,0 30.11446361057028,0.2770072032621285,0 30.11439655101387,0.2771424310750948,0 30.11429532520527,0.2772777915888777,0 30.11412653116555,0.2775147315988729,0 30.11405896699798,0.2776163081780038,0 30.11392357220922,0.2777857010804223,0 30.11382182865244,0.2778874311248568,0 30.113720448809,0.2780228528252543,0 30.11361891217249,0.2781244609390004,0 30.11351746760798,0.2782260176704893,0 30.11341700057842,0.2783269854910642,0 30.11335003459598,0.2783942927448771,0 30.11321489276953,0.2785635125525838,0 30.1130806545918,0.2786982789474691,0 30.11297999398912,0.2787993389086625,0 30.11287934518603,0.2789003829170374,0 30.11277870846732,0.2790014142031745,0 30.11267801723644,0.2791024730948394,0 30.11261082527677,0.2791698834524581,0 30.11247680173454,0.2793383534904946,0 30.11237522711327,0.2794399377718871,0 30.11227354236141,0.2795754867700231,0 30.11217162701169,0.279677298811981,0 30.1120703209614,0.2798126024761676,0 30.11196910999148,0.2799478427811,0 30.11193575522704,0.2800491375400201,0 30.11186868639894,0.2801842318508918,0 30.11173407731837,0.2803530212293342,0 30.11166693550081,0.2804542419634654,0 30.11163383984119,0.2805553427750636,0 30.11149957924415,0.2807577446160475,0 30.11139906114495,0.2808585965753863,0 30.11133227526936,0.2809256827160921,0 30.11123343458321,0.2811271073407366,0 30.11113417431578,0.2812608249848626,0 30.11103257272522,0.2813624100948354,0 30.11089713366323,0.2813962801327136,0 30.11079554399923,0.281464004370929,0 30.11062732891309,0.2813955637446307,0 30.11062705180927,0.2812602849488469,0 30.11062711206815,0.2810910009286803,0 30.11069452983042,0.2809557756019723,0 30.110761963663,0.2808205649761943,0 30.11079377609978,0.2807203920451771,0 30.11085808800476,0.280553267120393,0 30.11095669293519,0.2804196466135087,0 30.11102282584873,0.2802851740461331,0 30.11108896855712,0.2801506667799095,0 30.11112271610396,0.2800152385361369,0 30.1112239017592,0.2798800025853875,0 30.1113249406106,0.2797448538633998,0 30.1113921297697,0.2796435570738539,0 30.11142561084529,0.279474384847752,0 30.11145909786151,0.279305205946404,0 30.1114926494424,0.2792037473226278,0 30.11149252367426,0.2790682832030977,0 30.11152604186812,0.2789329512995353,0 30.11152590370698,0.2787636034613606,0 30.11152594561258,0.2785941472094008,0 30.11152591861978,0.2784585864232212,0 30.11152500340321,0.2782557494241551,0 30.1115248704538,0.2780864098750119,0 30.11152555788363,0.2779505110232054,0 30.11152641273327,0.2777806566839251,0 30.111594544393,0.2776110458526769,0 30.11166060721197,0.2775102029648803,0 30.11175996384116,0.2774096327282939,0 
					</coordinates>
				</LinearRing>
			</outerBoundaryIs>
		</Polygon>
		<atom:link rel="app" href="https://www.google.com/earth/about/versions/#earth-pro" title="Google Earth Pro 7.3.6.10201"></atom:link>
	</Placemark>
</Document>
</kml>
