<?xml version="1.0" encoding="UTF-8"?>
<kml xmlns="http://www.opengis.net/kml/2.2" xmlns:gx="http://www.google.com/kml/ext/2.2" xmlns:kml="http://www.opengis.net/kml/2.2" xmlns:atom="http://www.w3.org/2005/Atom">
<Document>
	<name>Kasese_Floodflow.kml</name>
	<StyleMap id="m_ylw-pushpin">
		<Pair>
			<key>normal</key>
			<styleUrl>#s_ylw-pushpin</styleUrl>
		</Pair>
		<Pair>
			<key>highlight</key>
			<styleUrl>#s_ylw-pushpin_hl</styleUrl>
		</Pair>
	</StyleMap>
	<Style id="s_ylw-pushpin">
		<IconStyle>
			<scale>1.1</scale>
			<Icon>
				<href>http://maps.google.com/mapfiles/kml/pushpin/ylw-pushpin.png</href>
			</Icon>
			<hotSpot x="20" y="2" xunits="pixels" yunits="pixels"/>
		</IconStyle>
		<LineStyle>
			<width>0.6</width>
		</LineStyle>
		<PolyStyle>
			<color>ffffae6f</color>
		</PolyStyle>
	</Style>
	<Style id="s_ylw-pushpin_hl">
		<IconStyle>
			<scale>1.3</scale>
			<Icon>
				<href>http://maps.google.com/mapfiles/kml/pushpin/ylw-pushpin.png</href>
			</Icon>
			<hotSpot x="20" y="2" xunits="pixels" yunits="pixels"/>
		</IconStyle>
		<LineStyle>
			<width>0.6</width>
		</LineStyle>
		<PolyStyle>
			<color>ffffae6f</color>
		</PolyStyle>
	</Style>
	<Placemark>
		<name>Kasese_Flood_flow</name>
		<styleUrl>#m_ylw-pushpin</styleUrl>
		<Polygon>
			<tessellate>1</tessellate>
			<outerBoundaryIs>
				<LinearRing>
					<coordinates>
						30.01282561977,0.1978182197542435,0 30.01275262978765,0.197528194423909,0 30.01290814754804,0.1972758350004649,0 30.01311326100553,0.1971807895925046,0 30.01328482311657,0.1970159821613523,0 30.0135165425395,0.1968932873228953,0 30.01372941482784,0.1967901338566114,0 30.01390223511727,0.1966239245531251,0 30.01412479508875,0.1965104440736695,0 30.01434673480665,0.1963976295621966,0 30.01442392522777,0.1962216466771702,0 30.01445860772452,0.1959856777130133,0 30.01459511746125,0.1957529861122737,0 30.01472710117282,0.195575224796683,0 30.01486831169607,0.1953378726983387,0 30.01496467448622,0.1950440187341318,0 30.01511624128375,0.1947472512167119,0 30.01520217540413,0.194514530086797,0 30.01524156919532,0.1942274169756531,0 30.01537902288061,0.1939953361201751,0 30.01550817779418,0.1938214767009873,0 30.01569956023453,0.1935879070383734,0 30.01583847242562,0.1933552821518141,0 30.01608205838293,0.1931211304141227,0 30.01622057179077,0.1928892519560015,0 30.01626233006545,0.1926028522947037,0 30.01634826327132,0.1923730209921346,0 30.01642579575186,0.1922007119819475,0 30.01656225425262,0.1919720043558109,0 30.01669826348839,0.1917440664248058,0 30.01673851294676,0.1914618907538789,0 30.01677909410493,0.1911801237163467,0 30.01681954638691,0.1908992878951851,0 30.01680551263357,0.1906228430970178,0 30.01683774658386,0.1903995233553874,0 30.01683979559622,0.1900135520737308,0 30.01687532931315,0.1897884474373516,0 30.01685976127289,0.1895169467940005,0 30.01689918788333,0.1891940871494684,0 30.01694398597688,0.1888674062677213,0 30.01698275573293,0.1885947126933015,0 30.01702145675502,0.1883228330364639,0 30.01704577652915,0.1881591031225958,0 30.01709419077804,0.1878326245809628,0 30.01717528016141,0.1876163211510839,0 30.01724853279235,0.1874542899485706,0 30.01734444858082,0.1871317166147007,0 30.0174830800346,0.1868626217737785,0 30.01766618531144,0.1866452313562337,0 30.01783415328029,0.1865344842273219,0 30.01802853353083,0.1862608744789301,0 30.01821378706904,0.1860420366023322,0 30.01833980580922,0.1858785739882058,0 30.01852418360411,0.1856607918375976,0 30.01870805299059,0.1854436102789483,0 30.01888719116005,0.1852770742158825,0 30.01911666893465,0.1851093639632926,0 30.01934352326989,0.1849436771147833,0 30.01960973437419,0.1847856563915708,0 30.01977155972125,0.1846799460557306,0 30.02003071005834,0.1845740785479583,0 30.0202918025373,0.184466533462435,0 30.02050532003936,0.1843579652048377,0 30.02075869276668,0.1843030696915037,0 30.02091417598707,0.1842486361149479,0 30.02132271358533,0.1841393875424092,0 30.02157578378502,0.1840845637802366,0 30.02182878588913,0.1840297516472691,0 30.02208032980283,0.183976065679589,0 30.0222827706606,0.1839228313243867,0 30.02262573903217,0.1839210168805295,0 30.02282284727352,0.183919021092161,0 30.02308408901659,0.1838102056018485,0 30.02337944450228,0.1838074744899351,0 30.02363289468642,0.1837520462136598,0 30.02388626148264,0.1836966381168445,0 30.02413251571116,0.1836943550435434,0 30.02437887968957,0.1836920703192236,0 30.02458292111281,0.183637091296594,0 30.02478014216544,0.1836352109080729,0 30.02497742964144,0.1836333280287418,0 30.02517479062243,0.1836314495350468,0 30.02542159003931,0.183629098253111,0 30.02571330129884,0.1836307369854985,0 30.02595788250891,0.1836776459551747,0 30.02610811999138,0.1836742624463406,0 30.02630846125696,0.1836696872299581,0 30.02656267749214,0.1836600032422502,0 30.02681345993503,0.1837007471048271,0 30.02702259983316,0.1836866870232769,0 30.02731754789097,0.1837327242065563,0 30.02757032583725,0.1837244598042671,0 30.02782306780161,0.1837161983210396,0 30.02806787191603,0.1837639133796817,0 30.02831677373224,0.1838073273251452,0 30.02860876382882,0.1838579693264781,0 30.02885439518862,0.1839055878922438,0 30.02905099172211,0.1839532448983913,0 30.02919691227509,0.1840028107459297,0 30.02948909685344,0.1841020623085969,0 30.02967996781921,0.184205234164317,0 30.02982643103075,0.1842550018135396,0 30.0301197048284,0.1843546501014374,0 30.0302545041052,0.1845158037070073,0 30.03044073498504,0.1846754840393174,0 30.03058219998647,0.1847815385217458,0 30.03071228752331,0.1849999593575002,0 30.0308543722528,0.1851065808242242,0 30.03109676981136,0.1852605604278564,0 30.03124128513639,0.1853655667182343,0 30.03141996042625,0.1855913319111011,0 30.03160770923777,0.1857565522540129,0 30.03179600551706,0.1859222539769463,0 30.03198516100517,0.1860881173908196,0 30.03213132764163,0.1861939109717026,0 30.03227387481263,0.1863550620797755,0 30.03246686263274,0.1865172448821763,0 30.03265878105589,0.1866829461176844,0 30.0328552550276,0.1867928344124661,0 30.0330507945158,0.1869542834321066,0 30.03334725232418,0.1871682375131326,0 30.03349593052122,0.1872752204897764,0 30.03364291615982,0.1874355310696913,0 30.03384445217404,0.1875403731081672,0 30.03414309911749,0.1877068552905331,0 30.03434266891718,0.1878181049346442,0 30.03459114050602,0.1879858004466607,0 30.03484620772632,0.1880403953101969,0 30.03504990491019,0.1880954752660287,0 30.03520212552252,0.1881510373747753,0 30.03541018729046,0.1881462242917324,0 30.03572043384928,0.1881942752484131,0 30.03592659738574,0.1882451557460394,0 30.03623727241872,0.1882932804801491,0 30.0364938378011,0.1883994208505425,0 30.03675431152993,0.1883943855567542,0 30.03690818426676,0.1884490329914843,0 30.03716621447474,0.1885024368327256,0 30.03747479646184,0.1886119961441922,0 30.03768137642286,0.1886661926031921,0 30.03793875134544,0.1887767102887695,0 30.03825026902465,0.1888298056582104,0 30.03850991375214,0.1888835995597393,0 30.03871756610362,0.1889380876008861,0 30.03897652114621,0.1890491260346289,0 30.03918358302883,0.1891609989096767,0 30.03928832567906,0.1891597358187415,0 30.03965410609872,0.1892126016133508,0 30.03991455010895,0.189324163072416,0 30.04012377933284,0.1893787931213963,0 30.04043779895191,0.1894890231575264,0 30.04070023379786,0.1895422260857077,0 30.04096292907563,0.1896510697669158,0 30.04117345437804,0.1897045484246689,0 30.04148958980744,0.1897567374209522,0 30.04175320967362,0.1897533888019712,0 30.04201690529647,0.1897500370606429,0 30.04222817396367,0.1898034829324788,0 30.04249215763643,0.1897997872863262,0 30.04275621050169,0.1897960922666759,0 30.04291467215732,0.1897938739221639,0 30.04323055457962,0.1896768809684751,0 30.04344180676127,0.1896739125950943,0 30.04370521665805,0.1896139674069453,0 30.04396931413293,0.1896102492144818,0 30.04417978181004,0.189551064412485,0 30.04454849232282,0.1894891438224122,0 30.04475980663661,0.1894860998722866,0 30.04497114914095,0.1894829135978683,0 30.04523537746465,0.1894784202005202,0 30.04544679766893,0.1894748191449434,0 30.04565825045873,0.1894712193396228,0 30.04592261094485,0.1894667182278148,0 30.04613414264097,0.1894631177961726,0 30.04634570234718,0.1894595159055324,0 30.04655896754135,0.1895130283543921,0 30.04682359760717,0.1895085287109902,0 30.04708828214957,0.1895040276079495,0 30.04730194375406,0.189557826884073,0 30.04751587581261,0.1896117287527011,0 30.04778527639393,0.1897232838031275,0 30.04799985499056,0.1897790799638394,0 30.04827016993487,0.1898922594840437,0 30.04848773035495,0.1900059743776446,0 30.04865481950315,0.1901779186529469,0 30.0489265686471,0.1902916187279597,0 30.04903583097227,0.1903481066464669,0 30.04925463654994,0.1904612250821998,0 30.04958069218154,0.1905729010614035,0 30.04996082450194,0.1906839557019048,0 30.05022812728336,0.19067863503489,0 30.05044513805528,0.1907326975811043,0 30.05076619648726,0.1907267696668146,0 30.05098042131731,0.1907235402725082,0 30.05135889607922,0.1907764421978272,0 30.0515735410523,0.1907742447365862,0 30.0518419382519,0.1907715065915201,0 30.05216410355612,0.1907681414593698,0 30.05248633944195,0.1907646534208535,0 30.05280869912954,0.1907611699748693,0 30.05301939924763,0.1906997730767891,0 30.05334093580149,0.1906932064722958,0 30.05355516973612,0.190688334530054,0 30.05381855834175,0.1906237596089397,0 30.05408629872447,0.1906176739408969,0 30.05429603849604,0.1905546331254435,0 30.05455929516215,0.1904909903510878,0 30.05476905643097,0.1904291188412652,0 30.05508681754743,0.1903679484165645,0 30.05529704602609,0.1903080239704718,0 30.05550740998494,0.1902488119990502,0 30.05576821991246,0.1901357799157894,0 30.0561291145733,0.1899589783664311,0 30.05629004829756,0.1899569494491979,0 30.05650466927691,0.1899542388094785,0 30.05671385425399,0.1898934581886402,0 30.05702436903006,0.1897728748652757,0 30.05728666391212,0.1897111201311965,0 30.05754882689855,0.1896493985035215,0 30.05781085778057,0.189587705604591,0 30.05802517876904,0.1895846634015929,0 30.05834674387479,0.1895800972855619,0 30.05861476125078,0.1895762560992938,0 30.05893558466747,0.1895699672144293,0 30.05919007591721,0.1894489174458641,0 30.0594038608793,0.189444707519271,0 30.0595642152971,0.1894415486663792,0 30.05982481270414,0.189378448060875,0 30.06002506444601,0.1892586912570395,0 30.06029211358998,0.1892534204208662,0 30.06060565058025,0.1891893799342215,0 30.0609260946953,0.1891830500384506,0 30.06114479437824,0.189233067972848,0 30.06130191392336,0.1892247620098466,0 30.06157858137388,0.189280698187153,0 30.06185556974521,0.1893366948771314,0 30.06202538717834,0.1893941865759904,0 30.06234790637285,0.1893899095648454,0 30.06262569724122,0.1894460452288593,0 30.06280408530702,0.1895619692054465,0 30.06308930561689,0.1896746462864793,0 30.06325907179488,0.1897307122578414,0 30.06354507725646,0.1898436902270088,0 30.06377752892175,0.189957549028721,0 30.06405619177421,0.1900125178804565,0 30.06428822221907,0.1901250453687026,0 30.06452104265627,0.1902382752513888,0 30.06469159652656,0.190293979442067,0 30.06492513565685,0.1904076388216532,0 30.06514980167598,0.1904619060828048,0 30.06543718871749,0.190573587348332,0 30.0657160768488,0.1906265690715609,0 30.06600427021079,0.1907385212273789,0 30.06622970281494,0.1907928127512136,0 30.06646474734741,0.1909064823862775,0 30.06674619216796,0.190961668842768,0 30.0669824878962,0.191076244329936,0 30.06720912323356,0.1911311376524499,0 30.06756473591522,0.191303576052968,0 30.06784694397662,0.1913582538333052,0 30.0681294162757,0.1914129785854065,0 30.06836771647693,0.1915284217692987,0 30.06870540044426,0.1915823303055622,0 30.068944496467,0.191698063494335,0 30.06911966562128,0.1917557569636642,0 30.0693600462969,0.1918727998827971,0 30.06970997535043,0.191987282108589,0 30.0698857411418,0.1920452872617562,0 30.07017201804884,0.1921021669145721,0 30.07040411542599,0.1921605176700904,0 30.07063646907515,0.1922189480924536,0 30.07092462251659,0.1922771212559524,0 30.071211360933,0.1923334926241184,0 30.07155358248393,0.192389133220633,0 30.07195132681321,0.1924440562605386,0 30.07212794399544,0.1925015227718153,0 30.07241502312257,0.1925572151112924,0 30.07280122283235,0.192550904325592,0 30.07308892536512,0.1926068049043065,0 30.07337715258504,0.1926630041542128,0 30.07365402190039,0.1926591461513263,0 30.07382017253084,0.1926568331673347,0 30.07410894876035,0.192713095781073,0 30.07444152668227,0.1927084663433506,0 30.07471676320231,0.1927026628686141,0 30.07511340560973,0.1927537820125413,0 30.07539084057811,0.1927499469637368,0 30.07572388679056,0.1927453905813219,0 30.07594615702593,0.1927425193999423,0 30.07622405444439,0.1927389323645113,0 30.07661323190882,0.192733907787139,0 30.07694692250322,0.1927295966691171,0 30.07718238423949,0.1927869868121609,0 30.07751443268229,0.1927809115598187,0 30.07756967897401,0.1927798049587854,0 30.07796867733958,0.1928315178494572,0 30.07818828850821,0.1928257777608162,0 30.07840920397429,0.192821205897569,0 30.0787624052494,0.1928818975886714,0 30.07909901213322,0.1928793152794968,0 30.07938865805995,0.1929335064021052,0 30.07955238763914,0.1929281685675922,0 30.07989847716354,0.1929819447709656,0 30.08028897236825,0.1929765069392918,0 30.08058316162103,0.1930339377305826,0 30.08080501948985,0.1930296051866093,0 30.08108333153048,0.1930249748826047,0 30.08130601419131,0.1930212726699217,0 30.08159949933698,0.1930776082110449,0 30.08182234092404,0.1930739026189166,0 30.08204521610279,0.193070201193288,0 30.08237958821853,0.1930646495216005,0 30.08271403197376,0.1930590912294938,0 30.08295484994192,0.1931181415187991,0 30.08325504633705,0.1931789135871857,0 30.08347748950288,0.1931745556699718,0 30.08376875107871,0.1932281147933564,0 30.08400502505646,0.1932831547641824,0 30.08424234100273,0.1933388995864438,0 30.08436991820022,0.1933980051229194,0 30.08456958788632,0.1935174152267898,0 30.0850614587487,0.193749311618283,0 30.08538656128693,0.1938667850601212,0 30.08565985491292,0.1939234658037307,0 30.08582561660817,0.1939209465983551,0 30.08610065019516,0.1939193749907015,0 30.08643402039088,0.1938540254783793,0 30.08671013096987,0.1938500713845169,0 30.08704147679512,0.1938449973137974,0 30.08726441210326,0.1937803340451501,0 30.08754407535603,0.1936553460332057,0 30.08766107277824,0.1934676407396453,0 30.08788410977841,0.1934013023438618,0 30.08804963754437,0.193398246499747,0 30.08832555614679,0.1933931578012058,0 30.08854632537353,0.1933890898002621,0 30.08871190644868,0.1933860344731177,0 30.08898608741999,0.1934432201813759,0 30.08926053019943,0.193500463125942,0 30.08953375131732,0.1936188427452079,0 30.08975425853679,0.1936736943082006,0 30.0899733641489,0.1937925137364399,0 30.09030120000428,0.1940333820578128,0 30.0904654388579,0.1941542422927409,0 30.09074108342557,0.1942731143218362,0 30.09085056074638,0.1943368828261777,0 30.09118084381699,0.1944642842834628,0 30.09140213077315,0.1945261776078613,0 30.09162513502769,0.1945198847360298,0 30.09190361947224,0.194514797729559,0 30.09212644014045,0.1945107246622443,0 30.09246117234979,0.1944421122941781,0 30.09273967161322,0.1944369222768048,0 30.09301851641558,0.1943069212610715,0 30.09329693070373,0.1942393820853782,0 30.09363082215208,0.1941708485961929,0 30.09385325241874,0.1941044385040116,0 30.09402014756393,0.1941013141157667,0 30.09435351705286,0.194034655609241,0 30.09468696399408,0.1939632492342921,0 30.09496453108335,0.1938947602644271,0 30.09535309897647,0.1938237507763417,0 30.09540869086753,0.1938224726526475,0 30.0957422723975,0.1938147857751491,0 30.09602027149013,0.1938083795176858,0 30.09607587389867,0.1938070980572461,0 30.09646737466305,0.1939222541746878,0 30.09674555851841,0.1939158688491877,0 30.09702651348202,0.1940339038832755,0 30.09730648136006,0.1940909470416068,0 30.09752941264058,0.194086865825113,0 30.09780974954566,0.1941439955866209,0 30.09803454026316,0.1942021966242905,0 30.0983134448682,0.1941979615283191,0 30.0986483635487,0.1941940690877708,0 30.09903915462063,0.1941859743645204,0 30.09926452368276,0.194242670309204,0 30.09959938200633,0.1942337079090263,0 30.09982253761039,0.1942270088171325,0 30.10015794936348,0.1942236593153315,0 30.10049315214491,0.1942180352805543,0 30.10077262488756,0.1942130045548521,0 30.10121965255312,0.194204124852342,0 30.10144319612316,0.1941996816618697,0 30.10166676215722,0.1941952397200652,0 30.10194624829819,0.1941896835895911,0 30.10216659755851,0.1941228952984804,0 30.10238680552775,0.19405614763089,0 30.1027219867111,0.1940491788864837,0 30.1030012258889,0.1940427995058915,0 30.10322827484466,0.1940999232042392,0 30.10345177434486,0.1940948206550299,0 30.10373499088658,0.1941507139964488,0 30.10396251726298,0.1942079275273183,0 30.10424214590608,0.1942015468892496,0 30.10446586334338,0.1941964374575966,0 30.1048013412893,0.1941883131544928,0 30.10496035210669,0.1940590011009183,0 30.10517053005478,0.1938661258357716,0 30.10538954171013,0.1937993897789037,0 30.10559968268107,0.1936097720629338,0 30.10592052691711,0.1934170889318137,0 30.10613870129738,0.1933504264272858,0 30.10635194061414,0.1932220968201648,0 30.10656487938893,0.1930939448090073,0 30.10677751437751,0.1929659759167358,0 30.10699002019163,0.1928387571789373,0 30.10720257721884,0.1927126999675871,0 30.10741322779951,0.1925820627694863,0 30.10767558427098,0.1923944526194444,0 30.1079427892003,0.1922682869612726,0 30.10820869512347,0.1921397149210937,0 30.1085351158878,0.1920712151037766,0 30.10870084317791,0.1920667633521297,0 30.10903241757685,0.1920582419110667,0 30.10930930644143,0.1920524166978636,0 30.10944988357972,0.191801317399443,0 30.10948740461482,0.1916181988175201,0 30.10956278666268,0.1912542664487275,0 30.10964386651104,0.1909522306713191,0 30.1096697013535,0.1906523162858179,0 30.10981104456911,0.1904108044288066,0 30.1100068099191,0.1901688897580548,0 30.11020804136215,0.1899868202943891,0 30.11040886263266,0.1898051161096192,0 30.11055462760152,0.1896248487477648,0 30.11069373694081,0.1893857786965416,0 30.11071686943441,0.1890900626188899,0 30.11058931975333,0.188916141892334,0 30.11055831653038,0.1886233340972135,0 30.11052126448227,0.1882733575227285,0 30.1105507440967,0.1880397411918877,0 30.11057397948568,0.1877489416846945,0 30.11065721807971,0.1875156836156517,0 30.11068637087971,0.1872842172232228,0 30.11064934451703,0.186939966944231,0 30.11061248941132,0.1865971879798538,0 30.11057578027853,0.186255873453002,0 30.11059872103423,0.1859714046518909,0 30.11056826421294,0.1856890847981991,0 30.11053791529684,0.1854077669911677,0 30.1105076727625,0.1851274441457901,0 30.11048355731167,0.1849038913871728,0 30.11035363166652,0.1846834018579323,0 30.11022419291794,0.1844637248300957,0 30.11009511836306,0.1842446678370441,0 30.11001337559529,0.1839699443136867,0 30.10988547992569,0.1837530710099374,0 30.10980490256856,0.1834809980931185,0 30.10977128701171,0.1831539530004879,0 30.1095974649293,0.1829946294480794,0 30.10941848495927,0.1827813885032911,0 30.10934430384408,0.1825660865760466,0 30.10927577878072,0.182405328724064,0 30.10914454291439,0.1821385783205661,0 30.10897783747777,0.182035036794665,0 30.10875942402654,0.1819329581061334,0 30.10863989940109,0.1817748319470077,0 30.10872299181554,0.1815588183852228,0 30.1088679719146,0.1814483297658442,0 30.10889869394742,0.1812342811931918,0 30.10893944142235,0.1811261214365172,0 30.10901009800484,0.1808043241975424,0 30.1091270366904,0.180430645376453,0 30.1090947985992,0.180115099906018,0 30.10917592920773,0.1799028620340719,0 30.10930804210345,0.1796899054738644,0 30.10938891152505,0.1794791618649851,0 30.10942934733191,0.1793741082344228,0 30.1094538190334,0.1791142248458718,0 30.10947821091058,0.1788551927521659,0 30.10945705162977,0.1786497132131623,0 30.1094299802932,0.1783927384619824,0 30.10940239795061,0.1781358417599327,0 30.10943092396322,0.1779295458202312,0 30.10956621176244,0.177772482598352,0 30.10975737751301,0.1776654445549945,0 30.11000432046476,0.1776079811513586,0 30.11018938356744,0.1774504760431312,0 30.11037406689629,0.1772932685414855,0 30.1105256899057,0.1772898107724747,0 30.11070602081013,0.1770845543960096,0 30.11084063158674,0.1769305348875007,0 30.11091845106154,0.1767274421085358,0 30.11099606948929,0.1765248786475325,0 30.11112372184945,0.1763216482026299,0 30.11120670260319,0.1761698655775525,0 30.11133966159231,0.1760171917263965,0 30.11152248268382,0.1758635791266097,0 30.11176623360247,0.1758074474352564,0 30.11200296792445,0.1757011717070494,0 30.11218292837236,0.1755465614561477,0 30.11238226758112,0.1755412715688955,0 30.1125251309331,0.1754876056667009,0 30.11281729142512,0.1754300125744058,0 30.11305946062072,0.1753737834302161,0 30.11320193558249,0.1753202325829636,0 30.11344380262644,0.1752640788910299,0 30.11377745695789,0.1751555340543391,0 30.11401244954408,0.1750506451376143,0 30.11424026398129,0.1748968459820042,0 30.11442500160883,0.1747936405852903,0 30.1147518820975,0.1746382384849576,0 30.11487973291022,0.1744881072187642,0 30.11500733849674,0.1743382631271743,0 30.11519132187815,0.174236040271552,0 30.11533989895557,0.174232309377554,0 30.11558754061495,0.1742260891348342,0 30.11577850282329,0.1741726255281622,0 30.11597694984541,0.1741678866613976,0 30.11627464958898,0.1741607733567342,0 30.11647314345003,0.1741560365819242,0 30.11667068963516,0.1741507241974041,0 30.11686775640806,0.1741451332872402,0 30.11706545713345,0.1741399180215243,0 30.11736201494948,0.1741320934520124,0 30.11761708789812,0.1741741586605152,0 30.11782287337688,0.1742175543608652,0 30.11802879160714,0.1742609813205687,0 30.11821040236781,0.1741585065817561,0 30.11834236698539,0.1740574677935064,0 30.1185646707875,0.1739055067501499,0 30.11873722481388,0.1737551446349914,0 30.11886862058297,0.1736546968032379,0 30.1189840187617,0.1734584724155587,0 30.11909095234932,0.1732148386548946,0 30.11924626941332,0.1729705037679421,0 30.11944895043122,0.1727251270488546,0 30.11965096748137,0.1724805512636906,0 30.11961652360204,0.1722905226830087,0 30.1196802035271,0.1720986055120081,0 30.11963915349428,0.1718632092572278,0 30.1196628771835,0.1717208863455723,0 30.11982280291634,0.1715276587476795,0 30.11999107626635,0.1713817582554583,0 30.12016709950415,0.1712827110496669,0 30.12034288103287,0.1711837984948482,0 30.12046194702583,0.171039932145896,0 30.12050158455553,0.1709920379185726,0 30.12067728521252,0.1708936842209224,0 30.12078700646024,0.1707039756334231,0 30.12108971315621,0.1705097398473633,0 30.12126549973183,0.1704123741427888,0 30.12142319247485,0.1702229132139076,0 30.1215413223124,0.1700811643628978,0 30.12171663239727,0.1699844238705473,0 30.12189238317756,0.1698879930014796,0 30.12211671666662,0.1697906313818841,0 30.12225305842651,0.1697414292500101,0 30.12241845563576,0.1695993932374056,0 30.12264082287506,0.1695019897143088,0 30.1228146413665,0.1694058695543212,0 30.12294954823981,0.1693566319478641,0 30.12316145310934,0.1692139303506281,0 30.1233345412967,0.1691181366816097,0 30.12350742014414,0.1690224596075027,0 30.12364179487814,0.1689734561185505,0 30.12379482526487,0.1687874009198906,0 30.12400502552874,0.1686457125632993,0 30.1241174342916,0.1685063256199767,0 30.12432479124297,0.1683646968495763,0 30.12449450336602,0.168269594380759,0 30.12465348350839,0.1681296643498225,0 30.12477503265868,0.1680360992744787,0 30.12502838473793,0.1678941415311363,0 30.12520780907568,0.1678444255836215,0 30.12538711486172,0.1677947429836973,0 30.12560288340339,0.1676991612591663,0 30.12581836650767,0.1676037045969566,0 30.12607132538997,0.1674628504115602,0 30.1262507743601,0.1674135747129034,0 30.12637232982791,0.1673212296211011,0 30.12662638736963,0.1671812447792263,0 30.12676826488307,0.1671775387147968,0 30.12696275810734,0.1673952853213035,0 30.12694652014832,0.1675296438075994,0 30.12679026033923,0.1676683942919008,0 30.12657446603968,0.1677638205495706,0 30.12628424276467,0.1679512315050311,0 30.12617283405003,0.1680892430392925,0 30.12601372981311,0.1682287877427264,0 30.1258543237481,0.1683685985888967,0 30.12564703530868,0.168509949691016,0 30.12548697489484,0.1686502948033436,0 30.12536421331286,0.1687444315480972,0 30.12510822823781,0.1688877805846573,0 30.12499588861434,0.169027779869497,0 30.12479228551282,0.169171738275525,0 30.12462093109445,0.1692678832335954,0 30.12450637330623,0.169408266674394,0 30.12434373131288,0.1695502237913748,0 30.12418078345171,0.1696924504783799,0 30.12402679422377,0.1698807143007636,0 30.12400656107731,0.170019444124869,0 30.12400473734808,0.1702503235003811,0 30.1238984341489,0.170438742667492,0 30.12378262720744,0.1705814280282892,0 30.12371471818475,0.1707230316526155,0 30.12376189716512,0.170955096655411,0 30.12395466158015,0.1709496516304883,0 30.12429195607576,0.1709401271358201,0 30.12453297271741,0.1709333582340118,0 30.12467832117164,0.1709295317174452,0 30.12486227377973,0.1708779579236762,0 30.12509454047534,0.1708251465796196,0 30.12532665182904,0.1707723610584513,0 30.12550020041474,0.1706745318018313,0 30.12567353479893,0.1705768245069129,0 30.12585678056251,0.1705254699693961,0 30.12599152145709,0.1704753962576133,0 30.12621102551126,0.1703762204200336,0 30.1262796742418,0.1704672777631058,0 30.12617681016949,0.1706565130552976,0 30.12601451443332,0.1708009203824996,0 30.12589973931882,0.1709441367577891,0 30.12578474870071,0.1710876211289506,0 30.12566954490459,0.1712313730265722,0 30.12549544622296,0.171329911501268,0 30.1253797899801,0.1714741155443766,0 30.12520523881643,0.1715729619048347,0 30.12503046962588,0.1716719324673255,0 30.12495292855377,0.1717684636805071,0 30.12473809943891,0.1719157732787589,0 30.1245712010518,0.172061895663466,0 30.12444419884218,0.1721601407324355,0 30.12423953548819,0.172356038447799,0 30.12401565537153,0.1724577641391053,0 30.12389906089141,0.1726045614815182,0 30.12383114513016,0.1727503161868211,0 30.12373393317807,0.1729934167362771,0 30.12368641154518,0.17323636055595,0 30.12361878391293,0.1733837031662282,0 30.12356108903617,0.1735796876849505,0 30.12350323291654,0.1737762045362326,0 30.12339739524935,0.1739752692665749,0 30.12328213175902,0.1741265610690436,0 30.12310312101936,0.1742288748147207,0 30.1229822675636,0.174378379635319,0 30.1228611793815,0.1745281565880109,0 30.12267105448915,0.1745816817514735,0 30.12253109525689,0.1746342396263633,0 30.12234300151317,0.174688917032909,0 30.12216398847687,0.1747925331491192,0 30.12198390160414,0.1748958851145216,0 30.12180357721568,0.1749993717094042,0 30.12168209726204,0.1751509286074721,0 30.12156038051927,0.1753027747752013,0 30.12149758011829,0.1755030734615796,0 30.12147536136418,0.1756529839216793,0 30.1213254221218,0.1756569307652089,0 30.1211388494268,0.1754627472710887,0 30.12095171326426,0.1752685188469583,0 30.12074228603212,0.1752238838772109,0 30.12060132782418,0.1752769117293497,0 30.12035211231778,0.1752834732124716,0 30.12010289921561,0.1752900334417867,0 30.11970415578773,0.1753005329696128,0 30.11931358009782,0.1753601872332861,0 30.11892252678975,0.1754197142490206,0 30.11879813006914,0.1755721041981013,0 30.11878183883706,0.1757718050532255,0 30.11877393449846,0.1760218459416592,0 30.11879925105457,0.1761714823801996,0 30.11874959468503,0.1764742982430207,0 30.1187834286281,0.1766750803541776,0 30.1188258478629,0.1769268155661907,0 30.11885988422851,0.1771288081269446,0 30.11887693848957,0.1772300073994083,0 30.11888621335031,0.1775866069971013,0 30.11892057200443,0.1777904266801494,0 30.11897312616733,0.1780978236341937,0 30.1187874611891,0.1782058794497704,0 30.1187033045255,0.178311479865369,0 30.11846628402806,0.1784211335314037,0 30.1182289264052,0.1785309294176058,0 30.11805010964154,0.178690819757519,0 30.11787093704211,0.1788510320835316,0 30.11768982624035,0.1790102683244446,0 30.11767737269927,0.1792690763701201,0 30.11771191920033,0.1794786011722062,0 30.11776375241118,0.1797938637142212,0 30.11780698672525,0.1800575041934624,0 30.11798650023808,0.1802113241057232,0 30.11819114545505,0.1802049026118999,0 30.11844692256632,0.1801968789487971,0 30.11857328439962,0.1800332670888853,0 30.11869929872234,0.1798699697765542,0 30.1189302061483,0.1797064332865757,0 30.1191723488061,0.1795977154463935,0 30.11928562025194,0.1793356535652429,0 30.1194125179635,0.1791754856375488,0 30.11965884990195,0.1791165239087283,0 30.1198444454442,0.1790067288956247,0 30.11988627125266,0.1789533670978346,0 30.12011320608928,0.178790555869854,0 30.12033966259369,0.1786280898078214,0 30.1205519725128,0.1786738687582218,0 30.1206306506546,0.1788275853708448,0 30.12072819211705,0.1790854666281997,0 30.120784463624,0.1793978672107996,0 30.12071054482686,0.1795575250275079,0 30.12070637940117,0.1798208850347747,0 30.12069278668654,0.1800325310990726,0 30.12083306303536,0.1802402667177522,0 30.12106689598506,0.1803926865873182,0 30.12132363471148,0.1803851796531281,0 30.12157062190166,0.1803248402080333,0 30.1216635106567,0.180269046278161,0 30.12196222020888,0.1802078525685695,0 30.12227155191443,0.1801999930237166,0 30.12247856711073,0.1801953279984368,0 30.12267438825565,0.1801371955628969,0 30.12284810139525,0.1799727001853679,0 30.12312631584786,0.1798073084475412,0 30.12327035535934,0.179750956346767,0 30.1235282072485,0.179744938966649,0 30.12362046837788,0.179953161095676,0 30.12366216279054,0.180163751081631,0 30.12366278500026,0.1804291098738022,0 30.12371515504462,0.1806940792396156,0 30.12390206296722,0.1808495877726557,0 30.12399506367454,0.1807937965024739,0 30.12414894634916,0.18052324683402,0 30.12431392419115,0.1803070566143787,0 30.12443848417438,0.1801460236265743,0 30.12456237024362,0.1799850123626754,0 30.12468541099882,0.1798239378216247,0 30.12479782170245,0.17961105821436,0 30.12492034391576,0.1794507258786572,0 30.12502175283774,0.1791869850301844,0 30.1250921812092,0.1790286052004284,0 30.1251903036401,0.1787646557724828,0 30.12537249262022,0.1786556799470313,0 30.12554324576848,0.1784951060433065,0 30.12578713406572,0.1784368778384365,0 30.12586657564683,0.178330957860227,0 30.12600817987282,0.1782754511922851,0 30.12625158036084,0.1782173763734379,0 30.12658568025166,0.1781055256654353,0 30.12672773223819,0.1780506355392067,0 30.12711394194223,0.1779386669050098,0 30.12735432513076,0.1778797119563393,0 30.12760835949791,0.1778731029083032,0 30.12785020652311,0.1778150625943303,0 30.12809188391189,0.1777570660475726,0 30.12833339326605,0.1776991057648639,0 30.12853651476455,0.1776938642876646,0 30.12884132609968,0.1776860712493094,0 30.1290953445492,0.1776795769774002,0 30.12932447652601,0.1775707431568863,0 30.12955330028201,0.177462058561087,0 30.12980698515286,0.1774555684415622,0 30.12994655491709,0.1774006351091287,0 30.13031491547105,0.1771840624186138,0 30.13031879247479,0.1769284019238472,0 30.13037340565876,0.1766725181373519,0 30.13055735764488,0.1765667898893347,0 30.13068159389727,0.1764122310727393,0 30.1308055900226,0.1762579710952341,0 30.1310483941284,0.1762016466054323,0 30.13132391458211,0.176044650212317,0 30.1315070742524,0.1759400196268123,0 30.13162960402539,0.1757864726861794,0 30.13192084225206,0.1757287255690214,0 30.13210219264938,0.1756238926419862,0 30.13229380722351,0.1755693399688996,0 30.13253561605493,0.1755136798018495,0 30.13283746158286,0.1755066171939603,0 30.13308902614302,0.1755007142543112,0 30.13333057300843,0.1754450807388407,0 30.13342067356693,0.1753927904516269,0 30.13371058685133,0.1753352155394445,0 30.13381985017779,0.1751330027989033,0 30.13395016558616,0.1750305717620362,0 30.1341594757183,0.1748269483846077,0 30.13427648828194,0.1746745160658539,0 30.134394342827,0.1745228988524375,0 30.13456226584975,0.1743705483038663,0 30.13473781095025,0.1742663445723601,0 30.1349240110115,0.1742113646360537,0 30.13505029858234,0.1741090488950504,0 30.13532493907932,0.1740028986706595,0 30.13550060696278,0.1738997046039135,0 30.13577175715954,0.1739914627368889,0 30.13595465323322,0.174134698970117,0 30.13615062397278,0.1743279569906063,0 30.13603476060594,0.1744792650714689,0 30.13586844344302,0.1746320024484081,0 30.13564013383482,0.1747366206153309,0 30.13546238998282,0.1748405102749453,0 30.13528657318842,0.1749455132722173,0 30.1351684436145,0.1750976453871292,0 30.13511072047445,0.1752983861855995,0 30.13505400497417,0.1755002026284931,0 30.13499782870795,0.1757029133948096,0 30.1348895329911,0.1759066406162311,0 30.13483921294397,0.1761584802272093,0 30.13477808149902,0.1763607284170422,0 30.13476751239823,0.1765623088247722,0 30.13464593651487,0.1767167567982151,0 30.13458546859989,0.1769209926003977,0 30.13446454591105,0.1770767183564435,0 30.13428272947053,0.1771834487395925,0 30.13411073347424,0.1773410624000073,0 30.13403967728483,0.1774962412427109,0 30.13409000414445,0.1777509631196667,0 30.13428274320298,0.1779512038651373,0 30.13443595761516,0.1782049887350005,0 30.13468222916417,0.1784059527982803,0 30.13482841075375,0.1786109960634942,0 30.1348865462254,0.1788731033493288,0 30.13478883614374,0.1791388500627398,0 30.13484140665806,0.1793993611764047,0 30.13472952952742,0.179612572211037,0 30.13472229399778,0.179824901809593,0 30.134611926255,0.1800405507248213,0 30.13446825095724,0.1800976239054209,0 30.13435733101841,0.1803140370014001,0 30.13424609733446,0.1805310646847459,0 30.1341754079912,0.1806938985727985,0 30.13407454570188,0.1809655964060624,0 30.13391143835499,0.1811865154850833,0 30.13379906269667,0.1814061240769951,0 30.13376828582778,0.1815151186117258,0 30.13356149395306,0.181792216057798,0 30.13339553090841,0.182014602610211,0 30.13328111579255,0.1822360315186158,0 30.13326018293686,0.1824005217247182,0 30.13316600305653,0.1827321347849975,0 30.13312371691506,0.1830635434268919,0 30.13297644701968,0.1833995690251321,0 30.13300764697422,0.1835650074544884,0 30.1329127370742,0.1839019604176511,0 30.13281581732154,0.1842390316851218,0 30.13260364190058,0.1842442923865783,0 30.13232806388693,0.1841951087220503,0 30.13193664671796,0.1840930470028362,0 30.13166162510829,0.1840439748429184,0 30.13138645080611,0.1839946307178691,0 30.13092149183694,0.183781175124257,0 30.13074240103374,0.1836734111214539,0 30.13038503753424,0.183458375480289,0 30.13021674054018,0.1834066395920036,0 30.12991595071324,0.1831933618335004,0 30.12968825447295,0.1830900920748165,0 30.12939963125253,0.1829339600639187,0 30.12917264579348,0.1828310337055004,0 30.1289546369313,0.1827825864134711,0 30.12872815941312,0.1826798558164876,0 30.12846536344369,0.1826859150455565,0 30.12819294808068,0.1826365561360996,0 30.12797487477517,0.1825875977928368,0 30.12766209951188,0.1825971498175371,0 30.12745288411272,0.1826028826360596,0 30.12713777305421,0.1826100646576201,0 30.12682168094764,0.1826163114104235,0 30.12655956763937,0.1826227837290645,0 30.12629746674981,0.1826292578143884,0 30.12614821833894,0.1826876864019893,0 30.12595435831205,0.1828020671241684,0 30.12569985936342,0.1828631935055431,0 30.12545280478808,0.1829789069309073,0 30.12532599944669,0.1832019120702049,0 30.12555986443834,0.1833616324628005,0 30.12578633800562,0.1834666112873527,0 30.12602112001012,0.1836269004630006,0 30.12635395812629,0.1837297190532135,0 30.12658157644994,0.1838352247729567,0 30.1268541286038,0.18388422102048,0 30.12699348969655,0.1841037980818412,0 30.12713184137236,0.1843224312604111,0 30.12743102138549,0.1845390936118291,0 30.12747335702902,0.1848183663674778,0 30.12735631378874,0.1851028093102871,0 30.12722171027093,0.1852752894630189,0 30.12713127373639,0.185389845757722,0 30.12695004132799,0.1856194126138017,0 30.12681380164869,0.1857920335589199,0 30.12665297817455,0.1857954629407382,0 30.12643856140573,0.1858000354474575,0 30.126216816872,0.1857488722917144,0 30.12611007310627,0.1857516694680746,0 30.12573683566422,0.1857618381516628,0 30.1254703781977,0.1857693296239872,0 30.12520391203319,0.185776820258925,0 30.12488414153627,0.1857858068490719,0 30.12472424966507,0.1857903009765174,0 30.12451145593909,0.1857968734472761,0 30.12418979331469,0.1858033322945336,0 30.12386818897042,0.1858097878023803,0 30.12376099634174,0.1858119449162868,0 30.12337947716637,0.1857638719102994,0 30.1231127918499,0.1857709033413404,0 30.12295981570643,0.1858318420660742,0 30.1227463889286,0.1858374662898926,0 30.12242543872343,0.1858446562746907,0 30.12227159343268,0.1859047456194338,0 30.12196360704958,0.1860250401543316,0 30.12170917632685,0.186144950735429,0 30.12140227456425,0.1862685842852603,0 30.12109467613714,0.1863920149133384,0 30.12079185485629,0.1865710394495574,0 30.12038621264243,0.1868088563944588,0 30.12013598390893,0.1869879093822202,0 30.11988530123086,0.1871675378538658,0 30.11968790128079,0.1873461351054026,0 30.11949007224834,0.1875251154138726,0 30.11928607016629,0.1876465459847182,0 30.11908745921484,0.1878261652761535,0 30.11898524661438,0.1878872123230211,0 30.11855246623337,0.1878965677892444,0 30.11828168913065,0.187901755263453,0 30.11795178034082,0.1878505934350227,0 30.11767658052067,0.1877993474159843,0 30.11739686795828,0.1876907754432292,0 30.11717102506979,0.1875800783418339,0 30.11705823094542,0.1875247864823796,0 30.11666665687292,0.187360760519881,0 30.11643736420948,0.1871935742242594,0 30.11627153055991,0.1871403210852981,0 30.11609639096085,0.1869715381791409,0 30.11575593697562,0.1867487983310503,0 30.11552828785805,0.1865822601041342,0 30.11530591247198,0.1864744817612722,0 30.11510055448019,0.1865946571657112,0 30.11483697958864,0.186658372578073,0 30.11468861292864,0.1868338474624568,0 30.11453963552349,0.1870090847788212,0 30.11428312337732,0.1871880294010867,0 30.11418335225762,0.1873053030183024,0 30.11397973055414,0.1874831892202665,0 30.11382945673967,0.1876597577454569,0 30.11362474001306,0.1878373311247049,0 30.11336611975393,0.1880183286875634,0 30.11321481803122,0.1881965537476831,0 30.11312078500553,0.1884317353961221,0 30.11297250807796,0.1886697292603307,0 30.11298287326676,0.1888448478780707,0 30.11288833100075,0.1890827177710107,0 30.11279363264057,0.1893217603993259,0 30.11270252407774,0.1896219218234165,0 30.11260781513031,0.1898653057597492,0 30.11245775351214,0.1901100647547044,0 30.11231042057044,0.1904129163112146,0 30.11221025178549,0.1905928689047547,0 30.1120099950967,0.1909578508865262,0 30.11185731923553,0.1912003438916563,0 30.11164617701833,0.1913850207411018,0 30.11137970562948,0.1915729143444823,0 30.11122012356066,0.1916979167198196,0 30.11100793746099,0.1918850246950196,0 30.11079256507778,0.1920119140447683,0 30.11063217840744,0.1921375492742575,0 30.11047157926937,0.1922633543367942,0 30.1102604774515,0.1925125777536763,0 30.1100968301659,0.1925784138268082,0 30.10982951071724,0.192832066642204,0 30.1096121792498,0.1929610186046878,0 30.10939674188637,0.1931507242902365,0 30.10917867298727,0.1932794118105423,0 30.10885304333967,0.1935343428492597,0 30.10863411634509,0.1936639044142227,0 30.10841680705767,0.1938553936889829,0 30.10825298890051,0.1939825659946188,0 30.10803479939255,0.1941729684271673,0 30.10787045863495,0.1943011261376954,0 30.10764989912889,0.1944309991693551,0 30.10737452419242,0.1946245988748368,0 30.10709713456517,0.1947564857784375,0 30.10687548692764,0.1948869979078122,0 30.10665474973122,0.1950798232133023,0 30.10643239210459,0.1952104752634067,0 30.1060960780577,0.1952821029535282,0 30.1058720754733,0.1953506608665167,0 30.10564697569454,0.1953568968904001,0 30.10530932099304,0.1953670971096244,0 30.10502793827623,0.1953739929003929,0 30.10469049978117,0.195380821975719,0 30.1043529620055,0.1953885626892553,0 30.10407248508423,0.1955197497198769,0 30.10390353737349,0.1955243833265548,0 30.10362258112808,0.1956557459865302,0 30.10328446341771,0.1956650184015923,0 30.1030027992463,0.1957346333934918,0 30.10283367964454,0.195739270533444,0 30.10249535113457,0.1958098432140045,0 30.10215767424824,0.1958145997963035,0 30.10193259856911,0.1958177698766606,0 30.10153881075743,0.1958233147041676,0 30.1011454885565,0.1957682731757299,0 30.10097732302132,0.1957091629221779,0 30.10063971018561,0.1957165785641031,0 30.10041464709695,0.1957215174587583,0 30.10018861634227,0.1957892729501589,0 30.09996350703967,0.1957942118344092,0 30.09968103749252,0.1958631354562133,0 30.09939879229367,0.1959301671254181,0 30.09911597626509,0.1959990401333652,0 30.09888777249451,0.1961301407228677,0 30.09860282533956,0.1962628392575009,0 30.09837708599668,0.1962685030326399,0 30.09814971335651,0.1963370477283087,0 30.09781100342031,0.1963455452538721,0 30.09758519832953,0.196351211100714,0 30.09736150823769,0.1962935885246087,0 30.09713809634279,0.1962353281763545,0 30.09685867607777,0.1961776881420277,0 30.09658006625591,0.1961181395103276,0 30.09630361805034,0.1959973548787893,0 30.09608366338157,0.1958759696248962,0 30.09586173095801,0.1958169159295848,0 30.09558396849634,0.1957587004699357,0 30.09536242733082,0.1956997468349379,0 30.09508512318482,0.1956416333169366,0 30.09480539373935,0.1956455691690057,0 30.09458151469726,0.195648798169798,0 30.09430176871473,0.1956533396606726,0 30.09402190646927,0.1956580260418896,0 30.09374243551333,0.1956618429485958,0 30.0934630191758,0.1956656623541153,0 30.09318366371754,0.1956694780090509,0 30.09295688729662,0.1957346973238451,0 30.09273290159397,0.1957386083510377,0 30.0923967320793,0.1957455830681828,0 30.09200457793834,0.1957537139784912,0 30.09178051543537,0.1957583604481862,0 30.09150395008639,0.1957025450598636,0 30.09122767328939,0.1956466628118279,0 30.09095530036951,0.1955301467982513,0 30.09062542028354,0.1954719328423543,0 30.09046243946426,0.1954123946241277,0 30.09018858554045,0.1953538262604685,0 30.0899111488011,0.1953561466784435,0 30.08968925651376,0.1953579986406046,0 30.08941596268997,0.1952995020373335,0 30.08919422329984,0.1953013980737165,0 30.08891549293803,0.1953068222977042,0 30.08858277354273,0.1953102514564835,0 30.08836587092099,0.195250808525474,0 30.0882547819649,0.1952523803958292,0 30.08792545924838,0.1951975765566964,0 30.08764769009302,0.1952020317430542,0 30.08725890536655,0.1952082697514573,0 30.08698125745689,0.1952127224327384,0 30.08670365967986,0.1952171776121312,0 30.08646673557974,0.1954032728389139,0 30.08629505409697,0.1954668578659091,0 30.08595654144748,0.1955331831283566,0 30.08573423457709,0.1955367360417574,0 30.08540073704458,0.1955419351313594,0 30.08501236851516,0.1955474699021693,0 30.08479569359368,0.1954901040848001,0 30.08452377141722,0.1954335800717283,0 30.08431281113384,0.195315902180249,0 30.08415207190183,0.1952579112861524,0 30.08381993077679,0.1952627081504702,0 30.08365914537804,0.1952052159926815,0 30.08315297204037,0.1950907092145812,0 30.08290558138631,0.1949113639873442,0 30.08272925680729,0.1948522040317648,0 30.08238510990578,0.1947957434570917,0 30.08223194901862,0.1949199868388282,0 30.08202222105541,0.195044619614835,0 30.08174148160176,0.1950481517589835,0 30.08141152108777,0.1951127797896617,0 30.08118696635642,0.1951155989072959,0 30.08101857888164,0.1951177141831298,0 30.08073798667027,0.1951212379770819,0 30.08040307123441,0.1951285751663122,0 30.08012533019878,0.1951374292171559,0 30.07985386170941,0.1952065806270055,0 30.07964378203202,0.1953337577176659,0 30.07937074915125,0.195400703246688,0 30.07915550792913,0.195518393441143,0 30.0788780791748,0.1955766237470865,0 30.07853907112662,0.1955761156441532,0 30.07819703318877,0.1955209103110716,0 30.07791125278818,0.19546482829377,0 30.07773744000864,0.1954066059386687,0 30.07739510841294,0.1953490777350784,0 30.07716521470098,0.1952903764949334,0 30.07687973652536,0.1952333234171904,0 30.07659581670053,0.1951792682788679,0 30.07631209589963,0.1951252535583033,0 30.07614011658037,0.1950693740891883,0 30.07581450994434,0.1951925498124913,0 30.07553556360235,0.195197287810291,0 30.07537260806413,0.1952589149936133,0 30.07498628821732,0.19532408739804,0 30.07482298324665,0.1953852527835612,0 30.07448784298727,0.1953898799726212,0 30.07420454089428,0.1953349024033482,0 30.07397724308319,0.1952791963142528,0 30.07369433698782,0.1952242993880101,0 30.07341163751592,0.1951694424709499,0 30.07318868509132,0.1951725430664633,0 30.072906308519,0.1951177320028381,0 30.0726281435427,0.1951226203336605,0 30.07235028063974,0.1951288031828084,0 30.07195657190093,0.1950735073086763,0 30.07167833933948,0.1950774709896937,0 30.07134096008187,0.1950225150064526,0 30.0711145836385,0.1949643925758237,0 30.0708367566217,0.1949685186539401,0 30.07049197890878,0.1947877265167743,0 30.07026260162984,0.1946674480907582,0 30.070085328119,0.1944849003033494,0 30.06985674732473,0.194365110280516,0 30.06962853814987,0.1942455205869145,0 30.06940054061682,0.1941252159990457,0 30.06922812228239,0.1940043693224014,0 30.06899759163722,0.1938231866557165,0 30.0687708725832,0.1937039594436004,0 30.06848951706053,0.1935856726705454,0 30.06820568856606,0.1934067212967506,0 30.0679802743121,0.1932881743276631,0 30.06770031305274,0.1931703966137671,0 30.06748088052018,0.1931721117693676,0 30.06725899450859,0.1931134788380781,0 30.06698533711311,0.1931190172965658,0 30.06681871904021,0.1930616623438714,0 30.06659743243633,0.1930042202789567,0 30.06637860959782,0.1930073055554469,0 30.06599596158177,0.1930148784813155,0 30.06577728026823,0.1930187530504246,0 30.06544921238283,0.1930225565318932,0 30.06517590705748,0.193025727874259,0 30.06495731190018,0.193028267700533,0 30.06473876630682,0.1930308035687415,0 30.06446874638936,0.1931546523582967,0 30.06430475813762,0.1931568588119871,0 30.06403156044613,0.1931614922666244,0 30.06375842363494,0.1931659226172208,0 30.06343072254807,0.1931712389938538,0 30.06304849895594,0.1931774405618716,0 30.06288468474017,0.1931789071418685,0 30.06261109180376,0.193119275168936,0 30.06244668979903,0.1930604896353331,0 30.06217279052573,0.1929426469212315,0 30.06200749989404,0.1927642928795966,0 30.06184372834886,0.1927067065347314,0 30.06151689219366,0.1926537373993455,0 30.06124513005297,0.1926586405615624,0 30.06097320384868,0.1926028682950228,0 30.06064752273434,0.1926070521563086,0 30.06032194142059,0.1926112336217257,0 30.06005083877807,0.1925546632840973,0 30.05994244203134,0.1925555753422256,0 30.05950945388516,0.1924986378168845,0 30.05918420172709,0.1925049678625213,0 30.05885928102674,0.1925094402946331,0 30.05864289899687,0.1925112440195555,0 30.05848050883409,0.1925132270299443,0 30.05815643437642,0.1924581221133741,0 30.0578317819765,0.1924633613239988,0 30.05756103777534,0.192468900976888,0 30.05723642591853,0.1924745838068039,0 30.05701906801783,0.1925370964287771,0 30.05675231271631,0.192417699505332,0 30.0565911490954,0.1923622282218986,0 30.05637614635403,0.1923075507322048,0 30.05616030937196,0.1923105834053542,0 30.05589056755174,0.1923143734356113,0 30.05551201133003,0.192376489880129,0 30.05529523250056,0.19243648449491,0 30.05497068329533,0.1924973841342626,0 30.05469875702495,0.1926148471478936,0 30.05448042163238,0.1927320787641918,0 30.05426189342048,0.1928494137544227,0 30.05393503863824,0.1929686543040917,0 30.05376924709181,0.1930879836602565,0 30.05354848464622,0.1932098453908207,0 30.0533302983207,0.1932713805036462,0 30.05306003805241,0.1932749699767076,0 30.0528498420588,0.1931560906227056,0 30.05258005490532,0.1931592559235744,0 30.052315896892,0.1930431781510361,0 30.05204980175294,0.1930378839673955,0 30.05168122364596,0.1929170827195265,0 30.05146972992608,0.1928068346136335,0 30.05120286404255,0.192805625089003,0 30.05093739216127,0.1927496564468646,0 30.05061795519224,0.1927473672521737,0 30.05029982455283,0.1926910948168652,0 30.0499809071748,0.1926888305214818,0 30.04966223714634,0.1926865666211766,0 30.04944991237395,0.1926850614951673,0 30.04907860294874,0.1926824231465778,0 30.04881489473722,0.1926266670520193,0 30.04860302412758,0.192625175008991,0 30.04828452007067,0.1925732076794333,0 30.04807465600301,0.1924151534591217,0 30.04781479604551,0.1923032299361292,0 30.04760920249209,0.1921898370439295,0 30.04740422356288,0.1920761038100814,0 30.04714764524845,0.1919609043611788,0 30.04689370705364,0.1918422270138741,0 30.04669216575151,0.1917251575439541,0 30.04649099282459,0.1916082920602428,0 30.04623520181212,0.1915459067300608,0 30.04598478005899,0.1914255301996277,0 30.04568215668363,0.1914062005892871,0 30.04548236129781,0.1913405585382147,0 30.04527560738402,0.1913362900951178,0 30.04501640069063,0.191282310181127,0 30.04485811226731,0.1912842512027673,0 30.04454162190623,0.1912881360608321,0 30.04427795314406,0.1912913726627609,0 30.04396164436779,0.1912952563792572,0 30.04364620731355,0.1912981165099151,0 30.04338457033158,0.191298898135303,0 30.0432278542561,0.1913489574837153,0 30.04291411808106,0.1913498798405994,0 30.04270523282095,0.1914000704379123,0 30.04240179774952,0.1914375230930233,0 30.04219125365215,0.1914901888590316,0 30.04192504188012,0.1915475013011514,0 30.04171079015597,0.1915551656041252,0 30.04144292267292,0.1915647486663514,0 30.0411750856499,0.19157431956968,0 30.04096097269607,0.1915816745289602,0 30.04058622118559,0.1915945423945214,0 30.04037203890995,0.1916019002178854,0 30.04010427539979,0.1916110938584468,0 30.03983647688073,0.1916202937410676,0 30.03957084088575,0.1916762465481592,0 30.03923620339669,0.1917028694378053,0 30.03891209095586,0.191716717073665,0 30.03869594730551,0.1917259503338994,0 30.03831116834585,0.191749207109019,0 30.03809801581139,0.1917549021855007,0 30.03783515617891,0.1917580811244344,0 30.03756798853932,0.1918156043479189,0 30.03735746045457,0.1918185210013812,0 30.03704185456367,0.1918721921686136,0 30.0367949961493,0.1918585554418574,0 30.03664704820675,0.1918503791868878,0 30.0363400938125,0.1918460181208531,0 30.03608472961787,0.1917927063648304,0 30.03582604799739,0.191743160275711,0 30.03556751729362,0.1916936385518338,0 30.03531425883546,0.1916391330455706,0 30.03516714834969,0.1915326089954902,0 30.03493337077073,0.1914103380332971,0 30.03475397444689,0.1912369955487367,0 30.03457502923015,0.1910640788791807,0 30.03444800366616,0.1909404797335342,0 30.03431354494337,0.1907751290642934,0 30.03417556951618,0.1906627162296639,0 30.03399209695124,0.1904478952256049,0 30.03385475555343,0.1902870881624869,0 30.03380885389345,0.1902336884102445,0 30.03352430855129,0.1894748554917621,0 30.03326068534009,0.1893016974533294,0 30.03310127060621,0.1891431403842121,0 30.03294065895633,0.1890053980544575,0 30.03272905127042,0.1888515871773589,0 30.03251896065809,0.1886863713214717,0 30.03230920893236,0.1885221472978566,0 30.03209998830062,0.1883580890906716,0 30.03189193810089,0.1883039747294176,0 30.03168395706138,0.188193996843713,0 30.03147634409788,0.1880842062051037,0 30.0313207714271,0.1879747965809632,0 30.03106224130936,0.1878649013161235,0 30.03085575301306,0.1877554678776732,0 30.03059797287525,0.1876469132638921,0 30.03039207502917,0.1875925274234785,0 30.03018677088791,0.1874299414285788,0 30.03003328178088,0.187267751072919,0 30.0298285745972,0.1871598093028208,0 30.02967579645174,0.1869982194884467,0 30.02947113187637,0.1868935281527833,0 30.02926729757142,0.1867351111946044,0 30.02911425122468,0.1866827428480241,0 30.02891002960485,0.1866314412788658,0 30.0286555454756,0.1865272671108814,0 30.02845076232085,0.1865307511704905,0 30.02819659002606,0.1864782843419141,0 30.02799390905629,0.1864247605499662,0 30.02774280551776,0.1863642814084576,0 30.02754248316996,0.1863553462632343,0 30.02724062914098,0.1863476567076698,0 30.02698679552715,0.1863986830412074,0 30.02683237070928,0.1864552839105632,0 30.02657885267366,0.1864554966000783,0 30.02627718290515,0.1864496004268735,0 30.02612708896633,0.1863951876509772,0 30.02587455540827,0.1863458165467674,0 30.02567431507242,0.1862428449707362,0 30.02542262321302,0.1861927479409804,0 30.02522173930376,0.1861414536745022,0 30.02507031417958,0.1861419460801821,0 30.02476817641625,0.186141787541387,0 30.02451688417913,0.1860922000332657,0 30.02421278516056,0.1860971337415873,0 30.02400854161699,0.1861522327823471,0 30.02380101220739,0.1863110926294007,0 30.02359652862382,0.1863662748988233,0 30.02339026013038,0.1864734320802881,0 30.02318866626058,0.1865226317118951,0 30.02298677136162,0.1866209732000381,0 30.02288581544591,0.1866701461778137,0 30.02248010371282,0.1867250221641182,0 30.02227811818454,0.1868238233240496,0 30.02212350681649,0.186927365514611,0 30.02196955533077,0.1870780979417407,0 30.02202029800977,0.1872709243520856,0 30.02196004802791,0.187434370730882,0 30.0219487359178,0.1876978564370294,0 30.02188821502028,0.1878623293147068,0 30.02176913061844,0.1881392215873115,0 30.0216519771206,0.1883638983746533,0 30.02143228019259,0.1885417380747347,0 30.02121771563437,0.188709606655791,0 30.02100655261962,0.18872436955714,0 30.02074189413985,0.1887436664275337,0 30.02053633601652,0.1887479943425695,0 30.02033388088816,0.1886978408882025,0 30.02008047443544,0.1886488312315672,0 30.01982835509124,0.1885984971679795,0 30.0196273898331,0.1885472402380579,0 30.01942768416728,0.1884943697872732,0 30.01918077098402,0.1883881313689414,0 30.01888074632678,0.1883834368520935,0 30.01872558786376,0.1884857993534076,0 30.01856386568643,0.1886464863053591,0 30.01840191998151,0.1888073960093982,0 30.01824082430421,0.1890152332223652,0 30.01813318641135,0.1891703694796552,0 30.01790812890374,0.1893497853370924,0 30.01790034951743,0.1896529045157177,0 30.01795035440046,0.1898970774884414,0 30.01794344715622,0.1901026853703655,0 30.01792220670387,0.1903794032175235,0 30.01789608926358,0.1907137589786273,0 30.01787423659044,0.1909934152748211,0 30.01786063199929,0.1911625267833758,0 30.0178275308072,0.1915109971231127,0 30.01786953801198,0.1918215677707988,0 30.01785543704312,0.1920913489356021,0 30.01783969823029,0.1923644845987296,0 30.01769607349663,0.192680974869796,0 30.01762214759942,0.1928674032819973,0 30.01753648609671,0.1932232542861505,0 30.01746204014291,0.1934111986077139,0 30.0174245731823,0.1938251705551842,0 30.01739907707243,0.1940696928223684,0 30.01736767012577,0.1943755628078344,0 30.01734251213142,0.1946210710616329,0 30.0172603117445,0.1948753046299495,0 30.01723588636191,0.1951713629245885,0 30.01705364659207,0.1953158810127929,0 30.01686122369064,0.1955793903220799,0 30.01667619176176,0.1957785166830484,0 30.01634178785692,0.1959610344880446,0 30.01616291936645,0.1961993714107139,0 30.01604662008265,0.1963191136513729,0 30.01581359697932,0.1965590313844335,0 30.01564338428888,0.196679916563709,0 30.01537598062367,0.1966834262471513,0 30.01515192992697,0.1968051381182274,0 30.01491978554745,0.1969910113384216,0 30.01474624279736,0.1971164757023789,0 30.01456991287082,0.1972973463633963,0 30.01438838256975,0.197537776137014,0 30.01415591305841,0.1977229396235552,0 30.01397376281174,0.1979633045825798,0 30.01385232983571,0.1981420184451689,0 30.01372151105284,0.1983858681352917,0 30.0134941474242,0.1985102720385668,0 30.0133867987841,0.1985107838254116,0 30.01305173095326,0.1986358327649111,0 30.01287745917787,0.198760266290794,0 30.01264251901083,0.1989470855787698,0 30.01246101880726,0.1991339017360478,0 30.01229351662801,0.1991956198794889,0 30.01204729004985,0.1995022171010108,0 30.01187312382041,0.1996254193142018,0 30.01163847050295,0.1998103736971621,0 30.01140259740724,0.1999968614372648,0 30.01122024833108,0.2001836573360984,0 30.01103755366298,0.2003708025443786,0 30.01085608162909,0.2005559209741442,0 30.01072697658607,0.2007951902723033,0 30.0106027862216,0.2009751789865455,0 30.01041259340508,0.2012251972012594,0 30.01027532135741,0.2014252379834332,0 30.01008303634106,0.2016780767398033,0 30.00989568024682,0.2018714391716102,0 30.00970793536396,0.2020651980705229,0 30.00951980361684,0.2022593616677265,0 30.00927466449728,0.2025096960817676,0 30.00919865425102,0.2026988187928005,0 30.00905083102588,0.2030189254756886,0 30.00897266229255,0.2032118092770528,0 30.00882656838546,0.2035298149625895,0 30.00874299725361,0.2037838948604559,0 30.00870868731092,0.20409951600491,0 30.0087345884138,0.2043554974386135,0 30.0088079352144,0.2046771422465335,0 30.00882621686781,0.2050000352918852,0 30.0087957759259,0.2052604174523553,0 30.00870684410625,0.2055263135378674,0 30.00879483726645,0.2057226314142797,0 30.00894755039843,0.2058515569284476,0 30.0091435070408,0.2061083281083529,0 30.00924133719035,0.2062909193625125,0 30.00921301160127,0.2065521062746618,0 30.00906976916772,0.2068194003277297,0 30.00897824017429,0.2071468106743906,0 30.0088885692053,0.2074719882058362,0 30.00875995863251,0.2076613072860914,0 30.00855800244961,0.2079334468369132,0 30.00846810121188,0.20820593189951,0 30.00833160439931,0.2084083476852642,0 30.00813000721953,0.2086795162488659,0 30.00798365904052,0.2089524170412395,0 30.00778240798598,0.2092230144213651,0 30.00774561772662,0.2095564462830528,0 30.00765828332441,0.2098257901448365,0 30.00756996446285,0.2100972507339369,0 30.00742423114833,0.2103700066737936,0 30.00738468933742,0.2107105733773885,0 30.00723462939865,0.2110457539930634,0 30.00714326013623,0.2113786834930906,0 30.0070016423912,0.2115902027818284,0 30.00684748077105,0.2118786707710144,0 30.00659723958678,0.2120799670292916,0 30.00629047368862,0.2122244797192082,0 30.00604492334708,0.2123619370411841,0 30.00582301067925,0.2122943455675692,0 30.00561656763851,0.2121467790783113,0 30.0055554921255,0.211839042218775,0 30.00537066811948,0.2116585804588209,0 30.00532117771591,0.211335437493744,0 30.00559999032045,0.2111814765715565,0 30.00583119305249,0.211011763390915,0 30.00602008518111,0.210818005985071,0 30.00621485337696,0.2106690101777694,0 30.0064044063521,0.210419797723002,0 30.00645421895124,0.2100666274021691,0 30.00637546121073,0.2097932247574773,0 30.00624328533265,0.2095164843719892,0 30.00627127652026,0.2092554825894691,0 30.00624600418985,0.2089901908547583,0 30.00627351891821,0.2087310460339911,0 30.0062496501123,0.2084111453076587,0 30.00623161901758,0.2080833812351471,0 30.00615083474167,0.2078206346727575,0 30.00613294711141,0.2074947281131417,0 30.00599741337954,0.2072325445093717,0 30.00602528712455,0.2069771732022826,0 30.00605302853637,0.2067224942217088,0 30.00597353986993,0.2064093505588925,0 30.00602064420512,0.2060214485087817,0 30.00600027476998,0.2057582692393464,0 30.00616243195628,0.205365955668124,0 30.00629886299375,0.2051697905191552,0 30.00644332909793,0.2049092394311674,0 30.00663857073382,0.2047077678710255,0 30.00684526972369,0.2044888083959182,0 30.00707913065877,0.204311188958123,0 30.00716778011784,0.2040516868971073,0 30.00720546151584,0.2037872485622407,0 30.00727465444816,0.2033736673910178,0 30.00732215794104,0.2030967909747498,0 30.00737990944596,0.2027538684585,0 30.0075192181729,0.2025028051352792,0 30.00767145644684,0.2022333571145633,0 30.00787842295845,0.2019633509016732,0 30.00794665080311,0.2018398831392221,0 30.0080923614449,0.201528347825732,0 30.00821878259109,0.2013474630497936,0 30.0084220467876,0.2009796577020146,0 30.00854916051759,0.200797948430591,0 30.00880055758625,0.2004383557759395,0 30.00898064173344,0.2002575794974244,0 30.00912310023937,0.2000028485122776,0 30.00929936414866,0.1998783101834037,0 30.0095207370896,0.1995365790510351,0 30.00967781219099,0.199210533851051,0 30.0098291829376,0.1989437334404644,0 30.01005450292173,0.1988243645336223,0 30.01032484013803,0.1986655424340669,0 30.01048980476065,0.1985052622279803,0 30.01075093636233,0.1984614971093249,0 30.01094550973726,0.1982073216292352,0 30.01103716446042,0.1979487674261415,0 30.01130529270089,0.197614814390293,0 30.01166632859163,0.1973996531632176,0 30.01192680405602,0.1974045948770826,0 30.01208164233343,0.1974101626845175,0 30.01233796229116,0.197423103848729,0 30.01259001309295,0.1974420868158001,0 30.01282982688458,0.1975308562430023,0 30.01298028338874,0.1975442388915453,0 30.01282561977,0.1978182197542435,0 
					</coordinates>
				</LinearRing>
			</outerBoundaryIs>
		</Polygon>
		<atom:link rel="app" href="https://www.google.com/earth/about/versions/#earth-pro" title="Google Earth Pro 7.3.6.10201"></atom:link>
	</Placemark>
</Document>
</kml>
