<?xml version="1.0" encoding="UTF-8"?>
<kml xmlns="http://www.opengis.net/kml/2.2" xmlns:gx="http://www.google.com/kml/ext/2.2" xmlns:kml="http://www.opengis.net/kml/2.2" xmlns:atom="http://www.w3.org/2005/Atom">
<Document>
	<name>Kasese_Basecamp.kml</name>
	<StyleMap id="m_ylw-pushpin">
		<Pair>
			<key>normal</key>
			<styleUrl>#s_ylw-pushpin</styleUrl>
		</Pair>
		<Pair>
			<key>highlight</key>
			<styleUrl>#s_ylw-pushpin_hl</styleUrl>
		</Pair>
	</StyleMap>
	<Style id="s_ylw-pushpin">
		<IconStyle>
			<scale>1.1</scale>
			<Icon>
				<href>http://maps.google.com/mapfiles/kml/pushpin/ylw-pushpin.png</href>
			</Icon>
			<hotSpot x="20" y="2" xunits="pixels" yunits="pixels"/>
		</IconStyle>
		<LineStyle>
			<width>0.6</width>
		</LineStyle>
		<PolyStyle>
			<color>ffffae6f</color>
		</PolyStyle>
	</Style>
	<Style id="s_ylw-pushpin_hl">
		<IconStyle>
			<scale>1.3</scale>
			<Icon>
				<href>http://maps.google.com/mapfiles/kml/pushpin/ylw-pushpin.png</href>
			</Icon>
			<hotSpot x="20" y="2" xunits="pixels" yunits="pixels"/>
		</IconStyle>
		<LineStyle>
			<width>0.6</width>
		</LineStyle>
		<PolyStyle>
			<color>ffffae6f</color>
		</PolyStyle>
	</Style>
	<Placemark>
		<name>Kasese_Basecamp</name>
		<styleUrl>#m_ylw-pushpin</styleUrl>
		<Polygon>
			<tessellate>1</tessellate>
			<outerBoundaryIs>
				<LinearRing>
					<coordinates>
						30.06412595858655,0.1891116536678265,0 30.06423063766048,0.1890130184168535,0 30.06433540324345,0.18891438723991,0 30.06444281832242,0.1887822917621113,0 30.06455011186651,0.1886503425709992,0 30.06459027267567,0.1885183312144474,0 30.06463167919848,0.1883536529440038,0 30.0647386302915,0.1881899111304433,0 30.06484447124337,0.1880589889499213,0 30.06491794011211,0.1879276176127801,0 30.06505375215311,0.1878627982764567,0 30.06518787860351,0.1878308726975845,0 30.06532971871975,0.1876993018516617,0 30.06543595429329,0.187600757234984,0 30.06550921925484,0.187502009610308,0 30.06552197698036,0.1873365242906788,0 30.06553724466907,0.1871383297214123,0 30.06544679005563,0.1870383411461024,0 30.06539162305199,0.1869059016647907,0 30.06530104196542,0.1868062488966676,0 30.0652101616261,0.1867068066480107,0 30.06514717683418,0.186673347455087,0 30.06502897123053,0.1865081055755118,0 30.06493850274409,0.1864088934734402,0 30.06485071731283,0.1862770783978303,0 30.06476565751267,0.1861127948331273,0 30.06471114376653,0.1859815978427946,0 30.06472009203062,0.1858836382732065,0 30.06473200152313,0.1857532085566632,0 30.06478273590752,0.1855582330047338,0 30.06483039718297,0.1853961750712492,0 30.06490263646457,0.185331780949585,0 30.06502379659428,0.1851057789477245,0 30.0651317361105,0.185009668138749,0 30.06530176895359,0.1849465759316113,0 30.06533448577242,0.1849468751616218,0 30.06557004622506,0.1848844118351507,0 30.06570431765238,0.1848533198660854,0 30.06587331388201,0.184822215491259,0 30.06611250106827,0.1847592794738693,0 30.06631443987121,0.1847284541248433,0 30.0664172122641,0.184696953936744,0 30.0666518322581,0.184666420782655,0 30.06681663895147,0.1846675853800477,0 30.06698251781907,0.1846685574012204,0 30.0671482157348,0.1846695349811212,0 30.0673442818036,0.1846711069158304,0 30.06743855217333,0.1847040321328263,0 30.06766107036174,0.1847384115562517,0 30.06778254448636,0.1848041387683362,0 30.06790415592238,0.1848699405682193,0 30.0680566126059,0.1849364594658852,0 30.06817695067055,0.185002754354317,0 30.06836074872915,0.1850700925950692,0 30.06851316937831,0.1851370640456077,0 30.06869985208029,0.1851724017058075,0 30.06891566562964,0.1852089609522844,0 30.06897816018291,0.1852101739588081,0 30.06919290078995,0.1852789692074544,0 30.0693474684941,0.1853143515665484,0 30.0695349861846,0.1853182607690517,0 30.06972084993861,0.1853227400554541,0 30.06987635772863,0.1853263765097831,0 30.07002912568196,0.1853946046867141,0 30.0701821471153,0.1854629887681185,0 30.07027205783387,0.1855621773821908,0 30.07032979981105,0.1856930095592963,0 30.07045231317671,0.1857610388420113,0 30.07063973665191,0.1857661560692958,0 30.07092131569686,0.1857739633278596,0 30.07107813087659,0.1857783121707496,0 30.07123745208241,0.1857496659686038,0 30.07133266318188,0.1857518866168085,0 30.07145911611682,0.1857551299152501,0 30.07158571874587,0.1857583735223639,0 30.07180754947783,0.1857641062246691,0 30.07190273526252,0.1857665868546719,0 30.07209337992584,0.1857715508046677,0 30.07221977787143,0.1858074813809865,0 30.07234492686466,0.1859085679668835,0 30.07250544684296,0.1859766284432176,0 30.07256854190476,0.1860431660058532,0 30.07269846163276,0.1860453901926384,0 30.07288991989538,0.1861797512459219,0 30.07308457619116,0.1862156869417743,0 30.07327906494221,0.1862840357582194,0 30.07340741315448,0.1863843367105223,0 30.07350312940769,0.1864842512158773,0 30.07359810400929,0.1866171260665564,0 30.07382523230278,0.1867189387135925,0 30.07392207403044,0.1867860811579575,0 30.07408541700467,0.186821190617654,0 30.07428090259267,0.1868897081163869,0 30.07444438011738,0.1869248505132512,0 30.07467353258578,0.186960988823938,0 30.07483767773957,0.186963361728133,0 30.07500121735574,0.1869986903072787,0 30.07509974859323,0.1870001317188705,0 30.07523052441842,0.1870350019449301,0 30.07539421552759,0.1870703609770699,0 30.07552459369657,0.1871380706788989,0 30.07562214501857,0.187205334758215,0 30.07581785123618,0.1873071565012938,0 30.07584852619268,0.1874398031186059,0 30.07584684883652,0.1875390138518728,0 30.07591051133052,0.1876723223751441,0 30.07597422751547,0.1878057463530249,0 30.07610503565211,0.1878739129880554,0 30.07620239914346,0.1879748139619779,0 30.07629981639283,0.1880757634561812,0 30.07639735643171,0.1881766972659017,0 30.07652843543942,0.1882451087617787,0 30.07662608595027,0.1883461905435296,0 30.076757324399,0.1884145172743556,0 30.07688862930435,0.1884828800624405,0 30.07698648068453,0.1885841226339462,0 30.07711791626275,0.1886525657672131,0 30.07721590511594,0.1887539270283412,0 30.07734747139675,0.1888224513407553,0 30.07747831297716,0.188957767198237,0 30.07757613279657,0.1890927525162771,0 30.07760773966623,0.1892269315632874,0 30.07767215941932,0.1893951609440966,0 30.07770384579309,0.1895296243457271,0 30.07773555333128,0.1896645905048324,0 30.07773445731085,0.1897656482003118,0 30.07766616108629,0.189933157996773,0 30.07766428721657,0.1901019554384865,0 30.07772969417444,0.1902044302574613,0 30.07779552794182,0.1902730178740787,0 30.07792796501791,0.1903428399137267,0 30.07802684542974,0.1904459513895422,0 30.07822611450248,0.1905171182589325,0 30.07835824865986,0.1906548265580011,0 30.07852390184299,0.1907932904705696,0 30.07868997906111,0.1908980014733478,0 30.07878941482459,0.1910015885708048,0 30.07885546933606,0.1911043322141173,0 30.07888748817997,0.1912736111302697,0 30.07888637783054,0.1914087414320716,0 30.07878522584831,0.1915086368482964,0 30.07868402753374,0.1916085770470669,0 30.07861653891518,0.1916752284243683,0 30.07851588567714,0.1917075486752505,0 30.07831404742317,0.1918413134923204,0 30.07814598961652,0.191905467619782,0 30.07797803747874,0.1919715234581864,0 30.07787730373508,0.1920043607942388,0 30.07777654955997,0.1920370895308451,0 30.07757576939438,0.192034124153738,0 30.07737501304849,0.1920311591923551,0 30.07720774778157,0.1920282337894783,0 30.07704095440608,0.1919911598971829,0 30.07697405867937,0.1919900006376203,0 30.07670707209185,0.191951423478049,0 30.07657388176294,0.191915113404828,0 30.07640734525546,0.1918781012966373,0 30.076241495191,0.1918065608604825,0 30.07607473675673,0.191802672368508,0 30.07594196000938,0.1917653288092658,0 30.07584243873582,0.1917296602966574,0 30.07557608738756,0.191691755150707,0 30.07540992790129,0.1916552118327753,0 30.07521047303972,0.1916182336128845,0 30.07501117725137,0.1915809627312396,0 30.07487869868243,0.191544432638894,0 30.07467970947063,0.1915067184165558,0 30.07444756120342,0.1914684250657979,0 30.07424798695929,0.1914648288899895,0 30.07398282728527,0.1914259664308879,0 30.07394958490644,0.1914253670703902,0 30.07375017678303,0.1914217784140092,0 30.07361724287662,0.1914194348236915,0 30.07341785931624,0.191415977583852,0 30.07321757727577,0.1914465735175103,0 30.07308465393707,0.1914443520120274,0 30.07295170795421,0.1914422230521441,0 30.0727513356019,0.1914730365131783,0 30.07255094997427,0.1915038537188064,0 30.07238474554845,0.1915012999372311,0 30.07221764197379,0.1915325261233722,0 30.07205152929923,0.191529862277031,0 30.07185222698726,0.1915266633276377,0 30.07165296743508,0.1915234677137384,0 30.0715544807627,0.1914878675100341,0 30.07135548778419,0.1914844181702656,0 30.07122285402118,0.1914821169345138,0 30.07099196146304,0.1914441572483236,0 30.07089266590607,0.191442276856151,0 30.07076278214922,0.1913718131616886,0 30.07056582307531,0.1913338306691883,0 30.07037027854188,0.1912619448980903,0 30.07024088056349,0.191191445016127,0 30.07007871185744,0.1911202318762321,0 30.06994960446927,0.1910497678581306,0 30.06982059648771,0.1909793593107403,0 30.0696574453031,0.1909421216074867,0 30.06952835763047,0.1908720901216792,0 30.06939589063864,0.1908703223763127,0 30.06920047876356,0.1907996935042059,0 30.06903495984982,0.1907974876254699,0 30.06887114135179,0.1907613099572899,0 30.06867257344378,0.190758664382154,0 30.06854019841956,0.1907569008029233,0 30.06840783283546,0.19075513701458,0 30.06820929451094,0.1907524920599701,0 30.06807690568901,0.1907507504031129,0 30.06791227040493,0.1907479494706502,0 30.06774784302476,0.1907449632771863,0 30.06764920699437,0.190743172125524,0 30.06748646432028,0.1907064597697354,0 30.06732380833764,0.1906697653530844,0 30.06719572962614,0.1905999892544359,0 30.06703156689002,0.1905970259199571,0 30.06690364879386,0.1905273084210992,0 30.06677553364539,0.1904578310463027,0 30.06664713964428,0.1903886509741472,0 30.06648413501442,0.1903526558740347,0 30.06629001739141,0.1902825975522297,0 30.0661618645332,0.1902135215067966,0 30.06603198470014,0.1901780580166784,0 30.06590214269393,0.190142606774553,0 30.06574174473304,0.1900728724193524,0 30.06561065183912,0.1900707037631108,0 30.06541587007949,0.1900339706067803,0 30.06531732050373,0.1900325106864635,0 30.06512222314353,0.1899960318016673,0 30.06499287145998,0.1899605386724172,0 30.06492721032421,0.1899595669924694,0 30.06479791941535,0.1899240883025936,0 30.06457207148146,0.189853763052374,0 30.06440986718361,0.1898179619909434,0 30.06428256216915,0.1897491867159885,0 30.06415735948068,0.1896470254894615,0 30.06406737244188,0.1895119042079781,0 30.06413918983369,0.1894126125759576,0 30.06420906661643,0.1893466946662637,0 30.06412595858655,0.1891116536678265,0 
					</coordinates>
				</LinearRing>
			</outerBoundaryIs>
		</Polygon>
		<atom:link rel="app" href="https://www.google.com/earth/about/versions/#earth-pro" title="Google Earth Pro 7.3.6.10201"></atom:link>
	</Placemark>
</Document>
</kml>
